{
"type": "FeatureCollection",
"name": "roads_cut",
"crs": { "type": "name", "properties": { "name": "urn:ogc:def:crs:OGC:1.3:CRS84" } },
"features": [
{ "type": "Feature", "properties": { "name": "", "cls": "tertiary", "max_depth": 5.2039999961853027, "flooded_km": 2.4434807907772882 }, "geometry": { "type": "LineString", "coordinates": [ [ 70.8506933, 22.7710016 ], [ 70.8506332, 22.7712587 ], [ 70.8505893, 22.7724157 ], [ 70.8486414, 22.7773587 ], [ 70.8479333, 22.7784468 ], [ 70.8475578, 22.7791788 ], [ 70.8471703, 22.7808096 ], [ 70.8471405, 22.7809351 ], [ 70.8468497, 22.7822552 ], [ 70.84656, 22.7832147 ], [ 70.8458948, 22.7841149 ], [ 70.8457389, 22.7844889 ], [ 70.8452594, 22.7896409 ], [ 70.8451009, 22.7907223 ], [ 70.8450365, 22.791118 ], [ 70.8442048, 22.7928292 ], [ 70.8417145, 22.7992708 ], [ 70.8409838, 22.8017699 ], [ 70.840615, 22.803031 ], [ 70.8405711, 22.8031812 ], [ 70.8395014, 22.8051193 ], [ 70.8392364, 22.8056022 ], [ 70.8387084, 22.8065644 ], [ 70.8385838, 22.8073527 ], [ 70.8384902, 22.8079446 ], [ 70.8383443, 22.8093181 ], [ 70.8382301, 22.8095361 ], [ 70.8378593, 22.8101015 ], [ 70.8371848, 22.8111298 ], [ 70.8369192, 22.8114821 ], [ 70.8362105, 22.8124223 ], [ 70.8357916, 22.8129779 ], [ 70.8357321, 22.8130569 ], [ 70.834991, 22.8140399 ], [ 70.8349407, 22.8141067 ], [ 70.833885, 22.815507 ], [ 70.8333599, 22.8162036 ], [ 70.8333189, 22.8162633 ], [ 70.83311, 22.8165677 ] ] } },
{ "type": "Feature", "properties": { "name": "", "cls": "tertiary", "max_depth": 4.7100000381469727, "flooded_km": 0.10487331068797189 }, "geometry": { "type": "LineString", "coordinates": [ [ 70.8399295, 22.8177853 ], [ 70.840179, 22.8177721 ], [ 70.8402707, 22.8177883 ], [ 70.8403373, 22.8178957 ], [ 70.8404982, 22.8179896 ], [ 70.8405965, 22.8182751 ], [ 70.8405423, 22.8185336 ], [ 70.8403212, 22.8186423 ], [ 70.8400305, 22.8187997 ], [ 70.8390715, 22.8197135 ], [ 70.8390121, 22.8198614 ], [ 70.8387026, 22.8206314 ], [ 70.8386704, 22.8207434 ], [ 70.8382292, 22.8222758 ] ] } },
{ "type": "Feature", "properties": { "name": "Mayur Bridge", "cls": "primary", "max_depth": 9.0880002975463867, "flooded_km": 0.47318907022800316 }, "geometry": { "type": "LineString", "coordinates": [ [ 70.8431874, 22.8235167 ], [ 70.8381928, 22.8228813 ] ] } },
{ "type": "Feature", "properties": { "name": "", "cls": "secondary", "max_depth": 14.045000076293945, "flooded_km": 0.25962961156950415 }, "geometry": { "type": "LineString", "coordinates": [ [ 70.8613266, 22.7696686 ], [ 70.8591428, 22.7684876 ] ] } },
{ "type": "Feature", "properties": { "name": "Morbi Bypass", "cls": "primary", "max_depth": 15.315999984741211, "flooded_km": 0.38901403347273061 }, "geometry": { "type": "LineString", "coordinates": [ [ 70.8257585, 22.8598141 ], [ 70.8233768, 22.8570815 ] ] } },
{ "type": "Feature", "properties": { "name": "Morbi Bypass", "cls": "primary", "max_depth": 4.304999828338623, "flooded_km": 0.059966414363571141 }, "geometry": { "type": "LineString", "coordinates": [ [ 70.8414358, 22.8774656 ], [ 70.8414137, 22.8773566 ], [ 70.8411553, 22.8770709 ], [ 70.837951, 22.8734406 ], [ 70.837384, 22.8727982 ], [ 70.8366186, 22.871931 ], [ 70.8349173, 22.8700034 ], [ 70.8345768, 22.8696177 ], [ 70.832924, 22.8677451 ], [ 70.832234, 22.8669633 ], [ 70.8318899, 22.8665734 ], [ 70.8279022, 22.8620551 ], [ 70.8273869, 22.8614846 ], [ 70.8257585, 22.8598141 ] ] } },
{ "type": "Feature", "properties": { "name": "", "cls": "tertiary", "max_depth": 2.7579998970031738, "flooded_km": 0.4038684152037561 }, "geometry": { "type": "LineString", "coordinates": [ [ 70.8294102, 22.8197648 ], [ 70.8294945, 22.8194382 ], [ 70.8295499, 22.8192639 ], [ 70.8295868, 22.8190708 ], [ 70.829603, 22.8189859 ], [ 70.8296736, 22.8187679 ], [ 70.8297773, 22.8184878 ], [ 70.8298352, 22.8181742 ], [ 70.8300213, 22.8174825 ], [ 70.8300262, 22.8169948 ], [ 70.8300283, 22.8167861 ], [ 70.8300296, 22.8166524 ], [ 70.8300313, 22.8164918 ], [ 70.8300387, 22.8157456 ], [ 70.8300329, 22.8155903 ], [ 70.8300329, 22.8153724 ], [ 70.8300329, 22.8152422 ], [ 70.8300288, 22.8149817 ], [ 70.8300213, 22.8144977 ], [ 70.8300387, 22.8143745 ], [ 70.8300736, 22.8142353 ], [ 70.8303149, 22.8139763 ], [ 70.830492, 22.8137211 ], [ 70.8305855, 22.8136349 ], [ 70.8310033, 22.8132498 ], [ 70.8312544, 22.8130883 ], [ 70.8314189, 22.813051 ], [ 70.8324908, 22.8126981 ], [ 70.832682, 22.8126344 ], [ 70.8332461, 22.8124464 ], [ 70.8336409, 22.8122833 ], [ 70.8337516, 22.8122375 ], [ 70.8340305, 22.8121893 ], [ 70.8340656, 22.8121934 ], [ 70.8342165, 22.8122107 ], [ 70.834334, 22.8122673 ], [ 70.8345783, 22.8124051 ], [ 70.8348227, 22.8125239 ], [ 70.8350256, 22.8126428 ], [ 70.8352372, 22.8127697 ], [ 70.8354779, 22.8129079 ], [ 70.8357321, 22.8130569 ] ] } },
{ "type": "Feature", "properties": { "name": "", "cls": "residential", "max_depth": 2.1889998912811279, "flooded_km": 0.13446576075980066 }, "geometry": { "type": "LineString", "coordinates": [ [ 70.832682, 22.8126344 ], [ 70.8327452, 22.8126679 ], [ 70.8329639, 22.8127839 ], [ 70.8332109, 22.8129149 ], [ 70.8334235, 22.8130441 ], [ 70.8336467, 22.8131927 ], [ 70.8338644, 22.8133556 ], [ 70.8341001, 22.8134987 ], [ 70.8343066, 22.8136242 ], [ 70.8345217, 22.8137548 ], [ 70.8347538, 22.8138958 ], [ 70.834991, 22.8140399 ] ] } },
{ "type": "Feature", "properties": { "name": "", "cls": "residential", "max_depth": 4.3470001220703125, "flooded_km": 0.37487011350853156 }, "geometry": { "type": "LineString", "coordinates": [ [ 70.8364342, 22.8106641 ], [ 70.836256, 22.8109393 ], [ 70.8362313, 22.8110529 ], [ 70.8361492, 22.8111324 ], [ 70.8360752, 22.8112195 ], [ 70.835993, 22.8112612 ], [ 70.8358657, 22.8113332 ], [ 70.8353275, 22.811568 ], [ 70.8351795, 22.8116058 ], [ 70.8351138, 22.8116437 ], [ 70.8350809, 22.8116854 ], [ 70.8350111, 22.8117573 ], [ 70.8348755, 22.8119353 ], [ 70.8346331, 22.8122913 ], [ 70.8345783, 22.8124051 ], [ 70.8338644, 22.8133556 ], [ 70.8337574, 22.8134908 ], [ 70.8332229, 22.8141924 ], [ 70.8330061, 22.8140551 ], [ 70.8327723, 22.8139069 ], [ 70.8325558, 22.8137697 ], [ 70.8324531, 22.8137046 ], [ 70.8323516, 22.8136403 ], [ 70.8322586, 22.8135814 ], [ 70.8321462, 22.8135101 ], [ 70.8321073, 22.8134855 ], [ 70.8320558, 22.813453 ], [ 70.8319468, 22.8133842 ], [ 70.8314189, 22.813051 ] ] } },
{ "type": "Feature", "properties": { "name": "", "cls": "residential", "max_depth": 0.8190000057220459, "flooded_km": 0.013804646801767803 }, "geometry": { "type": "LineString", "coordinates": [ [ 70.8318582, 22.8142307 ], [ 70.8322586, 22.8135814 ] ] } },
{ "type": "Feature", "properties": { "name": "", "cls": "residential", "max_depth": 2.1889998912811279, "flooded_km": 0.083789501824131515 }, "geometry": { "type": "LineString", "coordinates": [ [ 70.8321462, 22.8135101 ], [ 70.8327452, 22.8126679 ] ] } },
{ "type": "Feature", "properties": { "name": "", "cls": "residential", "max_depth": 1.4789999723434448, "flooded_km": 0.099561155586993494 }, "geometry": { "type": "LineString", "coordinates": [ [ 70.8323516, 22.8136403 ], [ 70.8329639, 22.8127839 ] ] } },
{ "type": "Feature", "properties": { "name": "", "cls": "residential", "max_depth": 3.7079999446868896, "flooded_km": 0.40350989284665584 }, "geometry": { "type": "LineString", "coordinates": [ [ 70.8327723, 22.8139069 ], [ 70.8334235, 22.8130441 ], [ 70.8340656, 22.8121934 ], [ 70.8342041, 22.8117628 ], [ 70.8343054, 22.8114478 ], [ 70.8343054, 22.8113179 ], [ 70.8343054, 22.8112657 ], [ 70.8340498, 22.8112121 ], [ 70.8336546, 22.8112228 ], [ 70.8336314, 22.8113621 ], [ 70.8336309, 22.8117372 ], [ 70.8336409, 22.8122833 ] ] } },
{ "type": "Feature", "properties": { "name": "", "cls": "residential", "max_depth": 2.1579999923706055, "flooded_km": 0.14140504917628233 }, "geometry": { "type": "LineString", "coordinates": [ [ 70.8330061, 22.8140551 ], [ 70.8336467, 22.8131927 ], [ 70.834334, 22.8122673 ] ] } },
{ "type": "Feature", "properties": { "name": "", "cls": "residential", "max_depth": 3.2330000400543213, "flooded_km": 0.23262424095593101 }, "geometry": { "type": "LineString", "coordinates": [ [ 70.8388222, 22.8115894 ], [ 70.838738, 22.8105663 ], [ 70.8386998, 22.8101015 ], [ 70.8386761, 22.8098138 ], [ 70.838647, 22.8092568 ], [ 70.8383443, 22.8093181 ] ] } },
{ "type": "Feature", "properties": { "name": "", "cls": "residential", "max_depth": 12.923000335693359, "flooded_km": 0.055403206700951384 }, "geometry": { "type": "LineString", "coordinates": [ [ 70.8404018, 22.811817 ], [ 70.8400923, 22.8118539 ], [ 70.8399079, 22.8118759 ], [ 70.8390712, 22.8120205 ] ] } },
{ "type": "Feature", "properties": { "name": "", "cls": "residential", "max_depth": 1.1579999923706055, "flooded_km": 0.029809262409033772 }, "geometry": { "type": "LineString", "coordinates": [ [ 70.8400358, 22.8114638 ], [ 70.8400923, 22.8118539 ], [ 70.8402856, 22.8127222 ], [ 70.8403695, 22.8129067 ] ] } },
{ "type": "Feature", "properties": { "name": "", "cls": "residential", "max_depth": 0.42800000309944153, "flooded_km": 0.028680730644833025 }, "geometry": { "type": "LineString", "coordinates": [ [ 70.8348227, 22.8125239 ], [ 70.8341001, 22.8134987 ], [ 70.8334423, 22.8143307 ], [ 70.8332229, 22.8141924 ] ] } },
{ "type": "Feature", "properties": { "name": "", "cls": "residential", "max_depth": 2.4690001010894775, "flooded_km": 0.029657835457620487 }, "geometry": { "type": "LineString", "coordinates": [ [ 70.8349407, 22.8141067 ], [ 70.8352428, 22.8142999 ], [ 70.8353855, 22.8143911 ], [ 70.8355493, 22.8144958 ], [ 70.8356939, 22.8145882 ], [ 70.8357596, 22.8146375 ], [ 70.8360109, 22.8143093 ], [ 70.8364992, 22.8136717 ], [ 70.8366113, 22.8136022 ], [ 70.8367375, 22.813524 ], [ 70.8370826, 22.8133498 ], [ 70.8372469, 22.8133006 ], [ 70.8373209, 22.8133309 ], [ 70.8373771, 22.8133406 ], [ 70.8375386, 22.8133687 ], [ 70.8375853, 22.8133919 ], [ 70.8376455, 22.8134218 ], [ 70.8378922, 22.8135213 ], [ 70.8380399, 22.8135808 ], [ 70.8382371, 22.8136338 ], [ 70.8383727, 22.8136982 ], [ 70.8384631, 22.8137172 ], [ 70.8386151, 22.8137475 ], [ 70.8390054, 22.8138497 ], [ 70.8391985, 22.8139293 ], [ 70.839445, 22.8139065 ], [ 70.8395198, 22.8138676 ], [ 70.8397285, 22.8137588 ], [ 70.8402134, 22.8134861 ], [ 70.8403284, 22.8131756 ], [ 70.840353, 22.8129446 ], [ 70.8403695, 22.8129067 ], [ 70.8404681, 22.8128764 ], [ 70.8405822, 22.8128326 ] ] } },
{ "type": "Feature", "properties": { "name": "", "cls": "residential", "max_depth": 1.968000054359436, "flooded_km": 0.12789925187379966 }, "geometry": { "type": "LineString", "coordinates": [ [ 70.8336409, 22.8122833 ], [ 70.8334275, 22.8126307 ], [ 70.8332109, 22.8129149 ], [ 70.8325749, 22.8137498 ], [ 70.8325558, 22.8137697 ] ] } },
{ "type": "Feature", "properties": { "name": "", "cls": "tertiary", "max_depth": 13.843000411987305, "flooded_km": 0.98917469118855506 }, "geometry": { "type": "LineString", "coordinates": [ [ 70.8399295, 22.8177853 ], [ 70.8399703, 22.8174278 ], [ 70.8403588, 22.8171744 ], [ 70.8406481, 22.8169772 ], [ 70.8409541, 22.816817 ], [ 70.841158, 22.8167867 ], [ 70.8418221, 22.816688 ], [ 70.841939, 22.8166181 ], [ 70.8419086, 22.8162824 ], [ 70.8418938, 22.8161182 ], [ 70.8417862, 22.8157578 ], [ 70.8417444, 22.8154322 ], [ 70.8417294, 22.8153154 ], [ 70.8416144, 22.8150995 ], [ 70.8413726, 22.8144435 ], [ 70.8411378, 22.8138611 ], [ 70.8410638, 22.8137058 ], [ 70.8410597, 22.8136338 ], [ 70.8410721, 22.8134937 ], [ 70.8409858, 22.8133763 ], [ 70.8408913, 22.8132286 ], [ 70.840805, 22.8131226 ], [ 70.84069, 22.8129711 ], [ 70.8405822, 22.8128326 ], [ 70.8405616, 22.8127469 ], [ 70.8404018, 22.811817 ], [ 70.8403786, 22.811667 ], [ 70.8402768, 22.8114986 ], [ 70.8401926, 22.8114581 ], [ 70.8400358, 22.8114638 ], [ 70.8398963, 22.8114689 ], [ 70.8395186, 22.8115278 ], [ 70.8392106, 22.811555 ], [ 70.8388222, 22.8115894 ], [ 70.8386674, 22.8116031 ], [ 70.8384902, 22.8116188 ], [ 70.8378517, 22.8116161 ], [ 70.8377354, 22.81161 ], [ 70.8374336, 22.8115734 ], [ 70.8371848, 22.8111298 ], [ 70.8364342, 22.8106641 ], [ 70.8360874, 22.810524 ], [ 70.8358504, 22.8104308 ], [ 70.8357776, 22.8103926 ], [ 70.8353722, 22.8101951 ], [ 70.8352131, 22.8101177 ], [ 70.8350865, 22.810056 ], [ 70.8349429, 22.8099266 ], [ 70.8348382, 22.8098324 ], [ 70.8347029, 22.8097105 ], [ 70.8345126, 22.8095391 ], [ 70.8340823, 22.8093949 ], [ 70.8337688, 22.8094957 ], [ 70.8331998, 22.8096787 ], [ 70.8327279, 22.8098305 ], [ 70.8322753, 22.809976 ], [ 70.8317974, 22.8101297 ], [ 70.830971, 22.8103954 ], [ 70.8306975, 22.8104834 ], [ 70.8302922, 22.8106138 ], [ 70.8289376, 22.8110718 ], [ 70.8279975, 22.8119817 ] ] } },
{ "type": "Feature", "properties": { "name": "", "cls": "residential", "max_depth": 2.1889998912811279, "flooded_km": 0.14877381956683475 }, "geometry": { "type": "LineString", "coordinates": [ [ 70.8312927, 22.8088176 ], [ 70.8314029, 22.809171 ], [ 70.8315491, 22.8095355 ], [ 70.8317974, 22.8101297 ], [ 70.8319336, 22.8105444 ], [ 70.8320507, 22.8109008 ], [ 70.83222, 22.8113321 ], [ 70.8323435, 22.8116469 ], [ 70.8325103, 22.8121336 ], [ 70.832682, 22.8126344 ] ] } },
{ "type": "Feature", "properties": { "name": "", "cls": "residential", "max_depth": 1.0590000152587891, "flooded_km": 0.014768069535858557 }, "geometry": { "type": "LineString", "coordinates": [ [ 70.8298088, 22.8135395 ], [ 70.8303113, 22.8130671 ], [ 70.8307577, 22.8126475 ], [ 70.8311876, 22.8129164 ] ] } },
{ "type": "Feature", "properties": { "name": "", "cls": "residential", "max_depth": 1.4980000257492065, "flooded_km": 0.17974128890091368 }, "geometry": { "type": "LineString", "coordinates": [ [ 70.8293219, 22.8081184 ], [ 70.8297301, 22.8079902 ], [ 70.8308972, 22.8076235 ], [ 70.8322217, 22.8071546 ], [ 70.832818, 22.8069435 ], [ 70.8331517, 22.8068254 ], [ 70.8332307, 22.8070438 ], [ 70.8332896, 22.8072062 ], [ 70.8334502, 22.8076496 ], [ 70.8335933, 22.8080448 ], [ 70.8337271, 22.8084143 ], [ 70.8338558, 22.8087694 ], [ 70.833984, 22.8091236 ], [ 70.8340823, 22.8093949 ], [ 70.8342756, 22.8100493 ] ] } },
{ "type": "Feature", "properties": { "name": "", "cls": "residential", "max_depth": 0.63899999856948853, "flooded_km": 0.029709743419985404 }, "geometry": { "type": "LineString", "coordinates": [ [ 70.8331998, 22.8096787 ], [ 70.8329542, 22.8090688 ], [ 70.8328288, 22.8087068 ], [ 70.8327027, 22.808344 ], [ 70.8325428, 22.8079382 ], [ 70.8323638, 22.8075129 ], [ 70.8322217, 22.8071546 ] ] } },
{ "type": "Feature", "properties": { "name": "", "cls": "residential", "max_depth": 1.4980000257492065, "flooded_km": 0.10119179198575746 }, "geometry": { "type": "LineString", "coordinates": [ [ 70.8342756, 22.8100493 ], [ 70.8339823, 22.8100075 ], [ 70.8338566, 22.8096895 ], [ 70.8337688, 22.8094957 ], [ 70.8335346, 22.8088761 ], [ 70.8334148, 22.808516 ], [ 70.8332737, 22.8081522 ], [ 70.833126, 22.8077527 ], [ 70.8329573, 22.8073163 ], [ 70.832818, 22.8069435 ] ] } },
{ "type": "Feature", "properties": { "name": "", "cls": "residential", "max_depth": 0.81300002336502075, "flooded_km": 0.088553640711830001 }, "geometry": { "type": "LineString", "coordinates": [ [ 70.8365125, 22.829977 ], [ 70.8364869, 22.8294443 ], [ 70.8364413, 22.8287675 ], [ 70.8364355, 22.8286686 ], [ 70.8364218, 22.8284362 ], [ 70.8363498, 22.8272137 ], [ 70.8362776, 22.8251662 ], [ 70.8362743, 22.8250715 ], [ 70.8362685, 22.8246591 ], [ 70.836214, 22.8245137 ], [ 70.8361581, 22.8243646 ], [ 70.8361116, 22.823995 ], [ 70.8361054, 22.8239367 ], [ 70.8360883, 22.8237755 ], [ 70.8360825, 22.8235773 ], [ 70.8360477, 22.8234381 ], [ 70.8360186, 22.8233524 ], [ 70.8358443, 22.8232988 ], [ 70.8354478, 22.8233039 ] ] } },
{ "type": "Feature", "properties": { "name": "", "cls": "residential", "max_depth": 4.3470001220703125, "flooded_km": 0.44361935587765045 }, "geometry": { "type": "LineString", "coordinates": [ [ 70.836256, 22.8109393 ], [ 70.8360218, 22.8111249 ], [ 70.835915, 22.8111665 ], [ 70.8358041, 22.8111892 ], [ 70.8357013, 22.8111589 ], [ 70.8356561, 22.8111211 ], [ 70.835565, 22.8110698 ], [ 70.8351919, 22.8108598 ], [ 70.8347235, 22.8106552 ], [ 70.8344729, 22.8105037 ], [ 70.8342839, 22.8104166 ], [ 70.834251, 22.8102424 ], [ 70.8342756, 22.8100493 ], [ 70.834543, 22.8100626 ], [ 70.8347317, 22.810072 ], [ 70.834796, 22.8100865 ], [ 70.8349495, 22.8101212 ], [ 70.835085, 22.8101856 ], [ 70.8358504, 22.8104308 ] ] } },
{ "type": "Feature", "properties": { "name": "", "cls": "residential", "max_depth": 2.2780001163482666, "flooded_km": 0.021561742932853296 }, "geometry": { "type": "LineString", "coordinates": [ [ 70.8349495, 22.8101212 ], [ 70.8349429, 22.8099266 ] ] } },
{ "type": "Feature", "properties": { "name": "", "cls": "residential", "max_depth": 2.6909999847412109, "flooded_km": 0.014472731385539679 }, "geometry": { "type": "LineString", "coordinates": [ [ 70.834825, 22.8056138 ], [ 70.8346328, 22.8057679 ], [ 70.8345107, 22.8059072 ], [ 70.8343829, 22.8059661 ], [ 70.8342839, 22.8060396 ], [ 70.8341737, 22.8061214 ], [ 70.8340136, 22.8061997 ], [ 70.8337947, 22.8063068 ], [ 70.8341688, 22.8064437 ], [ 70.8341729, 22.8065952 ], [ 70.8341387, 22.8066353 ], [ 70.8340661, 22.8067202 ], [ 70.8340289, 22.8068167 ], [ 70.8339346, 22.8070611 ], [ 70.8339045, 22.807099 ], [ 70.8338566, 22.8071595 ], [ 70.8337497, 22.8072239 ], [ 70.8336511, 22.8072353 ], [ 70.8332307, 22.8070438 ] ] } },
{ "type": "Feature", "properties": { "name": "", "cls": "residential", "max_depth": 0.92100000381469727, "flooded_km": 0.029522609175378009 }, "geometry": { "type": "LineString", "coordinates": [ [ 70.8332503, 22.806042 ], [ 70.8338525, 22.8062506 ], [ 70.8337947, 22.8063068 ], [ 70.8337087, 22.8063907 ], [ 70.83338, 22.8065763 ], [ 70.8330689, 22.8067149 ] ] } },
{ "type": "Feature", "properties": { "name": "", "cls": "residential", "max_depth": 0.99000000953674316, "flooded_km": 0.070878531918111137 }, "geometry": { "type": "LineString", "coordinates": [ [ 70.8339045, 22.807099 ], [ 70.8331517, 22.8068254 ], [ 70.8330431, 22.8067959 ], [ 70.8330689, 22.8067149 ], [ 70.8331207, 22.806553 ], [ 70.8332503, 22.806042 ], [ 70.8332896, 22.805887 ] ] } },
{ "type": "Feature", "properties": { "name": "", "cls": "residential", "max_depth": 4.1269998550415039, "flooded_km": 0.55467920626398814 }, "geometry": { "type": "LineString", "coordinates": [ [ 70.8347029, 22.8097105 ], [ 70.8348285, 22.8093756 ], [ 70.834919, 22.8091344 ], [ 70.8350286, 22.8088423 ], [ 70.8351203, 22.8085979 ], [ 70.8352002, 22.808385 ], [ 70.8352906, 22.808144 ], [ 70.8353653, 22.8079449 ], [ 70.8354549, 22.8077061 ], [ 70.835514, 22.8075486 ], [ 70.8355376, 22.807497 ], [ 70.835645, 22.8072624 ], [ 70.8357482, 22.8070369 ], [ 70.8358278, 22.806863 ], [ 70.835607, 22.8066059 ], [ 70.8352816, 22.8063059 ], [ 70.835084, 22.806022 ], [ 70.8348865, 22.8057649 ], [ 70.834825, 22.8056138 ], [ 70.8347819, 22.8055078 ], [ 70.8346328, 22.8052375 ], [ 70.834441, 22.8048895 ], [ 70.8342589, 22.8046562 ], [ 70.8338871, 22.8040777 ], [ 70.8331782, 22.8028779 ], [ 70.832969, 22.8025458 ], [ 70.8329595, 22.802452 ], [ 70.8329341, 22.802203 ], [ 70.8327133, 22.8017424 ], [ 70.8326556, 22.8016559 ], [ 70.8324344, 22.8013246 ], [ 70.8320567, 22.8008952 ], [ 70.8316829, 22.8004792 ], [ 70.831528, 22.8003068 ], [ 70.8313626, 22.8002415 ], [ 70.831284, 22.8002104 ], [ 70.8309925, 22.7999753 ], [ 70.8307262, 22.7997605 ], [ 70.830648, 22.7996993 ], [ 70.8304205, 22.7995212 ], [ 70.8301103, 22.7992784 ], [ 70.8300759, 22.7992282 ], [ 70.8298659, 22.7989216 ], [ 70.8298314, 22.7988713 ], [ 70.8296865, 22.7986497 ], [ 70.8295875, 22.7984984 ], [ 70.8295614, 22.7984585 ], [ 70.8293765, 22.7982127 ], [ 70.8292386, 22.7980365 ], [ 70.8291735, 22.7979533 ], [ 70.8289732, 22.7977646 ], [ 70.8285259, 22.7973625 ] ] } },
{ "type": "Feature", "properties": { "name": "", "cls": "residential", "max_depth": 1.3480000495910645, "flooded_km": 0.073850561582519583 }, "geometry": { "type": "LineString", "coordinates": [ [ 70.8303706, 22.8123123 ], [ 70.8308737, 22.8121093 ], [ 70.8315343, 22.8119015 ], [ 70.8323435, 22.8116469 ], [ 70.8328063, 22.8115013 ] ] } },
{ "type": "Feature", "properties": { "name": "", "cls": "residential", "max_depth": 4.2800002098083496, "flooded_km": 0.27570693687392417 }, "geometry": { "type": "LineString", "coordinates": [ [ 70.8358994, 22.8069142 ], [ 70.836341, 22.8071445 ], [ 70.8365793, 22.8071873 ], [ 70.8366572, 22.8071971 ], [ 70.8368349, 22.8072195 ], [ 70.8374102, 22.807257 ], [ 70.8378982, 22.8072944 ], [ 70.8380144, 22.8074176 ], [ 70.8381655, 22.807423 ], [ 70.838305, 22.8073962 ], [ 70.8385838, 22.8073527 ] ] } },
{ "type": "Feature", "properties": { "name": "", "cls": "residential", "max_depth": 0.77700001001358032, "flooded_km": 0.043339137568936245 }, "geometry": { "type": "LineString", "coordinates": [ [ 70.8339346, 22.8070611 ], [ 70.8338563, 22.8072895 ], [ 70.8338235, 22.8073852 ], [ 70.8338013, 22.8075262 ], [ 70.8337906, 22.8075935 ], [ 70.8337783, 22.8077678 ], [ 70.8342334, 22.8078699 ], [ 70.8345548, 22.807942 ], [ 70.8352906, 22.808144 ], [ 70.8365516, 22.8084722 ] ] } },
{ "type": "Feature", "properties": { "name": "", "cls": "residential", "max_depth": 2.2780001163482666, "flooded_km": 0.063376324963961173 }, "geometry": { "type": "LineString", "coordinates": [ [ 70.8354382, 22.8095857 ], [ 70.8350865, 22.810056 ] ] } },
{ "type": "Feature", "properties": { "name": "", "cls": "residential", "max_depth": 2.1579999923706055, "flooded_km": 0.036682667497939109 }, "geometry": { "type": "LineString", "coordinates": [ [ 70.8350309, 22.8094285 ], [ 70.8348382, 22.8098324 ] ] } },
{ "type": "Feature", "properties": { "name": "", "cls": "residential", "max_depth": 0.92500001192092896, "flooded_km": 0.0092839901021191974 }, "geometry": { "type": "LineString", "coordinates": [ [ 70.8358278, 22.806863 ], [ 70.8358994, 22.8069142 ] ] } },
{ "type": "Feature", "properties": { "name": "", "cls": "residential", "max_depth": 3.5280001163482666, "flooded_km": 0.063419352379602043 }, "geometry": { "type": "LineString", "coordinates": [ [ 70.8347235, 22.8106552 ], [ 70.834796, 22.8100865 ] ] } },
{ "type": "Feature", "properties": { "name": "", "cls": "residential", "max_depth": 0.92500001192092896, "flooded_km": 0.024807712404686419 }, "geometry": { "type": "LineString", "coordinates": [ [ 70.836341, 22.8071445 ], [ 70.8357482, 22.8070369 ] ] } },
{ "type": "Feature", "properties": { "name": "", "cls": "residential", "max_depth": 2.0720000267028809, "flooded_km": 0.041048635131118186 }, "geometry": { "type": "LineString", "coordinates": [ [ 70.8342839, 22.8060396 ], [ 70.8346328, 22.8052375 ] ] } },
{ "type": "Feature", "properties": { "name": "", "cls": "residential", "max_depth": 2.378000020980835, "flooded_km": 0.062923420133909808 }, "geometry": { "type": "LineString", "coordinates": [ [ 70.8355943, 22.8096728 ], [ 70.8352131, 22.8101177 ] ] } },
{ "type": "Feature", "properties": { "name": "", "cls": "residential", "max_depth": 0.92500001192092896, "flooded_km": 0.013264319880151964 }, "geometry": { "type": "LineString", "coordinates": [ [ 70.8348712, 22.8068323 ], [ 70.8357482, 22.8070369 ] ] } },
{ "type": "Feature", "properties": { "name": "", "cls": "residential", "max_depth": 1.2269999980926514, "flooded_km": 0.071064412323273402 }, "geometry": { "type": "LineString", "coordinates": [ [ 70.8350286, 22.8088423 ], [ 70.8358472, 22.8090069 ], [ 70.8362394, 22.8090858 ], [ 70.8363601, 22.8091609 ] ] } },
{ "type": "Feature", "properties": { "name": "", "cls": "residential", "max_depth": 0.52799999713897705, "flooded_km": 0.029501831747019737 }, "geometry": { "type": "LineString", "coordinates": [ [ 70.8329826, 22.810594 ], [ 70.8328583, 22.8102213 ], [ 70.8328266, 22.8101262 ], [ 70.8327279, 22.8098305 ] ] } },
{ "type": "Feature", "properties": { "name": "", "cls": "residential", "max_depth": 1.8470000028610229, "flooded_km": 0.041786784100023421 }, "geometry": { "type": "LineString", "coordinates": [ [ 70.8352002, 22.808385 ], [ 70.8364448, 22.8086729 ], [ 70.8366426, 22.8087371 ] ] } },
{ "type": "Feature", "properties": { "name": "", "cls": "residential", "max_depth": 3.8570001125335693, "flooded_km": 0.076673547406696935 }, "geometry": { "type": "LineString", "coordinates": [ [ 70.835565, 22.8110698 ], [ 70.8356806, 22.8108506 ], [ 70.8358504, 22.8104308 ] ] } },
{ "type": "Feature", "properties": { "name": "", "cls": "residential", "max_depth": 0.54799997806549072, "flooded_km": 0.014802120076758843 }, "geometry": { "type": "LineString", "coordinates": [ [ 70.8325469, 22.8107374 ], [ 70.8324254, 22.8103967 ], [ 70.8322753, 22.809976 ] ] } },
{ "type": "Feature", "properties": { "name": "", "cls": "residential", "max_depth": 2.3480000495910645, "flooded_km": 0.050259861991399743 }, "geometry": { "type": "LineString", "coordinates": [ [ 70.8344729, 22.8105037 ], [ 70.8345466, 22.8102977 ], [ 70.834559, 22.81015 ], [ 70.834543, 22.8100626 ] ] } },
{ "type": "Feature", "properties": { "name": "", "cls": "residential", "max_depth": 0.48100000619888306, "flooded_km": 0.029375783347942001 }, "geometry": { "type": "LineString", "coordinates": [ [ 70.8328583, 22.8102213 ], [ 70.8324254, 22.8103967 ], [ 70.8319336, 22.8105444 ], [ 70.8308333, 22.8108746 ] ] } },
{ "type": "Feature", "properties": { "name": "", "cls": "residential", "max_depth": 3.8689999580383301, "flooded_km": 0.059588369349558003 }, "geometry": { "type": "LineString", "coordinates": [ [ 70.8369871, 22.8078927 ], [ 70.8367645, 22.8078143 ], [ 70.8364818, 22.8077147 ], [ 70.8355376, 22.807497 ], [ 70.8347317, 22.8072618 ], [ 70.8346617, 22.8074875 ] ] } },
{ "type": "Feature", "properties": { "name": "", "cls": "residential", "max_depth": 2.9300000667572021, "flooded_km": 0.014592132465716933 }, "geometry": { "type": "LineString", "coordinates": [ [ 70.8341387, 22.8066353 ], [ 70.8348712, 22.8068323 ], [ 70.8348015, 22.8070421 ], [ 70.835645, 22.8072624 ], [ 70.8365763, 22.8075026 ] ] } },
{ "type": "Feature", "properties": { "name": "", "cls": "residential", "max_depth": 2.9300000667572021, "flooded_km": 0.044268444088998778 }, "geometry": { "type": "LineString", "coordinates": [ [ 70.8346617, 22.8074875 ], [ 70.8354549, 22.8077061 ], [ 70.8363709, 22.807942 ], [ 70.8364818, 22.8077564 ], [ 70.8364818, 22.8077147 ], [ 70.8365763, 22.8075026 ] ] } },
{ "type": "Feature", "properties": { "name": "", "cls": "residential", "max_depth": 3.0069999694824219, "flooded_km": 0.10981499584497563 }, "geometry": { "type": "LineString", "coordinates": [ [ 70.8360874, 22.810524 ], [ 70.8364656, 22.8099542 ], [ 70.8361736, 22.8097788 ] ] } },
{ "type": "Feature", "properties": { "name": "", "cls": "residential", "max_depth": 2.128000020980835, "flooded_km": 0.11730785235273168 }, "geometry": { "type": "LineString", "coordinates": [ [ 70.8300242, 22.8120125 ], [ 70.8307583, 22.8118124 ], [ 70.8314055, 22.8115997 ], [ 70.83222, 22.8113321 ], [ 70.8330565, 22.8110572 ], [ 70.8330414, 22.8107502 ], [ 70.8329826, 22.810594 ] ] } },
{ "type": "Feature", "properties": { "name": "", "cls": "residential", "max_depth": 2.378000020980835, "flooded_km": 0.12619339031041185 }, "geometry": { "type": "LineString", "coordinates": [ [ 70.8353722, 22.8101951 ], [ 70.8357012, 22.8097675 ], [ 70.8358326, 22.8095667 ], [ 70.8357628, 22.8094986 ], [ 70.8356847, 22.8094796 ], [ 70.8355943, 22.8096728 ] ] } },
{ "type": "Feature", "properties": { "name": "", "cls": "residential", "max_depth": 1.2269999980926514, "flooded_km": 0.029357306436284623 }, "geometry": { "type": "LineString", "coordinates": [ [ 70.834181, 22.8083056 ], [ 70.8344525, 22.8083901 ], [ 70.8351203, 22.8085979 ], [ 70.8362517, 22.8088396 ], [ 70.8363339, 22.8089191 ], [ 70.8364078, 22.808957 ], [ 70.8364682, 22.8089988 ] ] } },
{ "type": "Feature", "properties": { "name": "", "cls": "residential", "max_depth": 3.2279999256134033, "flooded_km": 0.088859285531893151 }, "geometry": { "type": "LineString", "coordinates": [ [ 70.8338563, 22.8072895 ], [ 70.8346617, 22.8074875 ], [ 70.8345877, 22.8077261 ], [ 70.8353653, 22.8079449 ], [ 70.8366358, 22.8082528 ], [ 70.8368064, 22.8082942 ], [ 70.8369091, 22.8083813 ], [ 70.8368639, 22.808423 ] ] } },
{ "type": "Feature", "properties": { "name": "", "cls": "residential", "max_depth": 0.74699997901916504, "flooded_km": 0.088492208850191628 }, "geometry": { "type": "LineString", "coordinates": [ [ 70.833984, 22.8091236 ], [ 70.8348285, 22.8093756 ], [ 70.8350309, 22.8094285 ], [ 70.8352122, 22.8094758 ], [ 70.8353848, 22.8095516 ], [ 70.8354382, 22.8095857 ], [ 70.8355943, 22.8096728 ] ] } },
{ "type": "Feature", "properties": { "name": "", "cls": "residential", "max_depth": 2.1170001029968262, "flooded_km": 0.17417449847366401 }, "geometry": { "type": "LineString", "coordinates": [ [ 70.8361736, 22.8097788 ], [ 70.8361367, 22.809741 ], [ 70.8361038, 22.809669 ], [ 70.8361326, 22.8095024 ], [ 70.836193, 22.8094084 ], [ 70.8363601, 22.8091609 ], [ 70.8364682, 22.8089988 ], [ 70.8366426, 22.8087371 ], [ 70.8367283, 22.8086085 ], [ 70.8367719, 22.8085489 ], [ 70.8368639, 22.808423 ] ] } },
{ "type": "Feature", "properties": { "name": "", "cls": "tertiary", "max_depth": 2.5220000743865967, "flooded_km": 0.059717870917620181 }, "geometry": { "type": "LineString", "coordinates": [ [ 70.8441177, 22.8292938 ], [ 70.843401, 22.8312073 ], [ 70.8433861, 22.8312472 ], [ 70.8431225, 22.8318691 ], [ 70.8430465, 22.8320544 ], [ 70.8426265, 22.8326062 ], [ 70.8420814, 22.8332363 ], [ 70.841219, 22.8342288 ], [ 70.8402762, 22.8353118 ], [ 70.8392842, 22.8364402 ], [ 70.8392376, 22.8364947 ], [ 70.8391189, 22.8366337 ], [ 70.8389268, 22.8368479 ], [ 70.8386766, 22.8372926 ], [ 70.8381971, 22.8380423 ], [ 70.8381648, 22.8380927 ], [ 70.8379259, 22.8384662 ], [ 70.8373852, 22.8392734 ], [ 70.8373182, 22.8394381 ], [ 70.8373021, 22.8394834 ], [ 70.8372422, 22.8396522 ], [ 70.837211, 22.8398664 ], [ 70.8371395, 22.840414 ], [ 70.8370456, 22.8407064 ], [ 70.8368848, 22.8408505 ], [ 70.8367239, 22.8409576 ], [ 70.8364156, 22.8411182 ], [ 70.8361296, 22.8414518 ], [ 70.8359018, 22.84195 ], [ 70.8355622, 22.8428148 ], [ 70.8351153, 22.8440172 ], [ 70.8347713, 22.8450343 ], [ 70.8347377, 22.8451372 ], [ 70.834673, 22.8453349 ], [ 70.8345613, 22.845969 ], [ 70.8344391, 22.8468671 ], [ 70.8343813, 22.8472924 ], [ 70.8343647, 22.8474143 ], [ 70.8342952, 22.8478659 ], [ 70.8342602, 22.8480934 ], [ 70.8342245, 22.8483251 ], [ 70.8341993, 22.8484891 ], [ 70.8338687, 22.8505396 ], [ 70.8337927, 22.8507579 ], [ 70.8336631, 22.8512479 ], [ 70.8336465, 22.8514108 ], [ 70.8336229, 22.8516432 ], [ 70.8336676, 22.8518161 ], [ 70.8337699, 22.8519508 ] ] } },
{ "type": "Feature", "properties": { "name": "", "cls": "tertiary", "max_depth": 0.88200002908706665, "flooded_km": 0.059959885904718235 }, "geometry": { "type": "LineString", "coordinates": [ [ 70.7219047, 22.8970248 ], [ 70.7219359, 22.8971388 ], [ 70.7219199, 22.8973156 ], [ 70.7217696, 22.8976692 ], [ 70.7216032, 22.8979138 ], [ 70.7211778, 22.8984501 ], [ 70.7210114, 22.8986741 ], [ 70.7207907, 22.8989599 ], [ 70.7206531, 22.8991839 ], [ 70.7206243, 22.8993342 ], [ 70.7206627, 22.8995051 ], [ 70.7209922, 22.9001858 ], [ 70.7214721, 22.9013115 ], [ 70.7217919, 22.9020334 ], [ 70.7220894, 22.9027112 ], [ 70.722259, 22.903053 ], [ 70.7225277, 22.9034449 ], [ 70.7229627, 22.9039223 ], [ 70.7238168, 22.9044527 ], [ 70.7247477, 22.904989 ], [ 70.7250452, 22.9052158 ], [ 70.725557, 22.9056726 ], [ 70.7261936, 22.9062383 ], [ 70.7267438, 22.9067422 ], [ 70.7271757, 22.9071371 ], [ 70.7278283, 22.9077028 ], [ 70.7286728, 22.9084542 ], [ 70.7289223, 22.9087105 ], [ 70.7291686, 22.9090818 ], [ 70.7294981, 22.9097654 ], [ 70.7298212, 22.910558 ], [ 70.7300515, 22.9113153 ], [ 70.7301635, 22.9117072 ], [ 70.7304578, 22.9128062 ], [ 70.7305377, 22.9131127 ], [ 70.7306401, 22.913313 ], [ 70.7309088, 22.9136254 ], [ 70.7312671, 22.9139789 ], [ 70.7314494, 22.9142117 ], [ 70.7316861, 22.9144798 ], [ 70.7317053, 22.9146272 ], [ 70.7316286, 22.9149601 ], [ 70.7316254, 22.9153373 ], [ 70.7316637, 22.9159207 ], [ 70.7317085, 22.9162566 ], [ 70.7317629, 22.9164216 ], [ 70.7320284, 22.9166838 ], [ 70.7325338, 22.9170992 ], [ 70.7329369, 22.9173467 ], [ 70.7333496, 22.9175117 ], [ 70.7338998, 22.9175736 ], [ 70.7348754, 22.917771 ], [ 70.7360302, 22.9179949 ], [ 70.7366892, 22.9181275 ], [ 70.7376585, 22.9182454 ], [ 70.7378952, 22.9182336 ], [ 70.7383494, 22.9181599 ], [ 70.7386725, 22.9180598 ], [ 70.738938, 22.9179154 ], [ 70.7398913, 22.917332 ], [ 70.7406559, 22.9169077 ], [ 70.7410813, 22.9166632 ], [ 70.7413436, 22.9165895 ], [ 70.7422841, 22.9167132 ], [ 70.7431606, 22.9168576 ], [ 70.7437588, 22.9168753 ], [ 70.7450319, 22.9168488 ], [ 70.7463275, 22.9168812 ], [ 70.7470473, 22.9168871 ], [ 70.7475783, 22.9168694 ], [ 70.7482756, 22.9167692 ], [ 70.7487139, 22.9167427 ], [ 70.7494304, 22.9167427 ], [ 70.7504189, 22.9167339 ], [ 70.7508731, 22.9166985 ], [ 70.7512858, 22.9167457 ], [ 70.7525526, 22.9170639 ], [ 70.7532339, 22.9172524 ], [ 70.7539281, 22.9174233 ], [ 70.7549613, 22.9177209 ], [ 70.755873, 22.9179183 ], [ 70.7569958, 22.9181305 ], [ 70.758333, 22.9183897 ], [ 70.7597117, 22.9186932 ], [ 70.7613591, 22.9190409 ], [ 70.7626515, 22.9193002 ], [ 70.7648715, 22.9197598 ], [ 70.7662982, 22.9200456 ], [ 70.7669284, 22.9202401 ], [ 70.7682016, 22.9206967 ], [ 70.768723, 22.9209118 ], [ 70.7691548, 22.9211181 ], [ 70.7697754, 22.9214156 ], [ 70.7701657, 22.9215423 ], [ 70.7717236, 22.9217987 ], [ 70.7722898, 22.9219165 ], [ 70.7739244, 22.9222082 ], [ 70.7747881, 22.9223909 ], [ 70.7755782, 22.9225647 ], [ 70.7771628, 22.9226826 ], [ 70.7785692, 22.9228031 ], [ 70.7790579, 22.9228742 ] ] } },
{ "type": "Feature", "properties": { "name": "", "cls": "tertiary", "max_depth": 4.1810002326965332, "flooded_km": 0.26916404480803446 }, "geometry": { "type": "LineString", "coordinates": [ [ 70.7790579, 22.9228742 ], [ 70.7789006, 22.9230775 ], [ 70.7785385, 22.9235238 ], [ 70.7782601, 22.9238701 ], [ 70.7781403, 22.9239804 ], [ 70.7779537, 22.9240342 ], [ 70.7775834, 22.9240471 ], [ 70.7773522, 22.9241112 ], [ 70.7770236, 22.9242779 ], [ 70.7763775, 22.9246267 ], [ 70.7759654, 22.9248114 ], [ 70.7755282, 22.9250499 ], [ 70.7751634, 22.9252474 ], [ 70.7748403, 22.9253859 ], [ 70.7746649, 22.9255219 ], [ 70.7744727, 22.9258373 ], [ 70.7741692, 22.926594 ], [ 70.774016, 22.9271121 ], [ 70.7738072, 22.927802 ], [ 70.7736373, 22.9281918 ], [ 70.7735148, 22.9283585 ], [ 70.7732586, 22.9285637 ], [ 70.7730358, 22.9286432 ], [ 70.772515, 22.9287715 ], [ 70.7723284, 22.928833 ], [ 70.7721474, 22.9289305 ], [ 70.7719803, 22.9290895 ], [ 70.7717659, 22.9294511 ], [ 70.7716072, 22.929682 ], [ 70.7713899, 22.9299667 ], [ 70.7709945, 22.9303821 ], [ 70.7708107, 22.9305694 ], [ 70.7705322, 22.9309182 ], [ 70.7703234, 22.9311746 ], [ 70.7702315, 22.9312747 ], [ 70.7699864, 22.9313901 ], [ 70.7695826, 22.9314747 ], [ 70.7690981, 22.931644 ], [ 70.7686302, 22.9319389 ], [ 70.7682348, 22.9323621 ], [ 70.7678477, 22.9328135 ], [ 70.7677251, 22.9331161 ], [ 70.7675525, 22.9335034 ], [ 70.7673102, 22.9338984 ], [ 70.7670763, 22.9342549 ], [ 70.7666307, 22.9350089 ], [ 70.7664302, 22.9353833 ], [ 70.7660459, 22.9359988 ], [ 70.7658593, 22.9362886 ], [ 70.7657786, 22.9364681 ], [ 70.765773, 22.936622 ], [ 70.765851, 22.9368041 ], [ 70.7659819, 22.9370195 ], [ 70.7660292, 22.9371965 ], [ 70.7659791, 22.9374478 ], [ 70.7658927, 22.9377043 ], [ 70.7657646, 22.9380095 ], [ 70.7656895, 22.9383095 ], [ 70.7656477, 22.9387942 ], [ 70.7655836, 22.9390815 ], [ 70.76545, 22.9394918 ], [ 70.765333, 22.9400201 ], [ 70.7652327, 22.9403971 ], [ 70.7651687, 22.9407843 ], [ 70.7650879, 22.9410664 ], [ 70.7649125, 22.9415665 ], [ 70.7647148, 22.9421205 ], [ 70.7645143, 22.942618 ], [ 70.7644001, 22.9429103 ], [ 70.7640938, 22.9436028 ], [ 70.7639573, 22.9439541 ], [ 70.7638487, 22.9443439 ], [ 70.7637457, 22.9447183 ], [ 70.7636649, 22.9449901 ], [ 70.7635368, 22.9453235 ], [ 70.7634143, 22.9455646 ], [ 70.7632333, 22.9459185 ], [ 70.7630717, 22.9460929 ], [ 70.7629325, 22.9462852 ], [ 70.7627125, 22.9466622 ], [ 70.762473, 22.9470545 ], [ 70.7622224, 22.9474905 ], [ 70.7620553, 22.9478033 ], [ 70.7618659, 22.9481162 ], [ 70.7617685, 22.9482572 ], [ 70.7617072, 22.9484906 ], [ 70.761709, 22.9485633 ], [ 70.7617155, 22.9488317 ], [ 70.7616042, 22.9492291 ], [ 70.7615373, 22.9494728 ], [ 70.7614092, 22.9495984 ], [ 70.7611669, 22.9497215 ], [ 70.7607715, 22.9497369 ], [ 70.7602535, 22.94966 ], [ 70.7600669, 22.9496394 ], [ 70.760013, 22.9496445 ] ] } },
{ "type": "Feature", "properties": { "name": "", "cls": "tertiary", "max_depth": 4.5539999008178711, "flooded_km": 0.31484419799406027 }, "geometry": { "type": "LineString", "coordinates": [ [ 70.7790579, 22.9228742 ], [ 70.7791763, 22.9228749 ], [ 70.7796441, 22.9228852 ], [ 70.7799616, 22.9228647 ], [ 70.7802011, 22.9228134 ], [ 70.7805046, 22.9226107 ], [ 70.7806606, 22.9222978 ], [ 70.7808778, 22.9217699 ], [ 70.7810087, 22.9214672 ], [ 70.7811813, 22.9210799 ], [ 70.7814459, 22.9206259 ], [ 70.7818859, 22.9198154 ], [ 70.782273, 22.9191742 ], [ 70.7824456, 22.9187663 ], [ 70.7825125, 22.918338 ], [ 70.7825793, 22.9177788 ], [ 70.7827018, 22.9172068 ], [ 70.7827436, 22.9169401 ], [ 70.7827854, 22.9162937 ], [ 70.7827826, 22.9160859 ], [ 70.7827102, 22.9159474 ], [ 70.782571, 22.9158448 ], [ 70.7822507, 22.9157243 ], [ 70.781975, 22.9156499 ], [ 70.7814793, 22.9153241 ], [ 70.7812705, 22.9151805 ], [ 70.7805436, 22.9149804 ], [ 70.7800535, 22.9148419 ], [ 70.7793573, 22.9146572 ], [ 70.7791763, 22.9145238 ], [ 70.7791791, 22.914411 ], [ 70.7793991, 22.9140006 ], [ 70.7795272, 22.9135901 ], [ 70.779633, 22.913308 ], [ 70.7797778, 22.9129694 ], [ 70.779814, 22.9127001 ], [ 70.7798168, 22.9123794 ], [ 70.7798781, 22.9121563 ], [ 70.7800618, 22.9119357 ], [ 70.7802039, 22.9117766 ], [ 70.7804044, 22.9111738 ], [ 70.7806717, 22.9103992 ], [ 70.7807775, 22.9102094 ], [ 70.7809279, 22.9100734 ], [ 70.7811061, 22.9099836 ], [ 70.7812593, 22.9096348 ], [ 70.7816158, 22.9087831 ], [ 70.7818358, 22.9081701 ], [ 70.7820279, 22.9078725 ], [ 70.7823844, 22.9072979 ], [ 70.7826991, 22.9066976 ], [ 70.782933, 22.9063385 ], [ 70.7831613, 22.9058691 ], [ 70.7833785, 22.9052919 ], [ 70.7836431, 22.9044659 ], [ 70.7838325, 22.9038272 ], [ 70.7838659, 22.9036373 ], [ 70.7839606, 22.9034142 ], [ 70.7842279, 22.9029114 ], [ 70.7844535, 22.9022624 ], [ 70.784576, 22.9019237 ], [ 70.7846958, 22.9016852 ], [ 70.7848099, 22.9015672 ], [ 70.7850856, 22.9015056 ], [ 70.7854866, 22.9014363 ], [ 70.7856649, 22.9013825 ], [ 70.7859879, 22.9011285 ], [ 70.7867537, 22.9004025 ], [ 70.7873051, 22.89991 ], [ 70.7874471, 22.8997638 ], [ 70.7875307, 22.8995765 ], [ 70.7875892, 22.8992096 ], [ 70.7876532, 22.8989557 ], [ 70.7878175, 22.8988094 ], [ 70.7879456, 22.8987248 ], [ 70.7882492, 22.8985632 ], [ 70.7885917, 22.8982964 ], [ 70.7887476, 22.8980911 ], [ 70.7889314, 22.8977987 ], [ 70.7891932, 22.8974216 ], [ 70.789352, 22.8970778 ], [ 70.7895163, 22.8968572 ], [ 70.7897251, 22.8966417 ], [ 70.7899563, 22.8962774 ], [ 70.7901902, 22.8958439 ], [ 70.7902932, 22.8956002 ], [ 70.7905466, 22.8950229 ], [ 70.7907694, 22.8945971 ], [ 70.7909783, 22.8942508 ], [ 70.7913292, 22.8936761 ], [ 70.7917608, 22.8930322 ], [ 70.7921869, 22.8924498 ], [ 70.7927216, 22.8917571 ], [ 70.7930474, 22.8913544 ], [ 70.7933676, 22.8909259 ], [ 70.7935097, 22.8905744 ], [ 70.7936294, 22.8901434 ], [ 70.7936461, 22.8895226 ], [ 70.7936684, 22.8892276 ], [ 70.7937436, 22.8890249 ], [ 70.7938912, 22.8888427 ], [ 70.7940945, 22.8885477 ], [ 70.7942309, 22.8883604 ], [ 70.7944036, 22.8882039 ], [ 70.7945233, 22.8880115 ], [ 70.7945289, 22.8879268 ], [ 70.7944871, 22.8878242 ], [ 70.7943284, 22.8876549 ], [ 70.7942616, 22.887406 ], [ 70.7941641, 22.8868955 ], [ 70.7941112, 22.8865132 ], [ 70.7941251, 22.8859257 ], [ 70.7941892, 22.8852715 ], [ 70.7942588, 22.8848584 ], [ 70.7943256, 22.8844222 ], [ 70.7944092, 22.8839835 ], [ 70.7944593, 22.8836962 ], [ 70.7945456, 22.8835037 ], [ 70.7947183, 22.8831959 ], [ 70.79498, 22.8828598 ], [ 70.7953114, 22.8826417 ], [ 70.7955843, 22.8824595 ], [ 70.7958684, 22.8820849 ], [ 70.7962638, 22.881441 ], [ 70.7965173, 22.881151 ], [ 70.7965729, 22.8810074 ], [ 70.7965897, 22.880779 ], [ 70.7965284, 22.880602 ], [ 70.7963724, 22.8803506 ], [ 70.7961831, 22.8798759 ], [ 70.7961135, 22.8796322 ], [ 70.7959102, 22.8790343 ], [ 70.7958266, 22.8785571 ], [ 70.7957793, 22.8782646 ], [ 70.7956735, 22.8776232 ], [ 70.7955231, 22.8768663 ], [ 70.7954033, 22.8762428 ], [ 70.795253, 22.8756937 ], [ 70.7949438, 22.8748085 ], [ 70.7948519, 22.8745289 ], [ 70.79454, 22.8739105 ], [ 70.7943089, 22.8733435 ], [ 70.7941223, 22.8728457 ], [ 70.7937965, 22.8719143 ], [ 70.7935514, 22.8711856 ], [ 70.7933203, 22.870657 ], [ 70.7929388, 22.8698103 ], [ 70.7926993, 22.8693741 ], [ 70.7925962, 22.8690687 ], [ 70.792535, 22.8686838 ], [ 70.7925433, 22.8682117 ], [ 70.7926631, 22.8673136 ], [ 70.7927216, 22.8667671 ], [ 70.792755, 22.8662488 ], [ 70.7927299, 22.8654328 ], [ 70.7927606, 22.864545 ], [ 70.7927466, 22.8637675 ], [ 70.7926575, 22.8628796 ], [ 70.7925155, 22.8618686 ], [ 70.7924152, 22.8613528 ], [ 70.7921952, 22.8606292 ], [ 70.7918444, 22.8594411 ], [ 70.791474, 22.8582505 ], [ 70.7912818, 22.8575833 ], [ 70.7913125, 22.85736 ], [ 70.7914795, 22.85668 ], [ 70.7917023, 22.8558332 ], [ 70.791758, 22.8555611 ], [ 70.791758, 22.8554405 ], [ 70.7916912, 22.8551634 ], [ 70.7913236, 22.8545988 ], [ 70.7910813, 22.85416 ], [ 70.7908975, 22.853657 ], [ 70.7907499, 22.8530129 ], [ 70.7906692, 22.8526254 ], [ 70.7905299, 22.8521045 ], [ 70.7904213, 22.8515065 ], [ 70.7903601, 22.8513115 ], [ 70.7900259, 22.8506546 ], [ 70.7895246, 22.8496819 ], [ 70.7891932, 22.8489942 ], [ 70.7887214, 22.8481268 ] ] } },
{ "type": "Feature", "properties": { "name": "", "cls": "tertiary", "max_depth": 7.9050002098083496, "flooded_km": 0.2391864022872344 }, "geometry": { "type": "LineString", "coordinates": [ [ 70.8079547, 22.8949385 ], [ 70.8077983, 22.8948153 ], [ 70.80757, 22.8945639 ], [ 70.8073917, 22.894369 ], [ 70.807013, 22.894174 ], [ 70.8064477, 22.8939303 ], [ 70.8059019, 22.893684 ], [ 70.8057153, 22.8935557 ], [ 70.80537, 22.8932684 ], [ 70.8048242, 22.8926681 ], [ 70.8044538, 22.8922422 ], [ 70.8042421, 22.8920113 ], [ 70.8040277, 22.8918805 ], [ 70.8039859, 22.8917932 ], [ 70.8039748, 22.8916444 ], [ 70.8041085, 22.8912827 ], [ 70.8043897, 22.8906413 ], [ 70.8046014, 22.8899948 ], [ 70.8046849, 22.8896998 ], [ 70.8048158, 22.8893483 ], [ 70.8050553, 22.8888891 ], [ 70.8053282, 22.888299 ], [ 70.8056011, 22.8876884 ], [ 70.8058267, 22.8873369 ], [ 70.8060244, 22.8869701 ], [ 70.8062555, 22.8864852 ], [ 70.8064505, 22.8860413 ], [ 70.8066148, 22.8858053 ], [ 70.8068376, 22.8855025 ], [ 70.8072692, 22.884915 ], [ 70.8075393, 22.8844943 ], [ 70.8078039, 22.8841376 ], [ 70.8081102, 22.8837682 ], [ 70.8084667, 22.8833218 ], [ 70.8086811, 22.8830396 ], [ 70.8090014, 22.8827086 ], [ 70.8094386, 22.8822699 ], [ 70.8096948, 22.8820082 ], [ 70.8099315, 22.8816079 ], [ 70.8101459, 22.8812975 ], [ 70.8105441, 22.8808639 ], [ 70.8108421, 22.8804739 ], [ 70.8113489, 22.8796862 ], [ 70.8118307, 22.8790345 ], [ 70.8120869, 22.8786959 ], [ 70.8124517, 22.8783546 ], [ 70.8127219, 22.8779826 ], [ 70.8129948, 22.8775849 ], [ 70.8133401, 22.8770538 ], [ 70.8135406, 22.8767279 ], [ 70.8138358, 22.8762841 ], [ 70.8141254, 22.8757735 ], [ 70.814273, 22.875522 ], [ 70.8144791, 22.8752911 ], [ 70.8147353, 22.8750525 ], [ 70.8149107, 22.8748062 ], [ 70.8151307, 22.8745265 ], [ 70.815295, 22.8743418 ], [ 70.8156069, 22.873844 ], [ 70.8159494, 22.8734078 ] ] } },
{ "type": "Feature", "properties": { "name": "", "cls": "secondary", "max_depth": 11.595000267028809, "flooded_km": 2.3815924199178213 }, "geometry": { "type": "LineString", "coordinates": [ [ 70.810414, 22.8047764 ], [ 70.8105248, 22.8047314 ], [ 70.8106499, 22.8046743 ], [ 70.8116421, 22.8042583 ], [ 70.812573, 22.8038748 ], [ 70.8134797, 22.8035013 ], [ 70.8142555, 22.8030513 ], [ 70.8144379, 22.8029454 ], [ 70.814675, 22.8028079 ], [ 70.8149475, 22.8026431 ], [ 70.8158219, 22.8021142 ], [ 70.8162239, 22.801871 ], [ 70.8165146, 22.8017273 ], [ 70.8199847, 22.7995971 ], [ 70.8201563, 22.7994918 ], [ 70.8203092, 22.7993954 ], [ 70.8204648, 22.7993262 ], [ 70.8206914, 22.7992693 ], [ 70.8209087, 22.7992396 ], [ 70.8211796, 22.7992248 ], [ 70.8215202, 22.7992056 ], [ 70.8216422, 22.7991987 ], [ 70.8219051, 22.7991839 ], [ 70.8223718, 22.7991575 ], [ 70.8231657, 22.7991127 ], [ 70.8249007, 22.7990148 ], [ 70.8259354, 22.7989482 ], [ 70.8263849, 22.7989442 ], [ 70.8265675, 22.7988899 ], [ 70.8267935, 22.7987871 ], [ 70.8271783, 22.798475 ], [ 70.8272625, 22.7984067 ], [ 70.8284335, 22.7974389 ], [ 70.8285259, 22.7973625 ], [ 70.8299142, 22.796215 ], [ 70.8299954, 22.7961479 ], [ 70.8301771, 22.7959978 ], [ 70.8316113, 22.7948132 ], [ 70.8317809, 22.7946731 ], [ 70.8333939, 22.7933407 ], [ 70.836969, 22.7902293 ], [ 70.8381701, 22.7891431 ], [ 70.8388929, 22.7884894 ], [ 70.8393502, 22.7880566 ], [ 70.8395648, 22.7877797 ], [ 70.8396855, 22.7875485 ], [ 70.8410448, 22.7846091 ], [ 70.8423995, 22.7816713 ], [ 70.8427778, 22.7808046 ], [ 70.8429699, 22.7803646 ], [ 70.8433949, 22.7798303 ], [ 70.8436713, 22.7794929 ], [ 70.8438779, 22.7792167 ], [ 70.8443667, 22.7781577 ], [ 70.8452679, 22.7763494 ], [ 70.8461515, 22.774674 ], [ 70.8468375, 22.7733734 ], [ 70.8476621, 22.7717604 ], [ 70.8482481, 22.770677 ], [ 70.8486857, 22.7702806 ], [ 70.8487576, 22.7702154 ], [ 70.8491905, 22.7698977 ], [ 70.8492737, 22.7698497 ], [ 70.8493716, 22.7698312 ], [ 70.8494501, 22.7698602 ], [ 70.8495439, 22.7699656 ], [ 70.8501796, 22.7706776 ], [ 70.850426, 22.7708594 ], [ 70.850535, 22.7709398 ], [ 70.8506933, 22.7710016 ], [ 70.8509065, 22.7710659 ], [ 70.8511161, 22.7711197 ], [ 70.8515047, 22.7712069 ], [ 70.8517326, 22.771213 ], [ 70.8521081, 22.7712439 ], [ 70.8525239, 22.7713132 ], [ 70.852783, 22.7713125 ], [ 70.8531363, 22.7712772 ], [ 70.8538166, 22.7712174 ], [ 70.8540869, 22.7710987 ], [ 70.8543438, 22.7708617 ], [ 70.8548856, 22.7700661 ], [ 70.8550706, 22.7698577 ], [ 70.8552184, 22.769724 ], [ 70.8553509, 22.7696537 ], [ 70.8554911, 22.7696067 ], [ 70.8561328, 22.7696117 ], [ 70.856473, 22.7695909 ], [ 70.8567586, 22.769504 ], [ 70.857115, 22.7693139 ], [ 70.8574006, 22.7691103 ], [ 70.8579756, 22.7683098 ], [ 70.858154, 22.7680482 ], [ 70.8583022, 22.7680378 ], [ 70.8583994, 22.7680823 ], [ 70.8591428, 22.7684876 ] ] } },
{ "type": "Feature", "properties": { "name": "", "cls": "tertiary", "max_depth": 4.1669998168945312, "flooded_km": 0.83992086198311089 }, "geometry": { "type": "LineString", "coordinates": [ [ 70.853383, 22.8165546 ], [ 70.8533597, 22.8164585 ], [ 70.8533564, 22.8164362 ], [ 70.8533482, 22.8163804 ], [ 70.8534555, 22.8162148 ], [ 70.8540134, 22.815436 ], [ 70.8547657, 22.814454 ], [ 70.8549092, 22.8142666 ], [ 70.8554537, 22.8131317 ], [ 70.8556254, 22.812615 ], [ 70.8558829, 22.8122812 ], [ 70.8559092, 22.8122511 ], [ 70.8565481, 22.8115207 ], [ 70.8566316, 22.8114252 ], [ 70.856709, 22.8113368 ], [ 70.8572347, 22.8107137 ], [ 70.8581386, 22.8096827 ], [ 70.858667, 22.8090448 ], [ 70.858836, 22.8087976 ], [ 70.8588376, 22.8087275 ], [ 70.8588433, 22.8084837 ], [ 70.8588481, 22.8082794 ], [ 70.8588521, 22.8081053 ], [ 70.8588652, 22.807834 ], [ 70.8588797, 22.8075321 ], [ 70.8588977, 22.8071583 ], [ 70.8589032, 22.8071147 ], [ 70.8589652, 22.8066249 ], [ 70.8589835, 22.8064808 ], [ 70.8588601, 22.8062163 ], [ 70.8584524, 22.8060308 ], [ 70.8582734, 22.805955 ], [ 70.8580206, 22.8058479 ], [ 70.8579589, 22.8057391 ], [ 70.8580528, 22.805435 ], [ 70.8580814, 22.8053663 ], [ 70.858252, 22.804956 ], [ 70.8584229, 22.8045449 ], [ 70.8586616, 22.8041295 ], [ 70.8588387, 22.8036943 ], [ 70.8590801, 22.8028413 ], [ 70.8591766, 22.8023443 ], [ 70.8592222, 22.801877 ], [ 70.8592088, 22.8014566 ], [ 70.8591498, 22.8009621 ], [ 70.8592973, 22.8003415 ], [ 70.8594153, 22.8000571 ], [ 70.8598203, 22.7995552 ], [ 70.8604989, 22.7989024 ], [ 70.8606924, 22.7987755 ], [ 70.8607403, 22.7987441 ], [ 70.8608798, 22.7986625 ], [ 70.8610032, 22.7984746 ], [ 70.8610223, 22.7983755 ], [ 70.8611239, 22.797849 ], [ 70.8611613, 22.7977878 ], [ 70.861207, 22.797713 ], [ 70.861376, 22.797441 ], [ 70.8614887, 22.7972556 ], [ 70.8615262, 22.7970652 ], [ 70.8615106, 22.7969979 ], [ 70.8614753, 22.7968451 ], [ 70.8613894, 22.7966374 ], [ 70.8612929, 22.796536 ], [ 70.8609791, 22.7963259 ], [ 70.8603595, 22.7960984 ], [ 70.8602929, 22.7960452 ], [ 70.8601181, 22.7959055 ], [ 70.8600161, 22.7956434 ], [ 70.8600349, 22.7954258 ], [ 70.8602549, 22.7945653 ], [ 70.8605445, 22.7936454 ], [ 70.8607698, 22.7929753 ], [ 70.8608798, 22.7927256 ], [ 70.8609656, 22.7926192 ], [ 70.8614055, 22.7923299 ], [ 70.8623202, 22.7917562 ], [ 70.8626715, 22.7914521 ], [ 70.8632267, 22.7909056 ], [ 70.8636774, 22.7903294 ], [ 70.8643962, 22.789501 ], [ 70.8647046, 22.7891326 ], [ 70.8651445, 22.7885614 ], [ 70.8659465, 22.7877874 ], [ 70.8667753, 22.7871197 ], [ 70.8676846, 22.786546 ], [ 70.8686663, 22.785861 ], [ 70.8692698, 22.7854184 ], [ 70.8709435, 22.7843476 ], [ 70.871665, 22.7838011 ], [ 70.8722309, 22.7832818 ], [ 70.8727647, 22.7828045 ], [ 70.8730678, 22.7825547 ], [ 70.8742319, 22.7817238 ], [ 70.8747951, 22.7812292 ], [ 70.8756642, 22.7804255 ], [ 70.8766029, 22.7796045 ], [ 70.8774022, 22.7788947 ], [ 70.8776088, 22.7786771 ], [ 70.8776222, 22.7784743 ], [ 70.8775363, 22.7782097 ], [ 70.877429, 22.7779055 ], [ 70.8772252, 22.7770795 ], [ 70.8769409, 22.7759889 ], [ 70.8768202, 22.7754992 ], [ 70.8767665, 22.7746139 ], [ 70.8768041, 22.7741242 ], [ 70.8768926, 22.7734614 ], [ 70.8770053, 22.7726032 ], [ 70.8771018, 22.7714779 ], [ 70.8771206, 22.7710897 ], [ 70.8770938, 22.7709289 ], [ 70.8768846, 22.7702389 ], [ 70.8766995, 22.7696602 ], [ 70.8764339, 22.7685695 ], [ 70.8763213, 22.7680551 ], [ 70.8762602, 22.7678092 ] ] } },
{ "type": "Feature", "properties": { "name": "", "cls": "unclassified", "max_depth": 2.687999963760376, "flooded_km": 0.10479177570379185 }, "geometry": { "type": "LineString", "coordinates": [ [ 70.8052626, 22.9113338 ], [ 70.8048548, 22.9121657 ], [ 70.8037669, 22.913736 ], [ 70.8034001, 22.9141007 ], [ 70.8033293, 22.9142927 ], [ 70.8033626, 22.9146843 ], [ 70.8033293, 22.91493 ], [ 70.8022705, 22.9162123 ], [ 70.8020663, 22.9163621 ], [ 70.8009242, 22.9168266 ], [ 70.799282, 22.9172489 ], [ 70.7977356, 22.9183047 ], [ 70.7968602, 22.918704 ], [ 70.7958682, 22.9194334 ], [ 70.7955473, 22.9198979 ], [ 70.7952388, 22.920516 ], [ 70.7950888, 22.9205813 ], [ 70.7941384, 22.920516 ], [ 70.7937049, 22.9206811 ], [ 70.793534, 22.9207157 ], [ 70.7925628, 22.920516 ], [ 70.7923711, 22.9205199 ], [ 70.7922711, 22.9205467 ], [ 70.792196, 22.9206427 ], [ 70.7920793, 22.9210919 ], [ 70.7920251, 22.9216716 ], [ 70.7917917, 22.9221054 ], [ 70.7909081, 22.9234606 ], [ 70.790658, 22.9241938 ], [ 70.7903995, 22.9244434 ], [ 70.7899327, 22.9246507 ], [ 70.7894075, 22.9249962 ], [ 70.7885447, 22.926025 ], [ 70.7884738, 22.9262937 ], [ 70.7881237, 22.9266968 ], [ 70.787536, 22.9267352 ], [ 70.7877736, 22.9270884 ], [ 70.7890365, 22.9275375 ], [ 70.7899369, 22.9283975 ], [ 70.7907372, 22.928862 ], [ 70.7917459, 22.9303322 ], [ 70.7920543, 22.9312152 ], [ 70.7924211, 22.931672 ], [ 70.7930422, 22.9323822 ], [ 70.7933256, 22.9330117 ], [ 70.7935298, 22.9339023 ], [ 70.7937341, 22.9343745 ], [ 70.7941801, 22.934862 ], [ 70.7946969, 22.9352074 ], [ 70.7960016, 22.9355453 ], [ 70.7965601, 22.9358639 ], [ 70.797152, 22.9361479 ], [ 70.7983566, 22.9367007 ], [ 70.7988943, 22.9368926 ], [ 70.8014202, 22.9372112 ], [ 70.8026373, 22.9371306 ], [ 70.8037419, 22.9376603 ], [ 70.805255, 22.9380097 ], [ 70.8062428, 22.938048 ], [ 70.8077517, 22.9382246 ], [ 70.8098025, 22.9386469 ], [ 70.8101818, 22.9388196 ], [ 70.8106611, 22.939261 ], [ 70.8111821, 22.9394913 ], [ 70.8120366, 22.9397178 ], [ 70.8134496, 22.9397716 ], [ 70.8145667, 22.9400518 ], [ 70.815392, 22.9404587 ], [ 70.8158213, 22.9405239 ], [ 70.8161298, 22.940593 ], [ 70.8170384, 22.9413147 ], [ 70.8186057, 22.9424892 ], [ 70.8195102, 22.9432569 ], [ 70.820544, 22.9438142 ], [ 70.8208981, 22.9440069 ], [ 70.8213433, 22.9444268 ], [ 70.8215901, 22.9445552 ], [ 70.8219709, 22.9445849 ], [ 70.8222606, 22.9445849 ], [ 70.8224645, 22.9445108 ], [ 70.8226629, 22.944407 ], [ 70.8229365, 22.9443576 ], [ 70.8231779, 22.944323 ], [ 70.8234622, 22.9442835 ], [ 70.8236124, 22.9442341 ], [ 70.8238029, 22.9441741 ] ] } },
{ "type": "Feature", "properties": { "name": "Zulta pul (Hanging Bridge)", "cls": "construction", "max_depth": 13.300000190734863, "flooded_km": 0.23417259370115506 }, "geometry": { "type": "LineString", "coordinates": [ [ 70.8417087, 22.8183105 ], [ 70.8439896, 22.8182938 ] ] } },
{ "type": "Feature", "properties": { "name": "", "cls": "residential", "max_depth": 0.64200001955032349, "flooded_km": 0.028393701086793868 }, "geometry": { "type": "LineString", "coordinates": [ [ 70.8454917, 22.8184553 ], [ 70.8465529, 22.818628 ], [ 70.8479598, 22.8187359 ] ] } },
{ "type": "Feature", "properties": { "name": "", "cls": "secondary", "max_depth": 8.0039997100830078, "flooded_km": 1.0447874241039992 }, "geometry": { "type": "LineString", "coordinates": [ [ 70.8803888, 22.7658922 ], [ 70.8802534, 22.7659953 ], [ 70.8795398, 22.7665387 ], [ 70.8793006, 22.7667687 ], [ 70.8791728, 22.7668916 ], [ 70.8783836, 22.7672007 ], [ 70.8775361, 22.7675291 ], [ 70.8772668, 22.7676634 ], [ 70.877022, 22.7677998 ], [ 70.8768153, 22.7678288 ], [ 70.8765666, 22.7678229 ], [ 70.876297, 22.7678109 ], [ 70.8762602, 22.7678092 ], [ 70.8755608, 22.7677762 ], [ 70.8750042, 22.7677409 ], [ 70.8747244, 22.7676974 ], [ 70.8743121, 22.7675562 ], [ 70.8728014, 22.7671543 ], [ 70.8716205, 22.766804 ], [ 70.8713477, 22.7667558 ], [ 70.8710765, 22.7667843 ], [ 70.8706221, 22.7668797 ], [ 70.8692286, 22.7672367 ], [ 70.8688577, 22.7672953 ], [ 70.8686714, 22.7673037 ], [ 70.8684561, 22.7672654 ], [ 70.8681892, 22.7671729 ], [ 70.8680545, 22.7670941 ], [ 70.8676999, 22.7668667 ], [ 70.8674234, 22.7667868 ], [ 70.8672378, 22.7667545 ], [ 70.8669345, 22.7667505 ], [ 70.8660688, 22.7668962 ], [ 70.8651449, 22.7672754 ], [ 70.8649262, 22.7673289 ], [ 70.8647817, 22.7673405 ], [ 70.864426, 22.7673526 ], [ 70.8642044, 22.7673313 ], [ 70.8640534, 22.7673347 ], [ 70.8638496, 22.7673759 ], [ 70.8636485, 22.767472 ], [ 70.8634689, 22.7676133 ], [ 70.86293, 22.7682867 ], [ 70.8619029, 22.7695542 ], [ 70.8618011, 22.7696534 ], [ 70.8616694, 22.7696995 ], [ 70.8615046, 22.7697026 ], [ 70.8613266, 22.7696686 ] ] } },
{ "type": "Feature", "properties": { "name": "", "cls": "residential", "max_depth": 2.440000057220459, "flooded_km": 0.046424290094800591 }, "geometry": { "type": "LineString", "coordinates": [ [ 70.8378982, 22.8072944 ], [ 70.8379822, 22.8068825 ] ] } },
{ "type": "Feature", "properties": { "name": "", "cls": "residential", "max_depth": 2.4079999923706055, "flooded_km": 0.12188447470567539 }, "geometry": { "type": "LineString", "coordinates": [ [ 70.8367719, 22.8085489 ], [ 70.8365516, 22.8084722 ], [ 70.8366358, 22.8082528 ], [ 70.8367645, 22.8078143 ], [ 70.8367645, 22.8076192 ] ] } },
{ "type": "Feature", "properties": { "name": "", "cls": "residential", "max_depth": 3.2279999256134033, "flooded_km": 0.20189635609702272 }, "geometry": { "type": "LineString", "coordinates": [ [ 70.8366894, 22.8097405 ], [ 70.8374029, 22.808801 ], [ 70.8374351, 22.8087417 ], [ 70.8373546, 22.8086725 ], [ 70.8372259, 22.8085884 ], [ 70.837059, 22.8084914 ], [ 70.8369091, 22.8083813 ] ] } },
{ "type": "Feature", "properties": { "name": "", "cls": "residential", "max_depth": 2.6860001087188721, "flooded_km": 0.1464300511482316 }, "geometry": { "type": "LineString", "coordinates": [ [ 70.8366894, 22.8097405 ], [ 70.8368182, 22.8097949 ], [ 70.8368879, 22.8097356 ], [ 70.8370917, 22.8094636 ], [ 70.8375531, 22.8088208 ] ] } },
{ "type": "Feature", "properties": { "name": "", "cls": "residential", "max_depth": 1.8559999465942383, "flooded_km": 0.032985747280480253 }, "geometry": { "type": "LineString", "coordinates": [ [ 70.8366894, 22.8097405 ], [ 70.8364656, 22.8099542 ] ] } },
{ "type": "Feature", "properties": { "name": "", "cls": "residential", "max_depth": 1.8559999465942383, "flooded_km": 0.030236349885608534 }, "geometry": { "type": "LineString", "coordinates": [ [ 70.8366894, 22.8097405 ], [ 70.8365714, 22.8096515 ], [ 70.836507, 22.8096268 ], [ 70.8364641, 22.8095724 ] ] } },
{ "type": "Feature", "properties": { "name": "", "cls": "residential", "max_depth": 1.8559999465942383, "flooded_km": 0.13526657998731836 }, "geometry": { "type": "LineString", "coordinates": [ [ 70.8373546, 22.8086725 ], [ 70.8370757, 22.8090235 ], [ 70.8368021, 22.8093697 ], [ 70.8367162, 22.8094587 ], [ 70.8367055, 22.8094884 ], [ 70.8366841, 22.809523 ], [ 70.8366251, 22.8095872 ], [ 70.8365714, 22.8096515 ] ] } },
{ "type": "Feature", "properties": { "name": "", "cls": "residential", "max_depth": 1.8370000123977661, "flooded_km": 0.13413698091145909 }, "geometry": { "type": "LineString", "coordinates": [ [ 70.8364641, 22.8095724 ], [ 70.8372259, 22.8085884 ] ] } },
{ "type": "Feature", "properties": { "name": "", "cls": "residential", "max_depth": 2.1170001029968262, "flooded_km": 0.13465413998958928 }, "geometry": { "type": "LineString", "coordinates": [ [ 70.837059, 22.8084914 ], [ 70.8367993, 22.8088261 ], [ 70.8362976, 22.8094814 ] ] } },
{ "type": "Feature", "properties": { "name": "", "cls": "residential", "max_depth": 1.7359999418258667, "flooded_km": 0.033525287187932941 }, "geometry": { "type": "LineString", "coordinates": [ [ 70.8364641, 22.8095724 ], [ 70.8363997, 22.8095526 ], [ 70.8362976, 22.8094814 ], [ 70.836193, 22.8094084 ] ] } },
{ "type": "Feature", "properties": { "name": "", "cls": "residential", "max_depth": 2.9300000667572021, "flooded_km": 0.047904212111916519 }, "geometry": { "type": "LineString", "coordinates": [ [ 70.8365763, 22.8075026 ], [ 70.8366787, 22.8075302 ], [ 70.8366572, 22.8071971 ] ] } },
{ "type": "Feature", "properties": { "name": "", "cls": "residential", "max_depth": 1.187000036239624, "flooded_km": 0.080267786699810634 }, "geometry": { "type": "LineString", "coordinates": [ [ 70.8354664, 22.8095774 ], [ 70.8356847, 22.8094796 ], [ 70.8357185, 22.8092807 ], [ 70.8358472, 22.8090069 ] ] } },
{ "type": "Feature", "properties": { "name": "", "cls": "residential", "max_depth": 1.7869999408721924, "flooded_km": 0.037126458048635576 }, "geometry": { "type": "LineString", "coordinates": [ [ 70.8358326, 22.8095667 ], [ 70.8360082, 22.809696 ], [ 70.8361367, 22.809741 ] ] } },
{ "type": "Feature", "properties": { "name": "", "cls": "residential", "max_depth": 4.2880001068115234, "flooded_km": 0.10430372856756968 }, "geometry": { "type": "LineString", "coordinates": [ [ 70.8351795, 22.8116058 ], [ 70.8351391, 22.8114712 ], [ 70.8350801, 22.8114168 ], [ 70.8343054, 22.8113179 ] ] } },
{ "type": "Feature", "properties": { "name": "", "cls": "residential", "max_depth": 2.8080000877380371, "flooded_km": 0.058917563461486328 }, "geometry": { "type": "LineString", "coordinates": [ [ 70.8342041, 22.8117628 ], [ 70.8336309, 22.8117372 ] ] } },
{ "type": "Feature", "properties": { "name": "", "cls": "residential", "max_depth": 1.6979999542236328, "flooded_km": 0.061030965342323482 }, "geometry": { "type": "LineString", "coordinates": [ [ 70.8331919, 22.8118963 ], [ 70.833208, 22.811738 ], [ 70.8336211, 22.811738 ], [ 70.8336309, 22.8117372 ] ] } },
{ "type": "Feature", "properties": { "name": "", "cls": "residential", "max_depth": 2.1679999828338623, "flooded_km": 0.17093349717454814 }, "geometry": { "type": "LineString", "coordinates": [ [ 70.8333153, 22.8100026 ], [ 70.8333474, 22.8101114 ], [ 70.8334803, 22.8104301 ], [ 70.8336318, 22.8109372 ], [ 70.8335835, 22.8109718 ], [ 70.8331651, 22.8110806 ], [ 70.8330565, 22.8110572 ] ] } },
{ "type": "Feature", "properties": { "name": "", "cls": "residential", "max_depth": 0.76800000667572021, "flooded_km": 0.025834701781179099 }, "geometry": { "type": "LineString", "coordinates": [ [ 70.8333474, 22.8101114 ], [ 70.8328583, 22.8102213 ] ] } },
{ "type": "Feature", "properties": { "name": "", "cls": "residential", "max_depth": 0.98799997568130493, "flooded_km": 0.026044040795012571 }, "geometry": { "type": "LineString", "coordinates": [ [ 70.8333153, 22.8100026 ], [ 70.833047, 22.810057 ], [ 70.8328266, 22.8101262 ] ] } },
{ "type": "Feature", "properties": { "name": "", "cls": "residential", "max_depth": 0.98799997568130493, "flooded_km": 0.037779759268150102 }, "geometry": { "type": "LineString", "coordinates": [ [ 70.8333153, 22.8100026 ], [ 70.8331998, 22.8096787 ] ] } },
{ "type": "Feature", "properties": { "name": "", "cls": "residential", "max_depth": 7.314000129699707, "flooded_km": 0.01498474480857752 }, "geometry": { "type": "LineString", "coordinates": [ [ 70.8399187, 22.8154618 ], [ 70.8405143, 22.8154124 ], [ 70.8406484, 22.8153926 ], [ 70.8409273, 22.8153185 ], [ 70.841335, 22.8151702 ], [ 70.8416144, 22.8150995 ] ] } },
{ "type": "Feature", "properties": { "name": "", "cls": "residential", "max_depth": 1.4529999494552612, "flooded_km": 0.055778428826432518 }, "geometry": { "type": "LineString", "coordinates": [ [ 70.8383684, 22.8106207 ], [ 70.8383845, 22.8107493 ], [ 70.838406, 22.8108778 ], [ 70.8384543, 22.8110954 ], [ 70.838465, 22.8111893 ], [ 70.8384811, 22.8113278 ], [ 70.8384972, 22.8114663 ], [ 70.8384902, 22.8116188 ] ] } },
{ "type": "Feature", "properties": { "name": "", "cls": "residential", "max_depth": 1.4529999494552612, "flooded_km": 0.038631487395204771 }, "geometry": { "type": "LineString", "coordinates": [ [ 70.8383684, 22.8106207 ], [ 70.8384167, 22.8106009 ], [ 70.838738, 22.8105663 ] ] } },
{ "type": "Feature", "properties": { "name": "", "cls": "residential", "max_depth": 2.3840000629425049, "flooded_km": 0.056417849380561269 }, "geometry": { "type": "LineString", "coordinates": [ [ 70.8383684, 22.8106207 ], [ 70.8383416, 22.8106059 ], [ 70.8382612, 22.8101312 ] ] } },
{ "type": "Feature", "properties": { "name": "", "cls": "residential", "max_depth": 2.5250000953674316, "flooded_km": 0.19344441835601034 }, "geometry": { "type": "LineString", "coordinates": [ [ 70.8396076, 22.8102301 ], [ 70.8395701, 22.8100817 ], [ 70.8390283, 22.8101015 ], [ 70.8386998, 22.8101015 ], [ 70.8383094, 22.8101114 ], [ 70.8382612, 22.8101312 ], [ 70.8380412, 22.8101361 ], [ 70.8378593, 22.8101015 ] ] } },
{ "type": "Feature", "properties": { "name": "", "cls": "residential", "max_depth": 1.093999981880188, "flooded_km": 0.029763594063292521 }, "geometry": { "type": "LineString", "coordinates": [ [ 70.8411848, 22.8162478 ], [ 70.8414316, 22.8162577 ], [ 70.8419086, 22.8162824 ] ] } },
{ "type": "Feature", "properties": { "name": "", "cls": "residential", "max_depth": 2.9059998989105225, "flooded_km": 0.014336553466720407 }, "geometry": { "type": "LineString", "coordinates": [ [ 70.8410561, 22.8155409 ], [ 70.8417444, 22.8154322 ] ] } },
{ "type": "Feature", "properties": { "name": "", "cls": "residential", "max_depth": 4.0060000419616699, "flooded_km": 0.014437658560880482 }, "geometry": { "type": "LineString", "coordinates": [ [ 70.8408522, 22.8146412 ], [ 70.8410614, 22.8145671 ], [ 70.8413726, 22.8144435 ] ] } },
{ "type": "Feature", "properties": { "name": "", "cls": "tertiary", "max_depth": 7.1230001449584961, "flooded_km": 0.37374053906714433 }, "geometry": { "type": "LineString", "coordinates": [ [ 70.8154121, 22.8478219 ], [ 70.8153378, 22.8479272 ], [ 70.8142018, 22.8495362 ], [ 70.8137405, 22.850075 ], [ 70.8131933, 22.8505743 ], [ 70.8126676, 22.8510884 ], [ 70.8123297, 22.8514789 ], [ 70.8119273, 22.8520869 ], [ 70.8113373, 22.8529124 ], [ 70.8110261, 22.8534216 ], [ 70.8105862, 22.8540741 ], [ 70.810082, 22.854865 ], [ 70.8093685, 22.8560761 ], [ 70.8091915, 22.8564221 ], [ 70.8087945, 22.8572822 ], [ 70.808537, 22.8577469 ], [ 70.8083976, 22.8578853 ], [ 70.8078397, 22.8583301 ], [ 70.8076734, 22.858518 ], [ 70.8072764, 22.8591112 ], [ 70.8063216, 22.8607078 ], [ 70.804841, 22.8627147 ], [ 70.8037627, 22.8642372 ], [ 70.8029581, 22.8652605 ], [ 70.8027703, 22.8655324 ], [ 70.8026791, 22.8657251 ], [ 70.802486, 22.8662887 ], [ 70.8023144, 22.8666841 ], [ 70.8019603, 22.8672822 ], [ 70.8017136, 22.8677963 ], [ 70.801043, 22.8688393 ], [ 70.8007962, 22.8692546 ], [ 70.800748, 22.8694572 ], [ 70.8008767, 22.8698181 ], [ 70.8010859, 22.8703174 ], [ 70.8010698, 22.8704459 ], [ 70.801043, 22.8705151 ], [ 70.8006621, 22.8708512 ], [ 70.8001096, 22.8717212 ], [ 70.7999379, 22.8721068 ], [ 70.7998414, 22.8721958 ], [ 70.7997073, 22.8722699 ], [ 70.7995678, 22.8722946 ], [ 70.7983769, 22.8722897 ], [ 70.7981999, 22.8723193 ], [ 70.7980175, 22.8724034 ], [ 70.7979102, 22.8724874 ], [ 70.7977117, 22.8727247 ], [ 70.7976098, 22.8727939 ], [ 70.7972182, 22.8728977 ], [ 70.7969285, 22.8729323 ], [ 70.7968641, 22.8729026 ] ] } },
{ "type": "Feature", "properties": { "name": "", "cls": "residential", "max_depth": 0.33300000429153442, "flooded_km": 0.014900544826582655 }, "geometry": { "type": "LineString", "coordinates": [ [ 70.83611, 22.8286834 ], [ 70.836051, 22.8284856 ], [ 70.8360135, 22.8284065 ], [ 70.8359223, 22.8283324 ], [ 70.8358901, 22.828278 ], [ 70.8356487, 22.828095 ], [ 70.835359, 22.8279121 ], [ 70.8348506, 22.8276599 ] ] } },
{ "type": "Feature", "properties": { "name": "", "cls": "residential", "max_depth": 0.33300000429153442, "flooded_km": 0.01457076230464969 }, "geometry": { "type": "LineString", "coordinates": [ [ 70.8353537, 22.8286686 ], [ 70.8352625, 22.8283027 ], [ 70.8356487, 22.828095 ] ] } },
{ "type": "Feature", "properties": { "name": "", "cls": "residential", "max_depth": 2.0469999313354492, "flooded_km": 0.14791890067855076 }, "geometry": { "type": "LineString", "coordinates": [ [ 70.8389532, 22.809701 ], [ 70.8390283, 22.8101015 ], [ 70.8390658, 22.8103388 ], [ 70.8392106, 22.811555 ] ] } },
{ "type": "Feature", "properties": { "name": "", "cls": "residential", "max_depth": 0.60900002717971802, "flooded_km": 0.027545587745538704 }, "geometry": { "type": "LineString", "coordinates": [ [ 70.8395432, 22.8108432 ], [ 70.8394735, 22.8108185 ], [ 70.839452, 22.8107938 ], [ 70.8393448, 22.8102993 ], [ 70.8393335, 22.8102921 ], [ 70.8390658, 22.8103388 ] ] } },
{ "type": "Feature", "properties": { "name": "", "cls": "residential", "max_depth": 0.60900002717971802, "flooded_km": 0.022616185475691053 }, "geometry": { "type": "LineString", "coordinates": [ [ 70.8395432, 22.8108432 ], [ 70.8395164, 22.8110459 ] ] } },
{ "type": "Feature", "properties": { "name": "", "cls": "residential", "max_depth": 0.9570000171661377, "flooded_km": 0.070051319705663001 }, "geometry": { "type": "LineString", "coordinates": [ [ 70.8395432, 22.8108432 ], [ 70.839613, 22.8106158 ], [ 70.8396237, 22.8102943 ], [ 70.8396076, 22.8102301 ], [ 70.8393335, 22.8102921 ] ] } },
{ "type": "Feature", "properties": { "name": "", "cls": "residential", "max_depth": 0.81099998950958252, "flooded_km": 0.014468835081741519 }, "geometry": { "type": "LineString", "coordinates": [ [ 70.8305258, 22.8058292 ], [ 70.8308584, 22.8059924 ], [ 70.831132, 22.8061259 ], [ 70.8311641, 22.8061605 ], [ 70.8314002, 22.8062446 ], [ 70.831486, 22.8063237 ], [ 70.8311159, 22.8069566 ], [ 70.8310354, 22.8069566 ], [ 70.8307832, 22.8068256 ] ] } },
{ "type": "Feature", "properties": { "name": "", "cls": "residential", "max_depth": 0.65100002288818359, "flooded_km": 0.029885868632335465 }, "geometry": { "type": "LineString", "coordinates": [ [ 70.8296675, 22.8065759 ], [ 70.8301932, 22.8056661 ], [ 70.830456, 22.805132 ] ] } },
{ "type": "Feature", "properties": { "name": "", "cls": "residential", "max_depth": 0.42199999094009399, "flooded_km": 0.014826622328649671 }, "geometry": { "type": "LineString", "coordinates": [ [ 70.8293402, 22.8064127 ], [ 70.8302093, 22.80487 ] ] } },
{ "type": "Feature", "properties": { "name": "", "cls": "tertiary", "max_depth": 1.0039999485015869, "flooded_km": 0.044934370886909589 }, "geometry": { "type": "LineString", "coordinates": [ [ 70.8171952, 22.8451121 ], [ 70.8195018, 22.8461699 ], [ 70.821197, 22.8464418 ], [ 70.8233159, 22.8468076 ], [ 70.8241421, 22.8470597 ], [ 70.8246731, 22.8471932 ], [ 70.8248019, 22.8471932 ], [ 70.8249521, 22.8471487 ], [ 70.8250487, 22.8470745 ], [ 70.825172, 22.8469411 ], [ 70.8254563, 22.8467681 ], [ 70.8257031, 22.8464764 ], [ 70.8257353, 22.8462638 ], [ 70.8258748, 22.845819 ], [ 70.8259821, 22.8455273 ], [ 70.8260035, 22.8453296 ], [ 70.8260733, 22.8452208 ], [ 70.826379, 22.8452554 ], [ 70.8266097, 22.8452455 ], [ 70.8267063, 22.84486 ], [ 70.8267975, 22.8445139 ], [ 70.8268189, 22.8444991 ], [ 70.8268726, 22.8442816 ], [ 70.8268404, 22.844074 ], [ 70.8266902, 22.8435846 ], [ 70.8266848, 22.843293 ], [ 70.8268994, 22.8426998 ], [ 70.8269798, 22.841899 ], [ 70.8270389, 22.8416222 ], [ 70.8271247, 22.8414739 ], [ 70.827468, 22.8410586 ], [ 70.8275699, 22.8409103 ], [ 70.8279937, 22.840159 ], [ 70.8282029, 22.8398228 ], [ 70.8283102, 22.8396993 ], [ 70.8284712, 22.8396399 ], [ 70.8288628, 22.839724 ], [ 70.82919, 22.8397438 ], [ 70.8292597, 22.8396993 ], [ 70.829544, 22.8392445 ], [ 70.829646, 22.8389825 ], [ 70.8297693, 22.8381125 ], [ 70.8299249, 22.8374353 ], [ 70.8300537, 22.8370744 ], [ 70.8300858, 22.837025 ], [ 70.8304346, 22.8360361 ], [ 70.8307725, 22.8354378 ], [ 70.8309764, 22.8349928 ], [ 70.8311373, 22.8345626 ], [ 70.8312178, 22.8343351 ], [ 70.8316201, 22.8329408 ], [ 70.8315665, 22.8326737 ], [ 70.8315718, 22.8325699 ], [ 70.8316041, 22.8323029 ], [ 70.8317479, 22.8320441 ], [ 70.8320326, 22.8318085 ], [ 70.832114, 22.8317175 ], [ 70.832236, 22.8316157 ], [ 70.8323406, 22.8315836 ], [ 70.8324742, 22.8315247 ], [ 70.8327066, 22.8314658 ], [ 70.8328635, 22.8314711 ], [ 70.8330553, 22.8314818 ], [ 70.8332528, 22.8315086 ], [ 70.8333206, 22.8315153 ], [ 70.8334678, 22.83153 ], [ 70.8336654, 22.8315354 ], [ 70.8337816, 22.8315247 ], [ 70.834136, 22.8313319 ], [ 70.8341999, 22.8313479 ] ] } },
{ "type": "Feature", "properties": { "name": "", "cls": "residential", "max_depth": 1.5750000476837158, "flooded_km": 0.014928598777120968 }, "geometry": { "type": "LineString", "coordinates": [ [ 70.8341682, 22.8338901 ], [ 70.8341951, 22.8338456 ], [ 70.8342272, 22.8338011 ], [ 70.8342648, 22.833722 ], [ 70.834297, 22.8336379 ], [ 70.8343184, 22.8335934 ], [ 70.8343935, 22.8334451 ], [ 70.8346403, 22.8328715 ], [ 70.8348978, 22.8322754 ] ] } },
{ "type": "Feature", "properties": { "name": "", "cls": "residential", "max_depth": 2.1919999122619629, "flooded_km": 0.071251075989541959 }, "geometry": { "type": "LineString", "coordinates": [ [ 70.8357688, 22.8325475 ], [ 70.8357453, 22.8326242 ], [ 70.8355897, 22.8330099 ], [ 70.835579, 22.8330742 ], [ 70.8355307, 22.8331582 ], [ 70.83552, 22.8332225 ], [ 70.8354288, 22.8334055 ], [ 70.8352947, 22.8337664 ], [ 70.8352196, 22.8339642 ], [ 70.8351552, 22.834073 ], [ 70.8351337, 22.8342114 ], [ 70.8350908, 22.8343202 ], [ 70.8350425, 22.8344834 ] ] } },
{ "type": "Feature", "properties": { "name": "", "cls": "residential", "max_depth": 4.8189997673034668, "flooded_km": 0.059549144775780105 }, "geometry": { "type": "LineString", "coordinates": [ [ 70.8333421, 22.8448554 ], [ 70.8339161, 22.8449049 ], [ 70.8342004, 22.8450185 ], [ 70.8347377, 22.8451372 ], [ 70.8357238, 22.8452508 ], [ 70.8358526, 22.8453892 ], [ 70.8358419, 22.8454387 ], [ 70.835638, 22.8461356 ], [ 70.8353215, 22.8466249 ], [ 70.8352089, 22.8467089 ], [ 70.8350372, 22.8470104 ], [ 70.8350211, 22.8474058 ], [ 70.8349943, 22.8475837 ], [ 70.8349192, 22.847994 ], [ 70.8348763, 22.8482757 ], [ 70.8348226, 22.8483795 ] ] } },
{ "type": "Feature", "properties": { "name": "", "cls": "residential", "max_depth": 0.460999995470047, "flooded_km": 0.029121493734412082 }, "geometry": { "type": "LineString", "coordinates": [ [ 70.8342602, 22.8480934 ], [ 70.8340556, 22.8480785 ], [ 70.8337015, 22.8482318 ], [ 70.8333528, 22.8482763 ], [ 70.8327681, 22.8481922 ], [ 70.832516, 22.848034 ] ] } },
{ "type": "Feature", "properties": { "name": "", "cls": "residential", "max_depth": 1.7580000162124634, "flooded_km": 0.045414200960209442 }, "geometry": { "type": "LineString", "coordinates": [ [ 70.8325103, 22.8121336 ], [ 70.8329184, 22.8119754 ] ] } },
{ "type": "Feature", "properties": { "name": "", "cls": "residential", "max_depth": 2.3350000381469727, "flooded_km": 0.10311027833826908 }, "geometry": { "type": "LineString", "coordinates": [ [ 70.8336465, 22.8514108 ], [ 70.833149, 22.8512724 ], [ 70.8330095, 22.8512724 ], [ 70.8328325, 22.8513317 ], [ 70.8327735, 22.8513663 ], [ 70.8325536, 22.8516037 ], [ 70.8324141, 22.8515987 ], [ 70.8311535, 22.8511982 ] ] } },
{ "type": "Feature", "properties": { "name": "", "cls": "tertiary", "max_depth": 3.9340000152587891, "flooded_km": 0.059965421400208524 }, "geometry": { "type": "LineString", "coordinates": [ [ 70.8341761, 22.8524374 ], [ 70.834374, 22.8526554 ], [ 70.8345345, 22.8528496 ], [ 70.8346283, 22.8530884 ], [ 70.8346864, 22.8533972 ], [ 70.8347132, 22.8536072 ], [ 70.8347939, 22.8536156 ], [ 70.8350707, 22.8536443 ], [ 70.8354117, 22.8536578 ], [ 70.8354862, 22.8536608 ], [ 70.8359114, 22.8536878 ], [ 70.8363933, 22.8537184 ], [ 70.8369071, 22.853809 ], [ 70.8377338, 22.8539861 ], [ 70.8383772, 22.8540766 ], [ 70.8388776, 22.8542331 ], [ 70.8393781, 22.8544225 ], [ 70.8397936, 22.8545131 ], [ 70.840656, 22.8547107 ], [ 70.8409822, 22.8548672 ], [ 70.842001, 22.8551966 ], [ 70.8425997, 22.8553984 ], [ 70.8430644, 22.8556413 ], [ 70.8439357, 22.8560942 ], [ 70.8448696, 22.8565018 ], [ 70.8461967, 22.8572512 ], [ 70.846858, 22.8575888 ] ] } },
{ "type": "Feature", "properties": { "name": "", "cls": "tertiary", "max_depth": 4.560999870300293, "flooded_km": 0.068133724611648031 }, "geometry": { "type": "LineString", "coordinates": [ [ 70.8337699, 22.8519508 ], [ 70.8341761, 22.8524374 ] ] } },
{ "type": "Feature", "properties": { "name": "", "cls": "residential", "max_depth": 1.128000020980835, "flooded_km": 0.01476079227516915 }, "geometry": { "type": "LineString", "coordinates": [ [ 70.8428666, 22.8251753 ], [ 70.8441386, 22.8253959 ] ] } },
{ "type": "Feature", "properties": { "name": "", "cls": "residential", "max_depth": 1.3869999647140503, "flooded_km": 0.19049121298812108 }, "geometry": { "type": "LineString", "coordinates": [ [ 70.8439322, 22.8229917 ], [ 70.8440451, 22.8224234 ], [ 70.8441419, 22.8218912 ], [ 70.8443112, 22.8209561 ], [ 70.844461, 22.8201292 ], [ 70.8444944, 22.8200271 ], [ 70.8445383, 22.8199886 ], [ 70.8446052, 22.8199559 ], [ 70.8447368, 22.8199443 ], [ 70.8449249, 22.8199578 ], [ 70.8450106, 22.8200117 ], [ 70.8450294, 22.8200849 ], [ 70.8449567, 22.8210136 ], [ 70.8448771, 22.8220312 ] ] } },
{ "type": "Feature", "properties": { "name": "", "cls": "residential", "max_depth": 1.3869999647140503, "flooded_km": 0.013314666392701766 }, "geometry": { "type": "LineString", "coordinates": [ [ 70.8443112, 22.8209561 ], [ 70.8449567, 22.8210136 ] ] } },
{ "type": "Feature", "properties": { "name": "", "cls": "residential", "max_depth": 6.6160001754760742, "flooded_km": 0.30121729742698816 }, "geometry": { "type": "LineString", "coordinates": [ [ 70.8454917, 22.8184553 ], [ 70.8454871, 22.8182151 ], [ 70.8445591, 22.8180687 ], [ 70.8445027, 22.817955 ], [ 70.8445376, 22.8177424 ], [ 70.8446771, 22.8165779 ], [ 70.8447415, 22.8165038 ] ] } },
{ "type": "Feature", "properties": { "name": "", "cls": "residential", "max_depth": 0.75800001621246338, "flooded_km": 0.01498559704445877 }, "geometry": { "type": "LineString", "coordinates": [ [ 70.8600477, 22.7979388 ], [ 70.8602483, 22.7979696 ], [ 70.8602274, 22.7980755 ], [ 70.8607896, 22.7981834 ], [ 70.8607583, 22.7983183 ], [ 70.8610223, 22.7983755 ] ] } },
{ "type": "Feature", "properties": { "name": "", "cls": "secondary", "max_depth": 3.5239999294281006, "flooded_km": 0.19857462841006457 }, "geometry": { "type": "LineString", "coordinates": [ [ 70.8486857, 22.7702806 ], [ 70.8488681, 22.7702196 ], [ 70.8491478, 22.7702224 ], [ 70.8493125, 22.7702511 ], [ 70.850426, 22.7708594 ] ] } },
{ "type": "Feature", "properties": { "name": "", "cls": "tertiary", "max_depth": 13.194999694824219, "flooded_km": 0.25971037989782947 }, "geometry": { "type": "LineString", "coordinates": [ [ 70.8385402, 22.8225485 ], [ 70.8410454, 22.8228748 ] ] } },
{ "type": "Feature", "properties": { "name": "", "cls": "tertiary", "max_depth": 10.286999702453613, "flooded_km": 0.089650260012292524 }, "geometry": { "type": "LineString", "coordinates": [ [ 70.8353026, 22.8208931 ], [ 70.8360565, 22.8213396 ], [ 70.8365661, 22.821347 ], [ 70.8366868, 22.8213791 ], [ 70.837191, 22.8216288 ], [ 70.8373091, 22.8216412 ], [ 70.8377624, 22.8217104 ], [ 70.8378375, 22.8217658 ], [ 70.8378576, 22.8218076 ], [ 70.838044, 22.8221949 ], [ 70.8381218, 22.822321 ], [ 70.8383471, 22.8224817 ], [ 70.8385402, 22.8225485 ] ] } },
{ "type": "Feature", "properties": { "name": "", "cls": "tertiary", "max_depth": 4.7100000381469727, "flooded_km": 0.037964075700589781 }, "geometry": { "type": "LineString", "coordinates": [ [ 70.8382292, 22.8222758 ], [ 70.8381338, 22.822607 ] ] } },
{ "type": "Feature", "properties": { "name": "", "cls": "tertiary", "max_depth": 1.7079999446868896, "flooded_km": 0.010294096402058372 }, "geometry": { "type": "LineString", "coordinates": [ [ 70.8381338, 22.822607 ], [ 70.8380463, 22.8228738 ] ] } },
{ "type": "Feature", "properties": { "name": "", "cls": "tertiary", "max_depth": 4.2649998664855957, "flooded_km": 0.057953576995057585 }, "geometry": { "type": "LineString", "coordinates": [ [ 70.8446458, 22.8240375 ], [ 70.8443975, 22.8239685 ], [ 70.8438455, 22.8238905 ], [ 70.843243, 22.823838 ], [ 70.8430053, 22.8237809 ], [ 70.8429255, 22.8237029 ], [ 70.842939, 22.8235621 ], [ 70.8430199, 22.8233937 ], [ 70.8430675, 22.8232891 ] ] } },
{ "type": "Feature", "properties": { "name": "", "cls": "residential", "max_depth": 0.56800001859664917, "flooded_km": 0.04445849936783712 }, "geometry": { "type": "LineString", "coordinates": [ [ 70.8357426, 22.8224348 ], [ 70.8361798, 22.8226226 ], [ 70.837183, 22.8227833 ], [ 70.8372876, 22.8227512 ], [ 70.83736, 22.8226696 ], [ 70.837529, 22.8219279 ], [ 70.8374539, 22.8218142 ], [ 70.8368075, 22.8216832 ], [ 70.8364397, 22.8215404 ], [ 70.8360565, 22.8213396 ] ] } },
{ "type": "Feature", "properties": { "name": "", "cls": "residential", "max_depth": 3.4900000095367432, "flooded_km": 0.092737601238830708 }, "geometry": { "type": "LineString", "coordinates": [ [ 70.8446076, 22.8182835 ], [ 70.8454917, 22.8184553 ] ] } },
{ "type": "Feature", "properties": { "name": "", "cls": "pedestrian", "max_depth": 8.0120000839233398, "flooded_km": 0.06345637728483941 }, "geometry": { "type": "LineString", "coordinates": [ [ 70.8439896, 22.8182938 ], [ 70.8446076, 22.8182835 ] ] } },
{ "type": "Feature", "properties": { "name": "", "cls": "unclassified", "max_depth": 1.9989999532699585, "flooded_km": 0.14970532741267431 }, "geometry": { "type": "LineString", "coordinates": [ [ 70.849264, 22.7697087 ], [ 70.8491273, 22.7695529 ], [ 70.8488023, 22.7691826 ], [ 70.8479333, 22.7685544 ], [ 70.8470428, 22.7680993 ], [ 70.8468336, 22.7679113 ], [ 70.8459324, 22.7671496 ], [ 70.8458841, 22.7670507 ], [ 70.8456963, 22.7664324 ], [ 70.8455247, 22.766284 ], [ 70.8445054, 22.7656656 ], [ 70.8443606, 22.7654925 ], [ 70.8442962, 22.7651463 ], [ 70.844028, 22.7649632 ], [ 70.8436257, 22.7646566 ], [ 70.8433038, 22.7644587 ], [ 70.8423167, 22.7640036 ], [ 70.8416408, 22.7637217 ], [ 70.8415013, 22.7635832 ], [ 70.8413404, 22.7634199 ], [ 70.8403641, 22.7627966 ], [ 70.8401066, 22.7625592 ], [ 70.8399081, 22.7624504 ], [ 70.8391517, 22.7623663 ], [ 70.8379394, 22.7621239 ], [ 70.8377731, 22.7621338 ], [ 70.8371615, 22.7623564 ], [ 70.8368719, 22.7623762 ], [ 70.8355737, 22.7624207 ], [ 70.8353215, 22.7623613 ], [ 70.8346349, 22.7620151 ], [ 70.8345115, 22.7618073 ], [ 70.8344954, 22.7615056 ], [ 70.834415, 22.7609713 ], [ 70.8343291, 22.7602936 ], [ 70.8342701, 22.7600611 ], [ 70.8343077, 22.7597594 ], [ 70.8343077, 22.7595318 ], [ 70.8339965, 22.7590817 ], [ 70.8332562, 22.7582704 ], [ 70.8330309, 22.7578945 ], [ 70.8326501, 22.7572464 ], [ 70.8324516, 22.7570782 ], [ 70.832296, 22.7570634 ], [ 70.832119, 22.7571722 ], [ 70.8317596, 22.7574047 ], [ 70.8315343, 22.7574542 ], [ 70.831266, 22.7574097 ], [ 70.8304882, 22.7570238 ], [ 70.8301824, 22.7566874 ], [ 70.8300215, 22.7566231 ], [ 70.8298713, 22.7566281 ], [ 70.8295548, 22.756727 ], [ 70.8293134, 22.756727 ] ] } },
{ "type": "Feature", "properties": { "name": "", "cls": "service", "max_depth": 2.5369999408721924, "flooded_km": 0.071887619997067401 }, "geometry": { "type": "LineString", "coordinates": [ [ 70.761709, 22.9485633 ], [ 70.7618215, 22.9485738 ], [ 70.7619298, 22.9485981 ], [ 70.7620434, 22.9486175 ], [ 70.7621538, 22.9486458 ], [ 70.7622, 22.9486681 ], [ 70.7623427, 22.9487701 ], [ 70.7624801, 22.9488751 ], [ 70.7626335, 22.9489613 ], [ 70.7627869, 22.9490139 ], [ 70.7632104, 22.9491883 ], [ 70.7633088, 22.9492331 ], [ 70.7634035, 22.9492846 ], [ 70.7634843, 22.9493359 ], [ 70.7635613, 22.9493919 ], [ 70.7636341, 22.9494525 ], [ 70.7638273, 22.949581 ], [ 70.7639238, 22.9496254 ], [ 70.7639989, 22.9496526 ], [ 70.7641247, 22.9496764 ], [ 70.7642511, 22.9496971 ], [ 70.7644303, 22.9497211 ], [ 70.7646105, 22.9497391 ], [ 70.7647446, 22.9497465 ] ] } },
{ "type": "Feature", "properties": { "name": "", "cls": "residential", "max_depth": 0.43900001049041748, "flooded_km": 0.029355965626819632 }, "geometry": { "type": "LineString", "coordinates": [ [ 70.8340609, 22.7993469 ], [ 70.8341843, 22.7993122 ], [ 70.834356, 22.7993073 ], [ 70.834533, 22.7992677 ], [ 70.8347744, 22.7992628 ], [ 70.8352143, 22.7993815 ], [ 70.8358955, 22.7995199 ], [ 70.8374244, 22.7997622 ] ] } },
{ "type": "Feature", "properties": { "name": "", "cls": "residential", "max_depth": 0.31999999284744263, "flooded_km": 0.029778181382926091 }, "geometry": { "type": "LineString", "coordinates": [ [ 70.8329595, 22.802452 ], [ 70.834474, 22.8021553 ], [ 70.8348227, 22.8021553 ], [ 70.8353698, 22.8022097 ], [ 70.8355898, 22.8022147 ], [ 70.8368504, 22.8023333 ], [ 70.8368933, 22.8023581 ], [ 70.8372581, 22.8023828 ] ] } },
{ "type": "Feature", "properties": { "name": "", "cls": "residential", "max_depth": 0.48500001430511475, "flooded_km": 0.02599620661660219 }, "geometry": { "type": "LineString", "coordinates": [ [ 70.8368504, 22.8023333 ], [ 70.8369255, 22.8017506 ] ] } },
{ "type": "Feature", "properties": { "name": "", "cls": "residential", "max_depth": 2.5780000686645508, "flooded_km": 0.11548405384969729 }, "geometry": { "type": "LineString", "coordinates": [ [ 70.8592361, 22.7993765 ], [ 70.85922, 22.7991391 ], [ 70.8592898, 22.798882 ], [ 70.8593971, 22.7987436 ], [ 70.8595741, 22.798615 ], [ 70.8599228, 22.7976656 ], [ 70.8601749, 22.7964443 ] ] } },
{ "type": "Feature", "properties": { "name": "", "cls": "residential", "max_depth": 2.6579999923706055, "flooded_km": 0.21750200911457815 }, "geometry": { "type": "LineString", "coordinates": [ [ 70.8339823, 22.8100075 ], [ 70.8339818, 22.8100694 ], [ 70.8339807, 22.8101406 ], [ 70.8339684, 22.8101819 ], [ 70.8339295, 22.8102078 ], [ 70.8334803, 22.8104301 ], [ 70.8329826, 22.810594 ], [ 70.8325469, 22.8107374 ], [ 70.8320507, 22.8109008 ], [ 70.8312339, 22.8111697 ], [ 70.8305907, 22.8113814 ] ] } },
{ "type": "Feature", "properties": { "name": "", "cls": "secondary", "max_depth": 1.0590000152587891, "flooded_km": 0.059711734253139491 }, "geometry": { "type": "LineString", "coordinates": [ [ 70.8305907, 22.8113814 ], [ 70.8307583, 22.8118124 ], [ 70.8308737, 22.8121093 ], [ 70.8311876, 22.8129164 ], [ 70.8312544, 22.8130883 ], [ 70.8314177, 22.8135083 ], [ 70.8315609, 22.8138766 ], [ 70.8316569, 22.8141093 ], [ 70.8316778, 22.8141771 ], [ 70.8319644, 22.8149142 ], [ 70.8321109, 22.81539 ], [ 70.8321106, 22.8155879 ] ] } },
{ "type": "Feature", "properties": { "name": "", "cls": "residential", "max_depth": 0.76499998569488525, "flooded_km": 0.099282413909350678 }, "geometry": { "type": "LineString", "coordinates": [ [ 70.8385593, 22.8052363 ], [ 70.8383318, 22.8053645 ], [ 70.8380774, 22.8052982 ], [ 70.8376249, 22.8052174 ], [ 70.8366848, 22.8051532 ] ] } },
{ "type": "Feature", "properties": { "name": "", "cls": "residential", "max_depth": 0.38499999046325684, "flooded_km": 0.013473167324374188 }, "geometry": { "type": "LineString", "coordinates": [ [ 70.836711, 22.8048457 ], [ 70.8366848, 22.8051532 ], [ 70.8366144, 22.8058148 ] ] } },
{ "type": "Feature", "properties": { "name": "", "cls": "residential", "max_depth": 1.1859999895095825, "flooded_km": 0.043136954508748354 }, "geometry": { "type": "LineString", "coordinates": [ [ 70.8386706, 22.8045857 ], [ 70.8366892, 22.8042166 ], [ 70.836588, 22.8041675 ], [ 70.836711, 22.8036937 ] ] } },
{ "type": "Feature", "properties": { "name": "", "cls": "residential", "max_depth": 1.1859999895095825, "flooded_km": 0.13415309988175789 }, "geometry": { "type": "LineString", "coordinates": [ [ 70.8386706, 22.8045857 ], [ 70.8384276, 22.8050781 ], [ 70.8384329, 22.8051325 ], [ 70.8385593, 22.8052363 ], [ 70.8386958, 22.8052907 ], [ 70.8391303, 22.8055379 ], [ 70.8392364, 22.8056022 ] ] } },
{ "type": "Feature", "properties": { "name": "", "cls": "residential", "max_depth": 1.1859999895095825, "flooded_km": 0.072738918417814408 }, "geometry": { "type": "LineString", "coordinates": [ [ 70.8386706, 22.8045857 ], [ 70.8388889, 22.8038618 ], [ 70.8389213, 22.8036789 ], [ 70.8389928, 22.8033966 ], [ 70.8391357, 22.8025912 ], [ 70.8391786, 22.8021561 ], [ 70.839243, 22.8018841 ] ] } },
{ "type": "Feature", "properties": { "name": "", "cls": "residential", "max_depth": 1.1529999971389771, "flooded_km": 0.043503487145546159 }, "geometry": { "type": "LineString", "coordinates": [ [ 70.840615, 22.803031 ], [ 70.840348, 22.8029469 ], [ 70.8401335, 22.8028826 ], [ 70.8398384, 22.8027939 ], [ 70.8391357, 22.8025912 ] ] } },
{ "type": "Feature", "properties": { "name": "", "cls": "residential", "max_depth": 2.9549999237060547, "flooded_km": 1.0798807691982621 }, "geometry": { "type": "LineString", "coordinates": [ [ 70.8499909, 22.7676395 ], [ 70.8501018, 22.7678208 ], [ 70.8501519, 22.7682066 ], [ 70.850066, 22.7685793 ], [ 70.8497442, 22.7690607 ], [ 70.8491273, 22.7695529 ], [ 70.8486534, 22.7699016 ], [ 70.8482243, 22.7703764 ], [ 70.847627, 22.7713855 ], [ 70.8470047, 22.7725825 ], [ 70.8462352, 22.7740392 ], [ 70.8460116, 22.7745173 ], [ 70.8459151, 22.7746234 ], [ 70.845868, 22.7746133 ], [ 70.8455944, 22.7745095 ], [ 70.8454549, 22.7744996 ], [ 70.8452671, 22.7745391 ], [ 70.845192, 22.7745738 ], [ 70.8448755, 22.7749744 ], [ 70.8448004, 22.7750338 ], [ 70.8446127, 22.7751228 ], [ 70.8444196, 22.7751476 ], [ 70.844264, 22.7751129 ], [ 70.844087, 22.7749794 ], [ 70.8436632, 22.7742869 ], [ 70.8435076, 22.774089 ], [ 70.8433789, 22.7740494 ], [ 70.8430087, 22.7739802 ], [ 70.8428853, 22.7740544 ], [ 70.8422577, 22.7752465 ], [ 70.8420002, 22.775756 ] ] } },
{ "type": "Feature", "properties": { "name": "", "cls": "residential", "max_depth": 1.0269999504089355, "flooded_km": 0.37437150941935238 }, "geometry": { "type": "LineString", "coordinates": [ [ 70.8443499, 22.7811163 ], [ 70.8443556, 22.7813285 ], [ 70.8443259, 22.7815408 ], [ 70.8443391, 22.7817484 ], [ 70.8444078, 22.781956 ], [ 70.8446181, 22.7823797 ], [ 70.8447288, 22.7827958 ], [ 70.8449585, 22.7835973 ], [ 70.8450359, 22.7839981 ], [ 70.8449722, 22.7843912 ] ] } },
{ "type": "Feature", "properties": { "name": "", "cls": "residential", "max_depth": 0.33199998736381531, "flooded_km": 0.027515110251241686 }, "geometry": { "type": "LineString", "coordinates": [ [ 70.8427778, 22.7808046 ], [ 70.8443499, 22.7811163 ] ] } },
{ "type": "Feature", "properties": { "name": "", "cls": "residential", "max_depth": 4.0100002288818359, "flooded_km": 0.31538855160400397 }, "geometry": { "type": "LineString", "coordinates": [ [ 70.8471703, 22.7808096 ], [ 70.8465493, 22.7806859 ], [ 70.846206, 22.7807106 ], [ 70.8455945, 22.7809333 ], [ 70.8451331, 22.7812746 ], [ 70.8449829, 22.781329 ], [ 70.8447469, 22.7813043 ], [ 70.8443499, 22.7811163 ] ] } },
{ "type": "Feature", "properties": { "name": "", "cls": "residential", "max_depth": 0.43500000238418579, "flooded_km": 0.028591204849510461 }, "geometry": { "type": "LineString", "coordinates": [ [ 70.8260733, 22.8452208 ], [ 70.8260679, 22.8451763 ], [ 70.8261323, 22.844855 ], [ 70.8261591, 22.8448056 ], [ 70.8261323, 22.8447265 ], [ 70.8261323, 22.8445832 ], [ 70.8261645, 22.8443508 ], [ 70.8262878, 22.8439603 ], [ 70.82654, 22.8435846 ], [ 70.8266258, 22.8433424 ], [ 70.8266848, 22.843293 ] ] } },
{ "type": "Feature", "properties": { "name": "", "cls": "residential", "max_depth": 0.3449999988079071, "flooded_km": 0.014506087507127419 }, "geometry": { "type": "LineString", "coordinates": [ [ 70.8300858, 22.837025 ], [ 70.8301502, 22.8370497 ], [ 70.8304307, 22.8372245 ], [ 70.8305311, 22.837287 ], [ 70.8306974, 22.8376676 ], [ 70.8307349, 22.837806 ], [ 70.8310193, 22.8382361 ], [ 70.8310997, 22.8386464 ] ] } },
{ "type": "Feature", "properties": { "name": "Morbi Bypass", "cls": "primary", "max_depth": 4.304999828338623, "flooded_km": 0.074584165481343695 }, "geometry": { "type": "LineString", "coordinates": [ [ 70.8256699, 22.859862 ], [ 70.8263566, 22.8605244 ], [ 70.826885, 22.8610657 ], [ 70.8273578, 22.86158 ], [ 70.8277561, 22.8620237 ], [ 70.8287907, 22.8632125 ], [ 70.8305428, 22.8651879 ], [ 70.8318172, 22.8666354 ], [ 70.8320856, 22.8669403 ], [ 70.8321605, 22.8670251 ], [ 70.8328469, 22.8678017 ], [ 70.8332546, 22.868263 ], [ 70.8338477, 22.8689309 ], [ 70.8344475, 22.8696097 ], [ 70.8345071, 22.8696771 ], [ 70.8348488, 22.8700632 ], [ 70.8350288, 22.8702667 ], [ 70.8355272, 22.870835 ], [ 70.8360443, 22.8714188 ], [ 70.8365259, 22.8719684 ], [ 70.8365463, 22.8719917 ], [ 70.8371578, 22.8726907 ], [ 70.8373037, 22.8728598 ], [ 70.837761, 22.8733897 ], [ 70.8378755, 22.8735145 ], [ 70.8383896, 22.8740747 ], [ 70.8389522, 22.8747286 ], [ 70.8395115, 22.8753451 ], [ 70.8401637, 22.8761157 ], [ 70.8407501, 22.8767836 ], [ 70.8413127, 22.877425 ], [ 70.8414358, 22.8774656 ] ] } },
{ "type": "Feature", "properties": { "name": "Morbi Bypass", "cls": "primary", "max_depth": 2.5940001010894775, "flooded_km": 0.10489650471825333 }, "geometry": { "type": "LineString", "coordinates": [ [ 70.8102186, 22.8397076 ], [ 70.8102799, 22.8398879 ], [ 70.8105512, 22.8406865 ], [ 70.8107983, 22.841273 ], [ 70.8108677, 22.8414379 ], [ 70.8111276, 22.8419592 ], [ 70.8115326, 22.8427206 ], [ 70.8120074, 22.8435264 ], [ 70.8127503, 22.8447178 ], [ 70.8135094, 22.8457708 ], [ 70.8137199, 22.8460501 ], [ 70.8145474, 22.847019 ], [ 70.8153378, 22.8479272 ], [ 70.8158769, 22.8485437 ], [ 70.8163795, 22.8491183 ], [ 70.8174711, 22.8503517 ], [ 70.8182027, 22.851189 ], [ 70.8192714, 22.8524092 ], [ 70.8203316, 22.8536059 ], [ 70.8212076, 22.8546137 ], [ 70.8220007, 22.8555572 ], [ 70.8222689, 22.8558754 ], [ 70.8225178, 22.8561724 ], [ 70.8228965, 22.8566243 ], [ 70.8233069, 22.8571532 ] ] } },
{ "type": "Feature", "properties": { "name": "Morbi Bypass", "cls": "primary", "max_depth": 15.315999984741211, "flooded_km": 0.38577493067683188 }, "geometry": { "type": "LineString", "coordinates": [ [ 70.8233069, 22.8571532 ], [ 70.8238192, 22.8577488 ], [ 70.824935, 22.8590019 ], [ 70.8256699, 22.859862 ] ] } },
{ "type": "Feature", "properties": { "name": "Morbi Bypass", "cls": "primary", "max_depth": 2.5940001010894775, "flooded_km": 0.089422985164411273 }, "geometry": { "type": "LineString", "coordinates": [ [ 70.8233768, 22.8570815 ], [ 70.8225941, 22.8561148 ], [ 70.822401, 22.8558763 ], [ 70.8206897, 22.8538501 ], [ 70.8189167, 22.8518338 ], [ 70.8171706, 22.8498266 ], [ 70.8159726, 22.8484609 ], [ 70.8154121, 22.8478219 ] ] } },
{ "type": "Feature", "properties": { "name": "", "cls": "primary_link", "max_depth": 1.0920000076293945, "flooded_km": 0.005050129938144448 }, "geometry": { "type": "LineString", "coordinates": [ [ 70.8225941, 22.8561148 ], [ 70.8225178, 22.8561724 ] ] } },
{ "type": "Feature", "properties": { "name": "", "cls": "unclassified", "max_depth": 3.1710000038146973, "flooded_km": 1.4393411958356532 }, "geometry": { "type": "LineString", "coordinates": [ [ 70.8521829, 22.743813 ], [ 70.8521565, 22.7442683 ], [ 70.8521847, 22.7443907 ], [ 70.8525546, 22.7452472 ], [ 70.853616, 22.7476833 ], [ 70.8541588, 22.7488476 ], [ 70.8550072, 22.7504123 ], [ 70.8552404, 22.7511279 ], [ 70.8558032, 22.7532487 ], [ 70.8562214, 22.7550692 ], [ 70.8562455, 22.7553733 ], [ 70.8562214, 22.7556291 ], [ 70.856153, 22.7559331 ], [ 70.8559359, 22.7568267 ], [ 70.855751, 22.7581132 ], [ 70.8555982, 22.7588139 ], [ 70.8554937, 22.7591884 ], [ 70.8549469, 22.7603785 ], [ 70.854392, 22.7614055 ], [ 70.8542201, 22.7615665 ], [ 70.8539427, 22.7617667 ], [ 70.853814, 22.761915 ], [ 70.8536894, 22.7621412 ], [ 70.8531948, 22.7636761 ], [ 70.8527646, 22.76464 ], [ 70.8519323, 22.7666346 ], [ 70.8514074, 22.7683402 ] ] } },
{ "type": "Feature", "properties": { "name": "", "cls": "unclassified", "max_depth": 2.5369999408721924, "flooded_km": 0.2855402075878552 }, "geometry": { "type": "LineString", "coordinates": [ [ 70.8513815, 22.7684846 ], [ 70.8513616, 22.7685383 ], [ 70.8511724, 22.7690481 ], [ 70.8507324, 22.7702825 ], [ 70.850535, 22.7709398 ] ] } },
{ "type": "Feature", "properties": { "name": "", "cls": "unclassified", "max_depth": 2.0109999179840088, "flooded_km": 0.016211423032114206 }, "geometry": { "type": "LineString", "coordinates": [ [ 70.8514074, 22.7683402 ], [ 70.8513815, 22.7684846 ] ] } },
{ "type": "Feature", "properties": { "name": "", "cls": "unclassified", "max_depth": 4.8680000305175781, "flooded_km": 1.5118775229608357 }, "geometry": { "type": "LineString", "coordinates": [ [ 70.8636264, 22.7622581 ], [ 70.8625281, 22.7617581 ], [ 70.8623458, 22.761694 ], [ 70.8622423, 22.7616626 ], [ 70.8621897, 22.7616598 ], [ 70.8621063, 22.761664 ], [ 70.8620368, 22.761684 ], [ 70.8612567, 22.762174 ], [ 70.8591439, 22.7635358 ], [ 70.8569007, 22.7650025 ], [ 70.8522829, 22.767939 ], [ 70.8513616, 22.7685383 ] ] } },
{ "type": "Feature", "properties": { "name": "", "cls": "unclassified", "max_depth": 2.5109999179840088, "flooded_km": 0.010455848208335731 }, "geometry": { "type": "LineString", "coordinates": [ [ 70.8493283, 22.7697819 ], [ 70.849264, 22.7697087 ] ] } },
{ "type": "Feature", "properties": { "name": "", "cls": "unclassified", "max_depth": 2.5109999179840088, "flooded_km": 0.0070416031510986245 }, "geometry": { "type": "LineString", "coordinates": [ [ 70.8493716, 22.7698312 ], [ 70.8493283, 22.7697819 ] ] } },
{ "type": "Feature", "properties": { "name": "", "cls": "primary", "max_depth": 7.4219999313354492, "flooded_km": 0.47321099304723069 }, "geometry": { "type": "LineString", "coordinates": [ [ 70.838147, 22.8230254 ], [ 70.8383048, 22.8230487 ], [ 70.8399851, 22.8232677 ], [ 70.8412654, 22.8234256 ], [ 70.8423939, 22.8235576 ], [ 70.843237, 22.8236585 ], [ 70.8432867, 22.8236632 ] ] } },
{ "type": "Feature", "properties": { "name": "", "cls": "tertiary", "max_depth": 11.37600040435791, "flooded_km": 0.27670704373537391 }, "geometry": { "type": "LineString", "coordinates": [ [ 70.8410454, 22.8228748 ], [ 70.8426225, 22.8231814 ], [ 70.8429176, 22.8232358 ], [ 70.8430675, 22.8232891 ], [ 70.8434563, 22.8233502 ], [ 70.8438488, 22.8233232 ], [ 70.8440946, 22.8233412 ], [ 70.8444122, 22.8233667 ], [ 70.8446157, 22.8234162 ], [ 70.8448036, 22.8234729 ], [ 70.8450609, 22.823575 ] ] } },
{ "type": "Feature", "properties": { "name": "", "cls": "residential", "max_depth": 0.46000000834465027, "flooded_km": 0.029873478764894115 }, "geometry": { "type": "LineString", "coordinates": [ [ 70.8381686, 22.7890858 ], [ 70.8381701, 22.7891431 ], [ 70.8382988, 22.7897027 ], [ 70.8382988, 22.7898362 ], [ 70.8384919, 22.7909145 ], [ 70.8385241, 22.7915426 ], [ 70.8386153, 22.7920026 ], [ 70.8386636, 22.7926061 ], [ 70.8388084, 22.7932491 ], [ 70.8389855, 22.7939267 ], [ 70.8389962, 22.7940157 ], [ 70.8390766, 22.7942778 ], [ 70.8391142, 22.7943372 ], [ 70.8393502, 22.794451 ], [ 70.8394629, 22.7945548 ], [ 70.8395112, 22.7946735 ], [ 70.8395541, 22.7948565 ], [ 70.8396185, 22.7964443 ], [ 70.8397257, 22.7989663 ], [ 70.8397311, 22.7992482 ], [ 70.839597, 22.8003658 ], [ 70.8395434, 22.8010927 ], [ 70.8395434, 22.8012856 ], [ 70.8396276, 22.8013602 ], [ 70.8398438, 22.8014336 ] ] } }
]
}
