{
"type": "FeatureCollection",
"name": "roads_cut",
"crs": { "type": "name", "properties": { "name": "urn:ogc:def:crs:OGC:1.3:CRS84" } },
"features": [
{ "type": "Feature", "properties": { "name": "", "cls": "tertiary", "max_depth": 1.840999960899353, "flooded_km": 0.029963803053706252 }, "geometry": { "type": "LineString", "coordinates": [ [ 70.8399295, 22.8177853 ], [ 70.840179, 22.8177721 ], [ 70.8402707, 22.8177883 ], [ 70.8403373, 22.8178957 ], [ 70.8404982, 22.8179896 ], [ 70.8405965, 22.8182751 ], [ 70.8405423, 22.8185336 ], [ 70.8403212, 22.8186423 ], [ 70.8400305, 22.8187997 ], [ 70.8390715, 22.8197135 ], [ 70.8390121, 22.8198614 ], [ 70.8387026, 22.8206314 ], [ 70.8386704, 22.8207434 ], [ 70.8382292, 22.8222758 ] ] } },
{ "type": "Feature", "properties": { "name": "Mayur Bridge", "cls": "primary", "max_depth": 6.2560000419616699, "flooded_km": 0.31053032733712704 }, "geometry": { "type": "LineString", "coordinates": [ [ 70.8431874, 22.8235167 ], [ 70.8381928, 22.8228813 ] ] } },
{ "type": "Feature", "properties": { "name": "", "cls": "secondary", "max_depth": 8.0469999313354492, "flooded_km": 0.25962961156950415 }, "geometry": { "type": "LineString", "coordinates": [ [ 70.8613266, 22.7696686 ], [ 70.8591428, 22.7684876 ] ] } },
{ "type": "Feature", "properties": { "name": "Morbi Bypass", "cls": "primary", "max_depth": 9.2279996871948242, "flooded_km": 0.29924156420979281 }, "geometry": { "type": "LineString", "coordinates": [ [ 70.8257585, 22.8598141 ], [ 70.8233768, 22.8570815 ] ] } },
{ "type": "Feature", "properties": { "name": "", "cls": "residential", "max_depth": 8.5930004119873047, "flooded_km": 0.013850801675237846 }, "geometry": { "type": "LineString", "coordinates": [ [ 70.8404018, 22.811817 ], [ 70.8400923, 22.8118539 ], [ 70.8399079, 22.8118759 ], [ 70.8390712, 22.8120205 ] ] } },
{ "type": "Feature", "properties": { "name": "", "cls": "tertiary", "max_depth": 9.569000244140625, "flooded_km": 0.23979992513661941 }, "geometry": { "type": "LineString", "coordinates": [ [ 70.8399295, 22.8177853 ], [ 70.8399703, 22.8174278 ], [ 70.8403588, 22.8171744 ], [ 70.8406481, 22.8169772 ], [ 70.8409541, 22.816817 ], [ 70.841158, 22.8167867 ], [ 70.8418221, 22.816688 ], [ 70.841939, 22.8166181 ], [ 70.8419086, 22.8162824 ], [ 70.8418938, 22.8161182 ], [ 70.8417862, 22.8157578 ], [ 70.8417444, 22.8154322 ], [ 70.8417294, 22.8153154 ], [ 70.8416144, 22.8150995 ], [ 70.8413726, 22.8144435 ], [ 70.8411378, 22.8138611 ], [ 70.8410638, 22.8137058 ], [ 70.8410597, 22.8136338 ], [ 70.8410721, 22.8134937 ], [ 70.8409858, 22.8133763 ], [ 70.8408913, 22.8132286 ], [ 70.840805, 22.8131226 ], [ 70.84069, 22.8129711 ], [ 70.8405822, 22.8128326 ], [ 70.8405616, 22.8127469 ], [ 70.8404018, 22.811817 ], [ 70.8403786, 22.811667 ], [ 70.8402768, 22.8114986 ], [ 70.8401926, 22.8114581 ], [ 70.8400358, 22.8114638 ], [ 70.8398963, 22.8114689 ], [ 70.8395186, 22.8115278 ], [ 70.8392106, 22.811555 ], [ 70.8388222, 22.8115894 ], [ 70.8386674, 22.8116031 ], [ 70.8384902, 22.8116188 ], [ 70.8378517, 22.8116161 ], [ 70.8377354, 22.81161 ], [ 70.8374336, 22.8115734 ], [ 70.8371848, 22.8111298 ], [ 70.8364342, 22.8106641 ], [ 70.8360874, 22.810524 ], [ 70.8358504, 22.8104308 ], [ 70.8357776, 22.8103926 ], [ 70.8353722, 22.8101951 ], [ 70.8352131, 22.8101177 ], [ 70.8350865, 22.810056 ], [ 70.8349429, 22.8099266 ], [ 70.8348382, 22.8098324 ], [ 70.8347029, 22.8097105 ], [ 70.8345126, 22.8095391 ], [ 70.8340823, 22.8093949 ], [ 70.8337688, 22.8094957 ], [ 70.8331998, 22.8096787 ], [ 70.8327279, 22.8098305 ], [ 70.8322753, 22.809976 ], [ 70.8317974, 22.8101297 ], [ 70.830971, 22.8103954 ], [ 70.8306975, 22.8104834 ], [ 70.8302922, 22.8106138 ], [ 70.8289376, 22.8110718 ], [ 70.8279975, 22.8119817 ] ] } },
{ "type": "Feature", "properties": { "name": "", "cls": "tertiary", "max_depth": 2.0950000286102295, "flooded_km": 0.14953558044890802 }, "geometry": { "type": "LineString", "coordinates": [ [ 70.7790579, 22.9228742 ], [ 70.7789006, 22.9230775 ], [ 70.7785385, 22.9235238 ], [ 70.7782601, 22.9238701 ], [ 70.7781403, 22.9239804 ], [ 70.7779537, 22.9240342 ], [ 70.7775834, 22.9240471 ], [ 70.7773522, 22.9241112 ], [ 70.7770236, 22.9242779 ], [ 70.7763775, 22.9246267 ], [ 70.7759654, 22.9248114 ], [ 70.7755282, 22.9250499 ], [ 70.7751634, 22.9252474 ], [ 70.7748403, 22.9253859 ], [ 70.7746649, 22.9255219 ], [ 70.7744727, 22.9258373 ], [ 70.7741692, 22.926594 ], [ 70.774016, 22.9271121 ], [ 70.7738072, 22.927802 ], [ 70.7736373, 22.9281918 ], [ 70.7735148, 22.9283585 ], [ 70.7732586, 22.9285637 ], [ 70.7730358, 22.9286432 ], [ 70.772515, 22.9287715 ], [ 70.7723284, 22.928833 ], [ 70.7721474, 22.9289305 ], [ 70.7719803, 22.9290895 ], [ 70.7717659, 22.9294511 ], [ 70.7716072, 22.929682 ], [ 70.7713899, 22.9299667 ], [ 70.7709945, 22.9303821 ], [ 70.7708107, 22.9305694 ], [ 70.7705322, 22.9309182 ], [ 70.7703234, 22.9311746 ], [ 70.7702315, 22.9312747 ], [ 70.7699864, 22.9313901 ], [ 70.7695826, 22.9314747 ], [ 70.7690981, 22.931644 ], [ 70.7686302, 22.9319389 ], [ 70.7682348, 22.9323621 ], [ 70.7678477, 22.9328135 ], [ 70.7677251, 22.9331161 ], [ 70.7675525, 22.9335034 ], [ 70.7673102, 22.9338984 ], [ 70.7670763, 22.9342549 ], [ 70.7666307, 22.9350089 ], [ 70.7664302, 22.9353833 ], [ 70.7660459, 22.9359988 ], [ 70.7658593, 22.9362886 ], [ 70.7657786, 22.9364681 ], [ 70.765773, 22.936622 ], [ 70.765851, 22.9368041 ], [ 70.7659819, 22.9370195 ], [ 70.7660292, 22.9371965 ], [ 70.7659791, 22.9374478 ], [ 70.7658927, 22.9377043 ], [ 70.7657646, 22.9380095 ], [ 70.7656895, 22.9383095 ], [ 70.7656477, 22.9387942 ], [ 70.7655836, 22.9390815 ], [ 70.76545, 22.9394918 ], [ 70.765333, 22.9400201 ], [ 70.7652327, 22.9403971 ], [ 70.7651687, 22.9407843 ], [ 70.7650879, 22.9410664 ], [ 70.7649125, 22.9415665 ], [ 70.7647148, 22.9421205 ], [ 70.7645143, 22.942618 ], [ 70.7644001, 22.9429103 ], [ 70.7640938, 22.9436028 ], [ 70.7639573, 22.9439541 ], [ 70.7638487, 22.9443439 ], [ 70.7637457, 22.9447183 ], [ 70.7636649, 22.9449901 ], [ 70.7635368, 22.9453235 ], [ 70.7634143, 22.9455646 ], [ 70.7632333, 22.9459185 ], [ 70.7630717, 22.9460929 ], [ 70.7629325, 22.9462852 ], [ 70.7627125, 22.9466622 ], [ 70.762473, 22.9470545 ], [ 70.7622224, 22.9474905 ], [ 70.7620553, 22.9478033 ], [ 70.7618659, 22.9481162 ], [ 70.7617685, 22.9482572 ], [ 70.7617072, 22.9484906 ], [ 70.761709, 22.9485633 ], [ 70.7617155, 22.9488317 ], [ 70.7616042, 22.9492291 ], [ 70.7615373, 22.9494728 ], [ 70.7614092, 22.9495984 ], [ 70.7611669, 22.9497215 ], [ 70.7607715, 22.9497369 ], [ 70.7602535, 22.94966 ], [ 70.7600669, 22.9496394 ], [ 70.760013, 22.9496445 ] ] } },
{ "type": "Feature", "properties": { "name": "", "cls": "tertiary", "max_depth": 0.91900002956390381, "flooded_km": 0.04497774257058005 }, "geometry": { "type": "LineString", "coordinates": [ [ 70.7790579, 22.9228742 ], [ 70.7791763, 22.9228749 ], [ 70.7796441, 22.9228852 ], [ 70.7799616, 22.9228647 ], [ 70.7802011, 22.9228134 ], [ 70.7805046, 22.9226107 ], [ 70.7806606, 22.9222978 ], [ 70.7808778, 22.9217699 ], [ 70.7810087, 22.9214672 ], [ 70.7811813, 22.9210799 ], [ 70.7814459, 22.9206259 ], [ 70.7818859, 22.9198154 ], [ 70.782273, 22.9191742 ], [ 70.7824456, 22.9187663 ], [ 70.7825125, 22.918338 ], [ 70.7825793, 22.9177788 ], [ 70.7827018, 22.9172068 ], [ 70.7827436, 22.9169401 ], [ 70.7827854, 22.9162937 ], [ 70.7827826, 22.9160859 ], [ 70.7827102, 22.9159474 ], [ 70.782571, 22.9158448 ], [ 70.7822507, 22.9157243 ], [ 70.781975, 22.9156499 ], [ 70.7814793, 22.9153241 ], [ 70.7812705, 22.9151805 ], [ 70.7805436, 22.9149804 ], [ 70.7800535, 22.9148419 ], [ 70.7793573, 22.9146572 ], [ 70.7791763, 22.9145238 ], [ 70.7791791, 22.914411 ], [ 70.7793991, 22.9140006 ], [ 70.7795272, 22.9135901 ], [ 70.779633, 22.913308 ], [ 70.7797778, 22.9129694 ], [ 70.779814, 22.9127001 ], [ 70.7798168, 22.9123794 ], [ 70.7798781, 22.9121563 ], [ 70.7800618, 22.9119357 ], [ 70.7802039, 22.9117766 ], [ 70.7804044, 22.9111738 ], [ 70.7806717, 22.9103992 ], [ 70.7807775, 22.9102094 ], [ 70.7809279, 22.9100734 ], [ 70.7811061, 22.9099836 ], [ 70.7812593, 22.9096348 ], [ 70.7816158, 22.9087831 ], [ 70.7818358, 22.9081701 ], [ 70.7820279, 22.9078725 ], [ 70.7823844, 22.9072979 ], [ 70.7826991, 22.9066976 ], [ 70.782933, 22.9063385 ], [ 70.7831613, 22.9058691 ], [ 70.7833785, 22.9052919 ], [ 70.7836431, 22.9044659 ], [ 70.7838325, 22.9038272 ], [ 70.7838659, 22.9036373 ], [ 70.7839606, 22.9034142 ], [ 70.7842279, 22.9029114 ], [ 70.7844535, 22.9022624 ], [ 70.784576, 22.9019237 ], [ 70.7846958, 22.9016852 ], [ 70.7848099, 22.9015672 ], [ 70.7850856, 22.9015056 ], [ 70.7854866, 22.9014363 ], [ 70.7856649, 22.9013825 ], [ 70.7859879, 22.9011285 ], [ 70.7867537, 22.9004025 ], [ 70.7873051, 22.89991 ], [ 70.7874471, 22.8997638 ], [ 70.7875307, 22.8995765 ], [ 70.7875892, 22.8992096 ], [ 70.7876532, 22.8989557 ], [ 70.7878175, 22.8988094 ], [ 70.7879456, 22.8987248 ], [ 70.7882492, 22.8985632 ], [ 70.7885917, 22.8982964 ], [ 70.7887476, 22.8980911 ], [ 70.7889314, 22.8977987 ], [ 70.7891932, 22.8974216 ], [ 70.789352, 22.8970778 ], [ 70.7895163, 22.8968572 ], [ 70.7897251, 22.8966417 ], [ 70.7899563, 22.8962774 ], [ 70.7901902, 22.8958439 ], [ 70.7902932, 22.8956002 ], [ 70.7905466, 22.8950229 ], [ 70.7907694, 22.8945971 ], [ 70.7909783, 22.8942508 ], [ 70.7913292, 22.8936761 ], [ 70.7917608, 22.8930322 ], [ 70.7921869, 22.8924498 ], [ 70.7927216, 22.8917571 ], [ 70.7930474, 22.8913544 ], [ 70.7933676, 22.8909259 ], [ 70.7935097, 22.8905744 ], [ 70.7936294, 22.8901434 ], [ 70.7936461, 22.8895226 ], [ 70.7936684, 22.8892276 ], [ 70.7937436, 22.8890249 ], [ 70.7938912, 22.8888427 ], [ 70.7940945, 22.8885477 ], [ 70.7942309, 22.8883604 ], [ 70.7944036, 22.8882039 ], [ 70.7945233, 22.8880115 ], [ 70.7945289, 22.8879268 ], [ 70.7944871, 22.8878242 ], [ 70.7943284, 22.8876549 ], [ 70.7942616, 22.887406 ], [ 70.7941641, 22.8868955 ], [ 70.7941112, 22.8865132 ], [ 70.7941251, 22.8859257 ], [ 70.7941892, 22.8852715 ], [ 70.7942588, 22.8848584 ], [ 70.7943256, 22.8844222 ], [ 70.7944092, 22.8839835 ], [ 70.7944593, 22.8836962 ], [ 70.7945456, 22.8835037 ], [ 70.7947183, 22.8831959 ], [ 70.79498, 22.8828598 ], [ 70.7953114, 22.8826417 ], [ 70.7955843, 22.8824595 ], [ 70.7958684, 22.8820849 ], [ 70.7962638, 22.881441 ], [ 70.7965173, 22.881151 ], [ 70.7965729, 22.8810074 ], [ 70.7965897, 22.880779 ], [ 70.7965284, 22.880602 ], [ 70.7963724, 22.8803506 ], [ 70.7961831, 22.8798759 ], [ 70.7961135, 22.8796322 ], [ 70.7959102, 22.8790343 ], [ 70.7958266, 22.8785571 ], [ 70.7957793, 22.8782646 ], [ 70.7956735, 22.8776232 ], [ 70.7955231, 22.8768663 ], [ 70.7954033, 22.8762428 ], [ 70.795253, 22.8756937 ], [ 70.7949438, 22.8748085 ], [ 70.7948519, 22.8745289 ], [ 70.79454, 22.8739105 ], [ 70.7943089, 22.8733435 ], [ 70.7941223, 22.8728457 ], [ 70.7937965, 22.8719143 ], [ 70.7935514, 22.8711856 ], [ 70.7933203, 22.870657 ], [ 70.7929388, 22.8698103 ], [ 70.7926993, 22.8693741 ], [ 70.7925962, 22.8690687 ], [ 70.792535, 22.8686838 ], [ 70.7925433, 22.8682117 ], [ 70.7926631, 22.8673136 ], [ 70.7927216, 22.8667671 ], [ 70.792755, 22.8662488 ], [ 70.7927299, 22.8654328 ], [ 70.7927606, 22.864545 ], [ 70.7927466, 22.8637675 ], [ 70.7926575, 22.8628796 ], [ 70.7925155, 22.8618686 ], [ 70.7924152, 22.8613528 ], [ 70.7921952, 22.8606292 ], [ 70.7918444, 22.8594411 ], [ 70.791474, 22.8582505 ], [ 70.7912818, 22.8575833 ], [ 70.7913125, 22.85736 ], [ 70.7914795, 22.85668 ], [ 70.7917023, 22.8558332 ], [ 70.791758, 22.8555611 ], [ 70.791758, 22.8554405 ], [ 70.7916912, 22.8551634 ], [ 70.7913236, 22.8545988 ], [ 70.7910813, 22.85416 ], [ 70.7908975, 22.853657 ], [ 70.7907499, 22.8530129 ], [ 70.7906692, 22.8526254 ], [ 70.7905299, 22.8521045 ], [ 70.7904213, 22.8515065 ], [ 70.7903601, 22.8513115 ], [ 70.7900259, 22.8506546 ], [ 70.7895246, 22.8496819 ], [ 70.7891932, 22.8489942 ], [ 70.7887214, 22.8481268 ] ] } },
{ "type": "Feature", "properties": { "name": "", "cls": "tertiary", "max_depth": 3.9179999828338623, "flooded_km": 0.1195932011436172 }, "geometry": { "type": "LineString", "coordinates": [ [ 70.8079547, 22.8949385 ], [ 70.8077983, 22.8948153 ], [ 70.80757, 22.8945639 ], [ 70.8073917, 22.894369 ], [ 70.807013, 22.894174 ], [ 70.8064477, 22.8939303 ], [ 70.8059019, 22.893684 ], [ 70.8057153, 22.8935557 ], [ 70.80537, 22.8932684 ], [ 70.8048242, 22.8926681 ], [ 70.8044538, 22.8922422 ], [ 70.8042421, 22.8920113 ], [ 70.8040277, 22.8918805 ], [ 70.8039859, 22.8917932 ], [ 70.8039748, 22.8916444 ], [ 70.8041085, 22.8912827 ], [ 70.8043897, 22.8906413 ], [ 70.8046014, 22.8899948 ], [ 70.8046849, 22.8896998 ], [ 70.8048158, 22.8893483 ], [ 70.8050553, 22.8888891 ], [ 70.8053282, 22.888299 ], [ 70.8056011, 22.8876884 ], [ 70.8058267, 22.8873369 ], [ 70.8060244, 22.8869701 ], [ 70.8062555, 22.8864852 ], [ 70.8064505, 22.8860413 ], [ 70.8066148, 22.8858053 ], [ 70.8068376, 22.8855025 ], [ 70.8072692, 22.884915 ], [ 70.8075393, 22.8844943 ], [ 70.8078039, 22.8841376 ], [ 70.8081102, 22.8837682 ], [ 70.8084667, 22.8833218 ], [ 70.8086811, 22.8830396 ], [ 70.8090014, 22.8827086 ], [ 70.8094386, 22.8822699 ], [ 70.8096948, 22.8820082 ], [ 70.8099315, 22.8816079 ], [ 70.8101459, 22.8812975 ], [ 70.8105441, 22.8808639 ], [ 70.8108421, 22.8804739 ], [ 70.8113489, 22.8796862 ], [ 70.8118307, 22.8790345 ], [ 70.8120869, 22.8786959 ], [ 70.8124517, 22.8783546 ], [ 70.8127219, 22.8779826 ], [ 70.8129948, 22.8775849 ], [ 70.8133401, 22.8770538 ], [ 70.8135406, 22.8767279 ], [ 70.8138358, 22.8762841 ], [ 70.8141254, 22.8757735 ], [ 70.814273, 22.875522 ], [ 70.8144791, 22.8752911 ], [ 70.8147353, 22.8750525 ], [ 70.8149107, 22.8748062 ], [ 70.8151307, 22.8745265 ], [ 70.815295, 22.8743418 ], [ 70.8156069, 22.873844 ], [ 70.8159494, 22.8734078 ] ] } },
{ "type": "Feature", "properties": { "name": "", "cls": "secondary", "max_depth": 5.5920000076293945, "flooded_km": 0.044935706036185311 }, "geometry": { "type": "LineString", "coordinates": [ [ 70.810414, 22.8047764 ], [ 70.8105248, 22.8047314 ], [ 70.8106499, 22.8046743 ], [ 70.8116421, 22.8042583 ], [ 70.812573, 22.8038748 ], [ 70.8134797, 22.8035013 ], [ 70.8142555, 22.8030513 ], [ 70.8144379, 22.8029454 ], [ 70.814675, 22.8028079 ], [ 70.8149475, 22.8026431 ], [ 70.8158219, 22.8021142 ], [ 70.8162239, 22.801871 ], [ 70.8165146, 22.8017273 ], [ 70.8199847, 22.7995971 ], [ 70.8201563, 22.7994918 ], [ 70.8203092, 22.7993954 ], [ 70.8204648, 22.7993262 ], [ 70.8206914, 22.7992693 ], [ 70.8209087, 22.7992396 ], [ 70.8211796, 22.7992248 ], [ 70.8215202, 22.7992056 ], [ 70.8216422, 22.7991987 ], [ 70.8219051, 22.7991839 ], [ 70.8223718, 22.7991575 ], [ 70.8231657, 22.7991127 ], [ 70.8249007, 22.7990148 ], [ 70.8259354, 22.7989482 ], [ 70.8263849, 22.7989442 ], [ 70.8265675, 22.7988899 ], [ 70.8267935, 22.7987871 ], [ 70.8271783, 22.798475 ], [ 70.8272625, 22.7984067 ], [ 70.8284335, 22.7974389 ], [ 70.8285259, 22.7973625 ], [ 70.8299142, 22.796215 ], [ 70.8299954, 22.7961479 ], [ 70.8301771, 22.7959978 ], [ 70.8316113, 22.7948132 ], [ 70.8317809, 22.7946731 ], [ 70.8333939, 22.7933407 ], [ 70.836969, 22.7902293 ], [ 70.8381701, 22.7891431 ], [ 70.8388929, 22.7884894 ], [ 70.8393502, 22.7880566 ], [ 70.8395648, 22.7877797 ], [ 70.8396855, 22.7875485 ], [ 70.8410448, 22.7846091 ], [ 70.8423995, 22.7816713 ], [ 70.8427778, 22.7808046 ], [ 70.8429699, 22.7803646 ], [ 70.8433949, 22.7798303 ], [ 70.8436713, 22.7794929 ], [ 70.8438779, 22.7792167 ], [ 70.8443667, 22.7781577 ], [ 70.8452679, 22.7763494 ], [ 70.8461515, 22.774674 ], [ 70.8468375, 22.7733734 ], [ 70.8476621, 22.7717604 ], [ 70.8482481, 22.770677 ], [ 70.8486857, 22.7702806 ], [ 70.8487576, 22.7702154 ], [ 70.8491905, 22.7698977 ], [ 70.8492737, 22.7698497 ], [ 70.8493716, 22.7698312 ], [ 70.8494501, 22.7698602 ], [ 70.8495439, 22.7699656 ], [ 70.8501796, 22.7706776 ], [ 70.850426, 22.7708594 ], [ 70.850535, 22.7709398 ], [ 70.8506933, 22.7710016 ], [ 70.8509065, 22.7710659 ], [ 70.8511161, 22.7711197 ], [ 70.8515047, 22.7712069 ], [ 70.8517326, 22.771213 ], [ 70.8521081, 22.7712439 ], [ 70.8525239, 22.7713132 ], [ 70.852783, 22.7713125 ], [ 70.8531363, 22.7712772 ], [ 70.8538166, 22.7712174 ], [ 70.8540869, 22.7710987 ], [ 70.8543438, 22.7708617 ], [ 70.8548856, 22.7700661 ], [ 70.8550706, 22.7698577 ], [ 70.8552184, 22.769724 ], [ 70.8553509, 22.7696537 ], [ 70.8554911, 22.7696067 ], [ 70.8561328, 22.7696117 ], [ 70.856473, 22.7695909 ], [ 70.8567586, 22.769504 ], [ 70.857115, 22.7693139 ], [ 70.8574006, 22.7691103 ], [ 70.8579756, 22.7683098 ], [ 70.858154, 22.7680482 ], [ 70.8583022, 22.7680378 ], [ 70.8583994, 22.7680823 ], [ 70.8591428, 22.7684876 ] ] } },
{ "type": "Feature", "properties": { "name": "Zulta pul (Hanging Bridge)", "cls": "construction", "max_depth": 9.7390003204345703, "flooded_km": 0.20490101948851067 }, "geometry": { "type": "LineString", "coordinates": [ [ 70.8417087, 22.8183105 ], [ 70.8439896, 22.8182938 ] ] } },
{ "type": "Feature", "properties": { "name": "", "cls": "secondary", "max_depth": 2.0439999103546143, "flooded_km": 0.014925534630057132 }, "geometry": { "type": "LineString", "coordinates": [ [ 70.8803888, 22.7658922 ], [ 70.8802534, 22.7659953 ], [ 70.8795398, 22.7665387 ], [ 70.8793006, 22.7667687 ], [ 70.8791728, 22.7668916 ], [ 70.8783836, 22.7672007 ], [ 70.8775361, 22.7675291 ], [ 70.8772668, 22.7676634 ], [ 70.877022, 22.7677998 ], [ 70.8768153, 22.7678288 ], [ 70.8765666, 22.7678229 ], [ 70.876297, 22.7678109 ], [ 70.8762602, 22.7678092 ], [ 70.8755608, 22.7677762 ], [ 70.8750042, 22.7677409 ], [ 70.8747244, 22.7676974 ], [ 70.8743121, 22.7675562 ], [ 70.8728014, 22.7671543 ], [ 70.8716205, 22.766804 ], [ 70.8713477, 22.7667558 ], [ 70.8710765, 22.7667843 ], [ 70.8706221, 22.7668797 ], [ 70.8692286, 22.7672367 ], [ 70.8688577, 22.7672953 ], [ 70.8686714, 22.7673037 ], [ 70.8684561, 22.7672654 ], [ 70.8681892, 22.7671729 ], [ 70.8680545, 22.7670941 ], [ 70.8676999, 22.7668667 ], [ 70.8674234, 22.7667868 ], [ 70.8672378, 22.7667545 ], [ 70.8669345, 22.7667505 ], [ 70.8660688, 22.7668962 ], [ 70.8651449, 22.7672754 ], [ 70.8649262, 22.7673289 ], [ 70.8647817, 22.7673405 ], [ 70.864426, 22.7673526 ], [ 70.8642044, 22.7673313 ], [ 70.8640534, 22.7673347 ], [ 70.8638496, 22.7673759 ], [ 70.8636485, 22.767472 ], [ 70.8634689, 22.7676133 ], [ 70.86293, 22.7682867 ], [ 70.8619029, 22.7695542 ], [ 70.8618011, 22.7696534 ], [ 70.8616694, 22.7696995 ], [ 70.8615046, 22.7697026 ], [ 70.8613266, 22.7696686 ] ] } },
{ "type": "Feature", "properties": { "name": "", "cls": "residential", "max_depth": 3.1760001182556152, "flooded_km": 0.01498474480857752 }, "geometry": { "type": "LineString", "coordinates": [ [ 70.8399187, 22.8154618 ], [ 70.8405143, 22.8154124 ], [ 70.8406484, 22.8153926 ], [ 70.8409273, 22.8153185 ], [ 70.841335, 22.8151702 ], [ 70.8416144, 22.8150995 ] ] } },
{ "type": "Feature", "properties": { "name": "", "cls": "tertiary", "max_depth": 2.4579999446868896, "flooded_km": 0.089697729376114643 }, "geometry": { "type": "LineString", "coordinates": [ [ 70.8154121, 22.8478219 ], [ 70.8153378, 22.8479272 ], [ 70.8142018, 22.8495362 ], [ 70.8137405, 22.850075 ], [ 70.8131933, 22.8505743 ], [ 70.8126676, 22.8510884 ], [ 70.8123297, 22.8514789 ], [ 70.8119273, 22.8520869 ], [ 70.8113373, 22.8529124 ], [ 70.8110261, 22.8534216 ], [ 70.8105862, 22.8540741 ], [ 70.810082, 22.854865 ], [ 70.8093685, 22.8560761 ], [ 70.8091915, 22.8564221 ], [ 70.8087945, 22.8572822 ], [ 70.808537, 22.8577469 ], [ 70.8083976, 22.8578853 ], [ 70.8078397, 22.8583301 ], [ 70.8076734, 22.858518 ], [ 70.8072764, 22.8591112 ], [ 70.8063216, 22.8607078 ], [ 70.804841, 22.8627147 ], [ 70.8037627, 22.8642372 ], [ 70.8029581, 22.8652605 ], [ 70.8027703, 22.8655324 ], [ 70.8026791, 22.8657251 ], [ 70.802486, 22.8662887 ], [ 70.8023144, 22.8666841 ], [ 70.8019603, 22.8672822 ], [ 70.8017136, 22.8677963 ], [ 70.801043, 22.8688393 ], [ 70.8007962, 22.8692546 ], [ 70.800748, 22.8694572 ], [ 70.8008767, 22.8698181 ], [ 70.8010859, 22.8703174 ], [ 70.8010698, 22.8704459 ], [ 70.801043, 22.8705151 ], [ 70.8006621, 22.8708512 ], [ 70.8001096, 22.8717212 ], [ 70.7999379, 22.8721068 ], [ 70.7998414, 22.8721958 ], [ 70.7997073, 22.8722699 ], [ 70.7995678, 22.8722946 ], [ 70.7983769, 22.8722897 ], [ 70.7981999, 22.8723193 ], [ 70.7980175, 22.8724034 ], [ 70.7979102, 22.8724874 ], [ 70.7977117, 22.8727247 ], [ 70.7976098, 22.8727939 ], [ 70.7972182, 22.8728977 ], [ 70.7969285, 22.8729323 ], [ 70.7968641, 22.8729026 ] ] } },
{ "type": "Feature", "properties": { "name": "", "cls": "residential", "max_depth": 1.0779999494552612, "flooded_km": 0.029774572387890053 }, "geometry": { "type": "LineString", "coordinates": [ [ 70.8333421, 22.8448554 ], [ 70.8339161, 22.8449049 ], [ 70.8342004, 22.8450185 ], [ 70.8347377, 22.8451372 ], [ 70.8357238, 22.8452508 ], [ 70.8358526, 22.8453892 ], [ 70.8358419, 22.8454387 ], [ 70.835638, 22.8461356 ], [ 70.8353215, 22.8466249 ], [ 70.8352089, 22.8467089 ], [ 70.8350372, 22.8470104 ], [ 70.8350211, 22.8474058 ], [ 70.8349943, 22.8475837 ], [ 70.8349192, 22.847994 ], [ 70.8348763, 22.8482757 ], [ 70.8348226, 22.8483795 ] ] } },
{ "type": "Feature", "properties": { "name": "", "cls": "residential", "max_depth": 2.9049999713897705, "flooded_km": 0.17212416995827895 }, "geometry": { "type": "LineString", "coordinates": [ [ 70.8454917, 22.8184553 ], [ 70.8454871, 22.8182151 ], [ 70.8445591, 22.8180687 ], [ 70.8445027, 22.817955 ], [ 70.8445376, 22.8177424 ], [ 70.8446771, 22.8165779 ], [ 70.8447415, 22.8165038 ] ] } },
{ "type": "Feature", "properties": { "name": "", "cls": "tertiary", "max_depth": 10.310999870300293, "flooded_km": 0.25971037989782947 }, "geometry": { "type": "LineString", "coordinates": [ [ 70.8385402, 22.8225485 ], [ 70.8410454, 22.8228748 ] ] } },
{ "type": "Feature", "properties": { "name": "", "cls": "tertiary", "max_depth": 7.4200000762939453, "flooded_km": 0.044825130006146262 }, "geometry": { "type": "LineString", "coordinates": [ [ 70.8353026, 22.8208931 ], [ 70.8360565, 22.8213396 ], [ 70.8365661, 22.821347 ], [ 70.8366868, 22.8213791 ], [ 70.837191, 22.8216288 ], [ 70.8373091, 22.8216412 ], [ 70.8377624, 22.8217104 ], [ 70.8378375, 22.8217658 ], [ 70.8378576, 22.8218076 ], [ 70.838044, 22.8221949 ], [ 70.8381218, 22.822321 ], [ 70.8383471, 22.8224817 ], [ 70.8385402, 22.8225485 ] ] } },
{ "type": "Feature", "properties": { "name": "", "cls": "tertiary", "max_depth": 1.840999960899353, "flooded_km": 0.012654691900196592 }, "geometry": { "type": "LineString", "coordinates": [ [ 70.8382292, 22.8222758 ], [ 70.8381338, 22.822607 ] ] } },
{ "type": "Feature", "properties": { "name": "", "cls": "tertiary", "max_depth": 1.2430000305175781, "flooded_km": 0.028976788497528792 }, "geometry": { "type": "LineString", "coordinates": [ [ 70.8446458, 22.8240375 ], [ 70.8443975, 22.8239685 ], [ 70.8438455, 22.8238905 ], [ 70.843243, 22.823838 ], [ 70.8430053, 22.8237809 ], [ 70.8429255, 22.8237029 ], [ 70.842939, 22.8235621 ], [ 70.8430199, 22.8233937 ], [ 70.8430675, 22.8232891 ] ] } },
{ "type": "Feature", "properties": { "name": "", "cls": "pedestrian", "max_depth": 4.429999828338623, "flooded_km": 0.050765101827871535 }, "geometry": { "type": "LineString", "coordinates": [ [ 70.8439896, 22.8182938 ], [ 70.8446076, 22.8182835 ] ] } },
{ "type": "Feature", "properties": { "name": "", "cls": "service", "max_depth": 1.1319999694824219, "flooded_km": 0.01437752399941348 }, "geometry": { "type": "LineString", "coordinates": [ [ 70.761709, 22.9485633 ], [ 70.7618215, 22.9485738 ], [ 70.7619298, 22.9485981 ], [ 70.7620434, 22.9486175 ], [ 70.7621538, 22.9486458 ], [ 70.7622, 22.9486681 ], [ 70.7623427, 22.9487701 ], [ 70.7624801, 22.9488751 ], [ 70.7626335, 22.9489613 ], [ 70.7627869, 22.9490139 ], [ 70.7632104, 22.9491883 ], [ 70.7633088, 22.9492331 ], [ 70.7634035, 22.9492846 ], [ 70.7634843, 22.9493359 ], [ 70.7635613, 22.9493919 ], [ 70.7636341, 22.9494525 ], [ 70.7638273, 22.949581 ], [ 70.7639238, 22.9496254 ], [ 70.7639989, 22.9496526 ], [ 70.7641247, 22.9496764 ], [ 70.7642511, 22.9496971 ], [ 70.7644303, 22.9497211 ], [ 70.7646105, 22.9497391 ], [ 70.7647446, 22.9497465 ] ] } },
{ "type": "Feature", "properties": { "name": "Morbi Bypass", "cls": "primary", "max_depth": 9.2279996871948242, "flooded_km": 0.29674994667448606 }, "geometry": { "type": "LineString", "coordinates": [ [ 70.8233069, 22.8571532 ], [ 70.8238192, 22.8577488 ], [ 70.824935, 22.8590019 ], [ 70.8256699, 22.859862 ] ] } },
{ "type": "Feature", "properties": { "name": "", "cls": "primary", "max_depth": 3.6630001068115234, "flooded_km": 0.20702980945816346 }, "geometry": { "type": "LineString", "coordinates": [ [ 70.838147, 22.8230254 ], [ 70.8383048, 22.8230487 ], [ 70.8399851, 22.8232677 ], [ 70.8412654, 22.8234256 ], [ 70.8423939, 22.8235576 ], [ 70.843237, 22.8236585 ], [ 70.8432867, 22.8236632 ] ] } },
{ "type": "Feature", "properties": { "name": "", "cls": "tertiary", "max_depth": 8.4280004501342773, "flooded_km": 0.21845292926476889 }, "geometry": { "type": "LineString", "coordinates": [ [ 70.8410454, 22.8228748 ], [ 70.8426225, 22.8231814 ], [ 70.8429176, 22.8232358 ], [ 70.8430675, 22.8232891 ], [ 70.8434563, 22.8233502 ], [ 70.8438488, 22.8233232 ], [ 70.8440946, 22.8233412 ], [ 70.8444122, 22.8233667 ], [ 70.8446157, 22.8234162 ], [ 70.8448036, 22.8234729 ], [ 70.8450609, 22.823575 ] ] } }
]
}
