{
"type": "FeatureCollection",
"name": "facilities",
"crs": { "type": "name", "properties": { "name": "urn:ogc:def:crs:OGC:1.3:CRS84" } },
"features": [
{ "type": "Feature", "properties": { "name": "City police line &  A divison police station", "type": "Police" }, "geometry": { "type": "Point", "coordinates": [ 70.8358361, 22.8132593 ] } },
{ "type": "Feature", "properties": { "name": "Civil Hospital, Rajkot", "type": "Hospital" }, "geometry": { "type": "Point", "coordinates": [ 70.8316013, 22.8159425 ] } },
{ "type": "Feature", "properties": { "name": "Drashti Hospital, Rajkot", "type": "Hospital" }, "geometry": { "type": "Point", "coordinates": [ 70.8299873, 22.8139881 ] } },
{ "type": "Feature", "properties": { "name": "Devshree Hospital", "type": "Hospital" }, "geometry": { "type": "Point", "coordinates": [ 70.8284839, 22.8119972 ] } },
{ "type": "Feature", "properties": { "name": "Dr. R. G. Rupala Ortho Hospital - Morbi", "type": "Hospital" }, "geometry": { "type": "Point", "coordinates": [ 70.8290331, 22.8136371 ] } },
{ "type": "Feature", "properties": { "name": "Parth Hospital, Morbi", "type": "Hospital" }, "geometry": { "type": "Point", "coordinates": [ 70.8290063, 22.815123 ] } },
{ "type": "Feature", "properties": { "name": "Jivandeep Hospital, Rajkot", "type": "Hospital" }, "geometry": { "type": "Point", "coordinates": [ 70.8287877, 22.8176756 ] } },
{ "type": "Feature", "properties": { "name": "Killol Children Hospital", "type": "Hospital" }, "geometry": { "type": "Point", "coordinates": [ 70.827666, 22.812318 ] } },
{ "type": "Feature", "properties": { "name": "Shree Raj Rajeshwari Clinic", "type": "Clinic" }, "geometry": { "type": "Point", "coordinates": [ 70.8297303, 22.8190854 ] } },
{ "type": "Feature", "properties": { "name": "Dr. Bheela Hospital", "type": "Hospital" }, "geometry": { "type": "Point", "coordinates": [ 70.8298044, 22.8157736 ] } },
{ "type": "Feature", "properties": { "name": "Radhe Krishna Hospital", "type": "Hospital" }, "geometry": { "type": "Point", "coordinates": [ 70.829592, 22.815488 ] } },
{ "type": "Feature", "properties": { "name": "Janki Hospital", "type": "Hospital" }, "geometry": { "type": "Point", "coordinates": [ 70.825737, 22.8108008 ] } },
{ "type": "Feature", "properties": { "name": "Shubh Hospital & Heart Care", "type": "Hospital" }, "geometry": { "type": "Point", "coordinates": [ 70.82879, 22.817944 ] } },
{ "type": "Feature", "properties": { "name": "Dr. Aervadia Clinic", "type": "Clinic" }, "geometry": { "type": "Point", "coordinates": [ 70.8292049, 22.819705 ] } },
{ "type": "Feature", "properties": { "name": "Madhav Hospital - Cardiac & Critical Care", "type": "Hospital" }, "geometry": { "type": "Point", "coordinates": [ 70.8291364, 22.8155229 ] } },
{ "type": "Feature", "properties": { "name": "Dr. Ketan Hindocha", "type": "Hospital" }, "geometry": { "type": "Point", "coordinates": [ 70.8313419, 22.8176692 ] } },
{ "type": "Feature", "properties": { "name": "Dhaval Clinic", "type": "Clinic" }, "geometry": { "type": "Point", "coordinates": [ 70.829951, 22.809183 ] } },
{ "type": "Feature", "properties": { "name": "Samarpan Multispeciality Hospital", "type": "Hospital" }, "geometry": { "type": "Point", "coordinates": [ 70.8538695, 22.8364483 ] } },
{ "type": "Feature", "properties": { "name": "Dr. Hemal Patel Orthopaedic Hospital", "type": "Hospital" }, "geometry": { "type": "Point", "coordinates": [ 70.828811, 22.8179044 ] } },
{ "type": "Feature", "properties": { "name": "Aditya Hospital", "type": "Hospital" }, "geometry": { "type": "Point", "coordinates": [ 70.84941, 22.826899 ] } },
{ "type": "Feature", "properties": { "name": "Devam Hospital", "type": "Hospital" }, "geometry": { "type": "Point", "coordinates": [ 70.8258, 22.79848 ] } },
{ "type": "Feature", "properties": { "name": "Anuj Hospital", "type": "Hospital" }, "geometry": { "type": "Point", "coordinates": [ 70.827563, 22.81229 ] } },
{ "type": "Feature", "properties": { "name": "Ravi General Hospital", "type": "Hospital" }, "geometry": { "type": "Point", "coordinates": [ 70.849542, 22.827579 ] } },
{ "type": "Feature", "properties": { "name": "Shree Hari Clinic", "type": "Clinic" }, "geometry": { "type": "Point", "coordinates": [ 70.881248, 22.887005 ] } },
{ "type": "Feature", "properties": { "name": "Chirag Surgical Hospital", "type": "Hospital" }, "geometry": { "type": "Point", "coordinates": [ 70.825443, 22.81074 ] } },
{ "type": "Feature", "properties": { "name": "Aashirvad Children's Hospital", "type": "Hospital" }, "geometry": { "type": "Point", "coordinates": [ 70.829284, 22.814378 ] } },
{ "type": "Feature", "properties": { "name": "Shyam Hospital", "type": "Hospital" }, "geometry": { "type": "Point", "coordinates": [ 70.8301971, 22.8144634 ] } },
{ "type": "Feature", "properties": { "name": "Masoom Children & Gynec Hospital", "type": "Hospital" }, "geometry": { "type": "Point", "coordinates": [ 70.8265458, 22.8119512 ] } },
{ "type": "Feature", "properties": { "name": "Janani Gynec Hospital", "type": "Hospital" }, "geometry": { "type": "Point", "coordinates": [ 70.8290716, 22.8135946 ] } },
{ "type": "Feature", "properties": { "name": "Dr. Pethapara Hospital", "type": "Hospital" }, "geometry": { "type": "Point", "coordinates": [ 70.8295015, 22.8168772 ] } },
{ "type": "Feature", "properties": { "name": "Om Orthopaedic Hospital", "type": "Hospital" }, "geometry": { "type": "Point", "coordinates": [ 70.82957, 22.81458 ] } },
{ "type": "Feature", "properties": { "name": "Sanjeevani Hospital", "type": "Hospital" }, "geometry": { "type": "Point", "coordinates": [ 70.8275983, 22.8118784 ] } },
{ "type": "Feature", "properties": { "name": "Manglam Hospital, Morbi", "type": "Hospital" }, "geometry": { "type": "Point", "coordinates": [ 70.829756, 22.815682 ] } },
{ "type": "Feature", "properties": { "name": "Shubham Hospital", "type": "Hospital" }, "geometry": { "type": "Point", "coordinates": [ 70.8297957, 22.8165899 ] } },
{ "type": "Feature", "properties": { "name": "Manasvi Clinic", "type": "Clinic" }, "geometry": { "type": "Point", "coordinates": [ 70.8518041, 22.8234254 ] } },
{ "type": "Feature", "properties": { "name": "Shree Ram Clinic", "type": "Clinic" }, "geometry": { "type": "Point", "coordinates": [ 70.951211, 22.857203 ] } },
{ "type": "Feature", "properties": { "name": "Dr. J. H. Tolia Clinic", "type": "Clinic" }, "geometry": { "type": "Point", "coordinates": [ 70.8296662, 22.8135921 ] } },
{ "type": "Feature", "properties": { "name": "Sparsh Children's Hospital", "type": "Hospital" }, "geometry": { "type": "Point", "coordinates": [ 70.8283457, 22.8124982 ] } },
{ "type": "Feature", "properties": { "name": "Umiya Clinic", "type": "Clinic" }, "geometry": { "type": "Point", "coordinates": [ 70.891295, 22.907886 ] } },
{ "type": "Feature", "properties": { "name": "Maheshwari Child Care Hospital", "type": "Hospital" }, "geometry": { "type": "Point", "coordinates": [ 70.8314498, 22.8133692 ] } },
{ "type": "Feature", "properties": { "name": "Radhe ENT Hospital & Laser Centre", "type": "Hospital" }, "geometry": { "type": "Point", "coordinates": [ 70.827618, 22.811283 ] } },
{ "type": "Feature", "properties": { "name": "Bhadesia Hospital", "type": "Hospital" }, "geometry": { "type": "Point", "coordinates": [ 70.8248889, 22.8097508 ] } },
{ "type": "Feature", "properties": { "name": "Dr. D.S.Patel Clinic", "type": "Clinic" }, "geometry": { "type": "Point", "coordinates": [ 70.8510061, 22.825977 ] } },
{ "type": "Feature", "properties": { "name": "Sadbhavna Hospital", "type": "Hospital" }, "geometry": { "type": "Point", "coordinates": [ 70.833747, 22.815037 ] } },
{ "type": "Feature", "properties": { "name": "Kalrav Hospital", "type": "Hospital" }, "geometry": { "type": "Point", "coordinates": [ 70.827019, 22.81135 ] } },
{ "type": "Feature", "properties": { "name": "Aastha Orthopaedic & Eye Hospital", "type": "Hospital" }, "geometry": { "type": "Point", "coordinates": [ 70.826098, 22.811485 ] } },
{ "type": "Feature", "properties": { "name": "Mayur Hospital", "type": "Hospital" }, "geometry": { "type": "Point", "coordinates": [ 70.84833, 22.818238 ] } },
{ "type": "Feature", "properties": { "name": "Aary Hospital", "type": "Hospital" }, "geometry": { "type": "Point", "coordinates": [ 70.8258273, 22.8121676 ] } },
{ "type": "Feature", "properties": { "name": "Pooja Children's Hospital", "type": "Hospital" }, "geometry": { "type": "Point", "coordinates": [ 70.825621, 22.810906 ] } },
{ "type": "Feature", "properties": { "name": "Sagar Children Hospital", "type": "Hospital" }, "geometry": { "type": "Point", "coordinates": [ 70.828398, 22.811778 ] } },
{ "type": "Feature", "properties": { "name": "Naklank Hospital", "type": "Hospital" }, "geometry": { "type": "Point", "coordinates": [ 70.828012, 22.812213 ] } },
{ "type": "Feature", "properties": { "name": "Amrutam Hospital", "type": "Hospital" }, "geometry": { "type": "Point", "coordinates": [ 70.829152, 22.814852 ] } },
{ "type": "Feature", "properties": { "name": "Apple Hospital", "type": "Hospital" }, "geometry": { "type": "Point", "coordinates": [ 70.826516, 22.811848 ] } },
{ "type": "Feature", "properties": { "name": "Kagathara Surgical Hospital", "type": "Hospital" }, "geometry": { "type": "Point", "coordinates": [ 70.8297917, 22.8148621 ] } },
{ "type": "Feature", "properties": { "name": "Khushbu Hospital", "type": "Hospital" }, "geometry": { "type": "Point", "coordinates": [ 70.826527, 22.809938 ] } },
{ "type": "Feature", "properties": { "name": "Sanjivani Medical and Nursing Home", "type": "Hospital" }, "geometry": { "type": "Point", "coordinates": [ 70.8265084, 22.8099704 ] } },
{ "type": "Feature", "properties": { "name": "Gokul Hospital", "type": "Hospital" }, "geometry": { "type": "Point", "coordinates": [ 70.8295314, 22.8144335 ] } },
{ "type": "Feature", "properties": { "name": "Vedant Hospital", "type": "Hospital" }, "geometry": { "type": "Point", "coordinates": [ 70.8275261, 22.8113557 ] } },
{ "type": "Feature", "properties": { "name": "Anurag Clinic", "type": "Clinic" }, "geometry": { "type": "Point", "coordinates": [ 70.8296621, 22.8193578 ] } },
{ "type": "Feature", "properties": { "name": "Krishna Multispeciality Hospital", "type": "Hospital" }, "geometry": { "type": "Point", "coordinates": [ 70.82718, 22.81183 ] } },
{ "type": "Feature", "properties": { "name": "Aagman Hospital", "type": "Hospital" }, "geometry": { "type": "Point", "coordinates": [ 70.825578, 22.810685 ] } },
{ "type": "Feature", "properties": { "name": "Shivam Hospital", "type": "Hospital" }, "geometry": { "type": "Point", "coordinates": [ 70.829865, 22.814628 ] } },
{ "type": "Feature", "properties": { "name": "Om Clinic & Occupational Health Centre", "type": "Clinic" }, "geometry": { "type": "Point", "coordinates": [ 70.862091, 22.843019 ] } },
{ "type": "Feature", "properties": { "name": "Dhruv Children Hospital", "type": "Hospital" }, "geometry": { "type": "Point", "coordinates": [ 70.809975, 22.80873 ] } },
{ "type": "Feature", "properties": { "name": "Mayaan Maternity Hospital", "type": "Hospital" }, "geometry": { "type": "Point", "coordinates": [ 70.830183, 22.816927 ] } },
{ "type": "Feature", "properties": { "name": "Om Clinic", "type": "Clinic" }, "geometry": { "type": "Point", "coordinates": [ 70.860611, 22.828123 ] } },
{ "type": "Feature", "properties": { "name": "Saumya Skin Clinic", "type": "Clinic" }, "geometry": { "type": "Point", "coordinates": [ 70.830184, 22.814445 ] } },
{ "type": "Feature", "properties": { "name": "Aayush Multispeciality Hospital", "type": "Hospital" }, "geometry": { "type": "Point", "coordinates": [ 70.82904, 22.816226 ] } },
{ "type": "Feature", "properties": { "name": "Om Hospital", "type": "Hospital" }, "geometry": { "type": "Point", "coordinates": [ 70.829592, 22.8155419 ] } },
{ "type": "Feature", "properties": { "name": "Ramji Mandir Bharatnagar", "type": "Place of worship" }, "geometry": { "type": "Point", "coordinates": [ 70.8254487, 22.9047743 ] } },
{ "type": "Feature", "properties": { "name": "Bapa Sitaram Mandir બાપા સીતારામ મંદિર", "type": "Place of worship" }, "geometry": { "type": "Point", "coordinates": [ 70.819956, 22.8240414 ] } },
{ "type": "Feature", "properties": { "name": "Ramdev Pir Mandir રામદેવ પીર મંદિર", "type": "Place of worship" }, "geometry": { "type": "Point", "coordinates": [ 70.8243586, 22.8228981 ] } },
{ "type": "Feature", "properties": { "name": "Krishna School", "type": "School" }, "geometry": { "type": "Point", "coordinates": [ 70.8262065, 22.7897571 ] } },
{ "type": "Feature", "properties": { "name": "Hanumanji Mandir Ravapar Road હનુમાનજી મંદિર રવાપર રોડ", "type": "Place of worship" }, "geometry": { "type": "Point", "coordinates": [ 70.8262247, 22.7928845 ] } },
{ "type": "Feature", "properties": { "name": "Dhavdi Mataji Mandir  ધાવડી માતાજી મંદિર", "type": "Place of worship" }, "geometry": { "type": "Point", "coordinates": [ 70.8512405, 22.8203917 ] } },
{ "type": "Feature", "properties": { "name": "Shri Ramji mandir chowk શ્રી રામજી મંદિર ચોક", "type": "Place of worship" }, "geometry": { "type": "Point", "coordinates": [ 70.9171887, 22.7522758 ] } },
{ "type": "Feature", "properties": { "name": "Meldima Mandir Sanala મેલડીમાં મંદિર સનાળા", "type": "Place of worship" }, "geometry": { "type": "Point", "coordinates": [ 70.8067663, 22.7910607 ] } },
{ "type": "Feature", "properties": { "name": "Shri Ramji Mandir Jepur શ્રી રામજી મંદિર જેપુર", "type": "Place of worship" }, "geometry": { "type": "Point", "coordinates": [ 70.7683863, 22.8687652 ] } },
{ "type": "Feature", "properties": { "name": "Shri Ramji Mandir Talaviya Sanala શ્રી રામજી મંદિર તળાવિયા સનાળા", "type": "Place of worship" }, "geometry": { "type": "Point", "coordinates": [ 70.9222401, 22.8860406 ] } },
{ "type": "Feature", "properties": { "name": "Ram Mandir Lakshminagar રામ મંદિર લક્ષ્મીનગર", "type": "Place of worship" }, "geometry": { "type": "Point", "coordinates": [ 70.8326505, 22.885878 ] } },
{ "type": "Feature", "properties": { "name": "Ramji Mandir Nava Sadulka રામજી મંદિર નવા સડુલકા", "type": "Place of worship" }, "geometry": { "type": "Point", "coordinates": [ 70.8100161, 22.8967735 ] } },
{ "type": "Feature", "properties": { "name": "Rammandir Kerala રામમંદિર કેરાલા", "type": "Place of worship" }, "geometry": { "type": "Point", "coordinates": [ 70.8484134, 22.9390882 ] } },
{ "type": "Feature", "properties": { "name": "Nilkanth School", "type": "School" }, "geometry": { "type": "Point", "coordinates": [ 70.8273314, 22.8049325 ] } },
{ "type": "Feature", "properties": { "name": "Ravapar Hanuman Mandir", "type": "Place of worship" }, "geometry": { "type": "Point", "coordinates": [ 70.8259614, 22.7977652 ] } },
{ "type": "Feature", "properties": { "name": "BAPA SITARAM MADHULI", "type": "Place of worship" }, "geometry": { "type": "Point", "coordinates": [ 70.8479746, 22.8286044 ] } },
{ "type": "Feature", "properties": { "name": "Nirmal School", "type": "School" }, "geometry": { "type": "Point", "coordinates": [ 70.822191, 22.7988313 ] } },
{ "type": "Feature", "properties": { "name": "Shree Khodiyar Ma Mandir", "type": "Place of worship" }, "geometry": { "type": "Point", "coordinates": [ 70.996127433333328, 22.732349233333334 ] } },
{ "type": "Feature", "properties": { "name": "(unnamed)", "type": "Place of worship" }, "geometry": { "type": "Point", "coordinates": [ 70.836063738461547, 22.822054715384617 ] } },
{ "type": "Feature", "properties": { "name": "(unnamed)", "type": "Place of worship" }, "geometry": { "type": "Point", "coordinates": [ 70.825750306666663, 22.797128956666668 ] } }
]
}
