{
"type": "FeatureCollection",
"name": "places",
"crs": { "type": "name", "properties": { "name": "urn:ogc:def:crs:OGC:1.3:CRS84" } },
"features": [
{ "type": "Feature", "properties": { "name": "Morbi", "place": "city" }, "geometry": { "type": "Point", "coordinates": [ 70.8345928, 22.8176662 ] } },
{ "type": "Feature", "properties": { "name": "(unnamed village)", "place": "village" }, "geometry": { "type": "Point", "coordinates": [ 70.8079087, 22.6851363 ] } },
{ "type": "Feature", "properties": { "name": "Sanala", "place": "village" }, "geometry": { "type": "Point", "coordinates": [ 70.8040394, 22.7874954 ] } },
{ "type": "Feature", "properties": { "name": "Rajpur", "place": "village" }, "geometry": { "type": "Point", "coordinates": [ 70.7745018, 22.7698567 ] } },
{ "type": "Feature", "properties": { "name": "Titwala", "place": "village" }, "geometry": { "type": "Point", "coordinates": [ 70.8425903, 22.7191507 ] } },
{ "type": "Feature", "properties": { "name": "(unnamed village)", "place": "village" }, "geometry": { "type": "Point", "coordinates": [ 70.9603929, 22.6894584 ] } },
{ "type": "Feature", "properties": { "name": "Makansar", "place": "suburb" }, "geometry": { "type": "Point", "coordinates": [ 70.9180355, 22.751607 ] } },
{ "type": "Feature", "properties": { "name": "(unnamed village)", "place": "village" }, "geometry": { "type": "Point", "coordinates": [ 70.8446502, 22.7673178 ] } },
{ "type": "Feature", "properties": { "name": "(unnamed village)", "place": "village" }, "geometry": { "type": "Point", "coordinates": [ 70.8519458, 22.7419897 ] } },
{ "type": "Feature", "properties": { "name": "(unnamed village)", "place": "village" }, "geometry": { "type": "Point", "coordinates": [ 70.903852, 22.6946797 ] } },
{ "type": "Feature", "properties": { "name": "(unnamed village)", "place": "village" }, "geometry": { "type": "Point", "coordinates": [ 70.9878158, 22.6906858 ] } },
{ "type": "Feature", "properties": { "name": "(unnamed village)", "place": "village" }, "geometry": { "type": "Point", "coordinates": [ 70.9974289, 22.6803514 ] } },
{ "type": "Feature", "properties": { "name": "Matel", "place": "village" }, "geometry": { "type": "Point", "coordinates": [ 70.9945964, 22.7313029 ] } },
{ "type": "Feature", "properties": { "name": "(unnamed village)", "place": "village" }, "geometry": { "type": "Point", "coordinates": [ 70.9925794, 22.7494699 ] } },
{ "type": "Feature", "properties": { "name": "(unnamed village)", "place": "village" }, "geometry": { "type": "Point", "coordinates": [ 70.9770011, 22.7857965 ] } },
{ "type": "Feature", "properties": { "name": "(unnamed village)", "place": "village" }, "geometry": { "type": "Point", "coordinates": [ 70.9433555, 22.7859943 ] } },
{ "type": "Feature", "properties": { "name": "(unnamed village)", "place": "village" }, "geometry": { "type": "Point", "coordinates": [ 70.9418535, 22.8156261 ] } },
{ "type": "Feature", "properties": { "name": "(unnamed village)", "place": "village" }, "geometry": { "type": "Point", "coordinates": [ 70.9108043, 22.8156261 ] } },
{ "type": "Feature", "properties": { "name": "(unnamed village)", "place": "village" }, "geometry": { "type": "Point", "coordinates": [ 70.9947681, 22.8469917 ] } },
{ "type": "Feature", "properties": { "name": "(unnamed village)", "place": "village" }, "geometry": { "type": "Point", "coordinates": [ 70.9651565, 22.8626519 ] } },
{ "type": "Feature", "properties": { "name": "(unnamed village)", "place": "village" }, "geometry": { "type": "Point", "coordinates": [ 70.9936523, 22.8815526 ] } },
{ "type": "Feature", "properties": { "name": "(unnamed village)", "place": "village" }, "geometry": { "type": "Point", "coordinates": [ 70.9746837, 22.8896973 ] } },
{ "type": "Feature", "properties": { "name": "(unnamed village)", "place": "village" }, "geometry": { "type": "Point", "coordinates": [ 70.9722376, 22.9250575 ] } },
{ "type": "Feature", "properties": { "name": "(unnamed village)", "place": "village" }, "geometry": { "type": "Point", "coordinates": [ 70.9688687, 22.9471506 ] } },
{ "type": "Feature", "properties": { "name": "(unnamed village)", "place": "village" }, "geometry": { "type": "Point", "coordinates": [ 70.8265614, 22.9048782 ] } },
{ "type": "Feature", "properties": { "name": "(unnamed village)", "place": "village" }, "geometry": { "type": "Point", "coordinates": [ 70.8108973, 22.895667 ] } },
{ "type": "Feature", "properties": { "name": "Panchasar", "place": "village" }, "geometry": { "type": "Point", "coordinates": [ 70.7564592, 22.7959646 ] } },
{ "type": "Feature", "properties": { "name": "(unnamed village)", "place": "village" }, "geometry": { "type": "Point", "coordinates": [ 70.7852983, 22.7172506 ] } },
{ "type": "Feature", "properties": { "name": "(unnamed village)", "place": "village" }, "geometry": { "type": "Point", "coordinates": [ 70.7893752, 22.8288773 ] } },
{ "type": "Feature", "properties": { "name": "Juni Pipali", "place": "village" }, "geometry": { "type": "Point", "coordinates": [ 70.8672579, 22.8609922 ] } },
{ "type": "Feature", "properties": { "name": "Khareda ખરેડા", "place": "village" }, "geometry": { "type": "Point", "coordinates": [ 70.9707333, 22.9245688 ] } },
{ "type": "Feature", "properties": { "name": "Janak Nagar", "place": "suburb" }, "geometry": { "type": "Point", "coordinates": [ 70.8228604, 22.822432 ] } },
{ "type": "Feature", "properties": { "name": "Somaiya Society સોમૈયા સોસાયટી", "place": "township" }, "geometry": { "type": "Point", "coordinates": [ 70.8258369, 22.8223344 ] } },
{ "type": "Feature", "properties": { "name": "Shyampark શ્યામપાર્ક", "place": "township" }, "geometry": { "type": "Point", "coordinates": [ 70.8195578, 22.8178625 ] } },
{ "type": "Feature", "properties": { "name": "Lalpar લાલપર", "place": "village" }, "geometry": { "type": "Point", "coordinates": [ 70.8773323, 22.8053752 ] } },
{ "type": "Feature", "properties": { "name": "Juna Makansar", "place": "neighbourhood" }, "geometry": { "type": "Point", "coordinates": [ 70.9138135, 22.7527964 ] } },
{ "type": "Feature", "properties": { "name": "Premji Nagar", "place": "neighbourhood" }, "geometry": { "type": "Point", "coordinates": [ 70.9136692, 22.7611858 ] } },
{ "type": "Feature", "properties": { "name": "Nichimandal નીચી મંડળ", "place": "village" }, "geometry": { "type": "Point", "coordinates": [ 70.9644771, 22.8624516 ] } },
{ "type": "Feature", "properties": { "name": "Haripar હરીપર", "place": "village" }, "geometry": { "type": "Point", "coordinates": [ 70.8578618, 22.9452222 ] } },
{ "type": "Feature", "properties": { "name": "Lilapar", "place": "suburb" }, "geometry": { "type": "Point", "coordinates": [ 70.8496176, 22.7686237 ] } },
{ "type": "Feature", "properties": { "name": "Unchimandal", "place": "village" }, "geometry": { "type": "Point", "coordinates": [ 70.9370255, 22.8493843 ] } },
{ "type": "Feature", "properties": { "name": "Sanala", "place": "village" }, "geometry": { "type": "Point", "coordinates": [ 70.9223699, 22.8857534 ] } }
]
}
