{
"type": "FeatureCollection",
"name": "railways",
"crs": { "type": "name", "properties": { "name": "urn:ogc:def:crs:OGC:1.3:CRS84" } },
"features": [
{ "type": "Feature", "properties": { "name": "Railway" }, "geometry": { "type": "LineString", "coordinates": [ [ 70.6117326, 23.0013971 ], [ 70.6113598, 23.0010218 ], [ 70.6110674, 23.0007145 ], [ 70.6107724, 23.000317 ], [ 70.6105148, 22.9998492 ], [ 70.6103057, 22.999359 ], [ 70.6102533, 22.999117 ], [ 70.61019, 22.9987799 ], [ 70.6100804, 22.9974467 ], [ 70.609646, 22.9920339 ], [ 70.6096056, 22.9914394 ], [ 70.6095761, 22.9908641 ], [ 70.6095914, 22.9903497 ], [ 70.6109786, 22.9641199 ], [ 70.6110138, 22.9637402 ], [ 70.6110577, 22.9633765 ], [ 70.6110929, 22.963227 ], [ 70.6111365, 22.9630794 ], [ 70.6111885, 22.9629341 ], [ 70.6112487, 22.9627915 ], [ 70.6113169, 22.962652 ], [ 70.6113929, 22.962516 ], [ 70.6114766, 22.9623838 ], [ 70.6115676, 22.9622559 ], [ 70.6116659, 22.9621325 ], [ 70.6117682, 22.962017 ], [ 70.6118767, 22.9619065 ], [ 70.6119913, 22.9618012 ], [ 70.6121115, 22.9617015 ], [ 70.6122371, 22.9616075 ], [ 70.6123678, 22.9615195 ], [ 70.6141097, 22.9604919 ], [ 70.6147238, 22.9600816 ], [ 70.6149205, 22.9599527 ], [ 70.6151726, 22.9597786 ], [ 70.6154337, 22.9595507 ], [ 70.6156727, 22.959312 ], [ 70.6158744, 22.9590841 ], [ 70.6160055, 22.9589118 ], [ 70.616243, 22.9585451 ], [ 70.6166043, 22.9580054 ], [ 70.6169121, 22.957553 ], [ 70.6185055, 22.9551412 ], [ 70.6186996, 22.9548803 ], [ 70.6189521, 22.9545393 ], [ 70.619196, 22.9542376 ], [ 70.619519, 22.9538936 ], [ 70.6197986, 22.953646 ], [ 70.6200625, 22.9534258 ], [ 70.620448, 22.9531686 ], [ 70.6208113, 22.9529482 ], [ 70.6212156, 22.9527575 ], [ 70.6216166, 22.9525941 ], [ 70.6227203, 22.9521694 ], [ 70.6232725, 22.9519598 ], [ 70.6239248, 22.9517033 ], [ 70.6509308, 22.94117 ], [ 70.6742018, 22.9321229 ], [ 70.6747532, 22.9318698 ], [ 70.6750259, 22.9317434 ], [ 70.6752959, 22.9316121 ], [ 70.675563, 22.931476 ], [ 70.6758988, 22.9312958 ], [ 70.6762296, 22.9311078 ], [ 70.6765553, 22.9309124 ], [ 70.6768755, 22.9307095 ], [ 70.6771901, 22.9304994 ], [ 70.677499, 22.930282 ], [ 70.6778018, 22.9300577 ], [ 70.688312, 22.9218997 ], [ 70.6959413, 22.9160046 ], [ 70.7105998, 22.9052556 ], [ 70.7136925, 22.9029857 ], [ 70.7145562, 22.9023113 ], [ 70.7154301, 22.9014604 ], [ 70.7165776, 22.9004088 ], [ 70.7171243, 22.899966 ], [ 70.718047, 22.8991738 ], [ 70.7187046, 22.8987313 ], [ 70.7204552, 22.8976165 ], [ 70.7217832, 22.8968185 ], [ 70.7232495, 22.8959097 ], [ 70.7452064, 22.8798263 ], [ 70.7504131, 22.8760165 ], [ 70.7885577, 22.8477103 ], [ 70.7908166, 22.846034 ], [ 70.7996932, 22.8394564 ], [ 70.8018467, 22.8378194 ], [ 70.8022984, 22.8375336 ], [ 70.8025189, 22.8373858 ], [ 70.8028921, 22.8372148 ], [ 70.8042616, 22.8366049 ] ] } },
{ "type": "Feature", "properties": { "name": "Railway" }, "geometry": { "type": "LineString", "coordinates": [ [ 70.8045416, 22.8364802 ], [ 70.8102734, 22.833946 ], [ 70.8181125, 22.8304442 ], [ 70.82074, 22.8292767 ], [ 70.8209985, 22.8291442 ], [ 70.8222082, 22.8285188 ], [ 70.8224325, 22.8284068 ], [ 70.8229673, 22.8281529 ], [ 70.8234637, 22.8279286 ], [ 70.8244511, 22.8274944 ], [ 70.8255943, 22.8270032 ], [ 70.8332313, 22.8236302 ], [ 70.8337923, 22.823387 ], [ 70.8344272, 22.8230976 ], [ 70.8345519, 22.8230457 ], [ 70.8346798, 22.8230012 ], [ 70.8348118, 22.8229638 ], [ 70.8349462, 22.8229343 ], [ 70.8350823, 22.8229127 ], [ 70.8354193, 22.8229058 ], [ 70.8355358, 22.8229115 ], [ 70.8358617, 22.8229274 ], [ 70.8377624, 22.8230627 ], [ 70.838114, 22.8230976 ] ] } },
{ "type": "Feature", "properties": { "name": "Railway" }, "geometry": { "type": "LineString", "coordinates": [ [ 70.9013299, 22.767671 ], [ 70.9022366, 22.7662955 ], [ 70.9036499, 22.7642325 ], [ 70.904411, 22.7630012 ], [ 70.9049869, 22.7620231 ], [ 70.9075071, 22.7577256 ], [ 70.9089538, 22.7552532 ], [ 70.9100832, 22.75333 ], [ 70.9102541, 22.7530638 ], [ 70.9104391, 22.7528114 ], [ 70.9107344, 22.7524289 ], [ 70.9109081, 22.7522298 ], [ 70.9112858, 22.7518421 ] ] } },
{ "type": "Feature", "properties": { "name": "Railway" }, "geometry": { "type": "LineString", "coordinates": [ [ 70.911487, 22.7516349 ], [ 70.9122971, 22.7507548 ], [ 70.9158181, 22.7469926 ], [ 70.9198987, 22.7425339 ], [ 70.9207837, 22.7415559 ], [ 70.9212527, 22.7409491 ], [ 70.9226779, 22.7387472 ], [ 70.9236218, 22.7375174 ], [ 70.9299929, 22.7323586 ], [ 70.9306808, 22.731531 ], [ 70.9311472, 22.7301444 ] ] } },
{ "type": "Feature", "properties": { "name": "Railway" }, "geometry": { "type": "LineString", "coordinates": [ [ 70.889824, 22.7836972 ], [ 70.88994, 22.7818994 ], [ 70.8900166, 22.7813485 ], [ 70.890151, 22.7808125 ], [ 70.8904139, 22.780253 ], [ 70.890706, 22.7798093 ], [ 70.8916896, 22.778482 ], [ 70.8926297, 22.7772672 ], [ 70.8931658, 22.776721 ], [ 70.893732, 22.7761975 ], [ 70.8959631, 22.7742945 ], [ 70.8960777, 22.7741981 ], [ 70.8969191, 22.7734907 ], [ 70.8976271, 22.772826 ], [ 70.8981874, 22.7721821 ], [ 70.8992567, 22.7706571 ], [ 70.8999461, 22.7696481 ], [ 70.9010836, 22.7680153 ] ] } },
{ "type": "Feature", "properties": { "name": "Railway" }, "geometry": { "type": "LineString", "coordinates": [ [ 70.9010836, 22.7680153 ], [ 70.9013299, 22.767671 ] ] } },
{ "type": "Feature", "properties": { "name": "Railway" }, "geometry": { "type": "LineString", "coordinates": [ [ 70.838114, 22.8230976 ], [ 70.8432684, 22.8237148 ] ] } },
{ "type": "Feature", "properties": { "name": "Railway" }, "geometry": { "type": "LineString", "coordinates": [ [ 70.9112858, 22.7518421 ], [ 70.911487, 22.7516349 ] ] } },
{ "type": "Feature", "properties": { "name": "Railway" }, "geometry": { "type": "LineString", "coordinates": [ [ 70.9311472, 22.7301444 ], [ 70.9314134, 22.7291482 ] ] } },
{ "type": "Feature", "properties": { "name": "Railway" }, "geometry": { "type": "LineString", "coordinates": [ [ 70.935213, 22.7078026 ], [ 70.9349329, 22.7069629 ] ] } },
{ "type": "Feature", "properties": { "name": "Railway" }, "geometry": { "type": "LineString", "coordinates": [ [ 70.8432684, 22.8237148 ], [ 70.8450825, 22.8239257 ], [ 70.8452045, 22.8239253 ], [ 70.8453263, 22.8239211 ], [ 70.8454662, 22.8239118 ], [ 70.8456056, 22.8238975 ], [ 70.8457444, 22.8238783 ], [ 70.8459106, 22.8238487 ], [ 70.8460753, 22.8238121 ], [ 70.8462379, 22.8237686 ], [ 70.8463992, 22.8237179 ], [ 70.8465578, 22.8236603 ], [ 70.8467133, 22.8235961 ], [ 70.8468654, 22.8235253 ], [ 70.8470138, 22.8234481 ], [ 70.8471582, 22.8233646 ], [ 70.8475353, 22.8230734 ], [ 70.847918, 22.8226736 ], [ 70.8487016, 22.8217733 ], [ 70.8502968, 22.8199762 ], [ 70.8514799, 22.8186 ], [ 70.8532595, 22.8165489 ], [ 70.8533564, 22.8164362 ], [ 70.8595062, 22.8092877 ], [ 70.8597846, 22.8089914 ], [ 70.8606405, 22.8082059 ], [ 70.8611229, 22.8078228 ], [ 70.8629811, 22.8063944 ], [ 70.8650923, 22.8046927 ], [ 70.865652, 22.8042406 ], [ 70.8691427, 22.8014213 ], [ 70.8743789, 22.7971813 ], [ 70.8772637, 22.7950737 ], [ 70.8880053, 22.7871711 ], [ 70.8885074, 22.7867577 ], [ 70.8888373, 22.7864085 ], [ 70.8890733, 22.7861135 ], [ 70.8892702, 22.7858287 ], [ 70.8895335, 22.7852782 ], [ 70.8896594, 22.7849471 ], [ 70.8897135, 22.7847166 ] ] } },
{ "type": "Feature", "properties": { "name": "Railway" }, "geometry": { "type": "LineString", "coordinates": [ [ 70.8897135, 22.7847166 ], [ 70.8897672, 22.7843706 ], [ 70.889824, 22.7836972 ] ] } },
{ "type": "Feature", "properties": { "name": "Railway" }, "geometry": { "type": "LineString", "coordinates": [ [ 70.9349329, 22.7069629 ], [ 70.9344001, 22.7053815 ], [ 70.9343595, 22.704783 ], [ 70.9344098, 22.7042816 ], [ 70.9345527, 22.7037643 ], [ 70.9346737, 22.7033889 ], [ 70.9349684, 22.7027877 ], [ 70.9365039, 22.7001514 ], [ 70.9373849, 22.6986994 ], [ 70.9378258, 22.6979401 ], [ 70.9383358, 22.6972606 ], [ 70.9418497, 22.6928535 ], [ 70.9422577, 22.6922789 ], [ 70.9425555, 22.6917829 ], [ 70.9427687, 22.6912787 ], [ 70.9429427, 22.6905872 ], [ 70.9430264, 22.6899996 ], [ 70.9430487, 22.6894995 ], [ 70.9429649, 22.6884468 ], [ 70.9418427, 22.6755689 ], [ 70.941821, 22.6742986 ], [ 70.9418895, 22.6736444 ], [ 70.9420056, 22.6731325 ], [ 70.9423472, 22.6722377 ], [ 70.9456037, 22.6649745 ], [ 70.9489226, 22.6575584 ], [ 70.948937, 22.6575316 ], [ 70.9496451, 22.6562126 ], [ 70.950438, 22.655115 ], [ 70.9506039, 22.6548853 ], [ 70.9515267, 22.6534747 ], [ 70.951859, 22.6527274 ], [ 70.9521643, 22.6518968 ], [ 70.9546444, 22.643362 ], [ 70.9581657, 22.6312437 ], [ 70.9582921, 22.6308766 ], [ 70.959145, 22.6283995 ], [ 70.9599048, 22.6263045 ], [ 70.9600577, 22.6259644 ], [ 70.9603205, 22.6254569 ], [ 70.9605264, 22.6251484 ] ] } },
{ "type": "Feature", "properties": { "name": "Railway" }, "geometry": { "type": "LineString", "coordinates": [ [ 70.9314134, 22.7291482 ], [ 70.9334371, 22.7214513 ], [ 70.9354022, 22.7140156 ], [ 70.9356316, 22.7132478 ], [ 70.9356895, 22.7127787 ], [ 70.935717, 22.7122009 ], [ 70.9356286, 22.7108924 ], [ 70.9356159, 22.7107605 ], [ 70.9355351, 22.7099229 ], [ 70.9354145, 22.7086454 ], [ 70.935213, 22.7078026 ] ] } },
{ "type": "Feature", "properties": { "name": "Railway" }, "geometry": { "type": "LineString", "coordinates": [ [ 70.8042616, 22.8366049 ], [ 70.8045416, 22.8364802 ] ] } },
{ "type": "Feature", "properties": { "name": "Railway" }, "geometry": { "type": "LineString", "coordinates": [ [ 70.8337923, 22.823387 ], [ 70.8333638, 22.8236271 ], [ 70.8328093, 22.8238656 ], [ 70.8324274, 22.8240763 ], [ 70.8322772, 22.824148 ], [ 70.8250413, 22.8273345 ], [ 70.8247818, 22.8274433 ], [ 70.8243602, 22.8275912 ] ] } },
{ "type": "Feature", "properties": { "name": "Railway" }, "geometry": { "type": "LineString", "coordinates": [ [ 70.8255943, 22.8270032 ], [ 70.8264166, 22.8265188 ], [ 70.826595, 22.826434 ], [ 70.8287723, 22.8254711 ] ] } },
{ "type": "Feature", "properties": { "name": "Railway" }, "geometry": { "type": "LineString", "coordinates": [ [ 70.831677, 22.8241783 ], [ 70.832326, 22.823902 ], [ 70.8325124, 22.8238367 ], [ 70.8332313, 22.8236302 ] ] } },
{ "type": "Feature", "properties": { "name": "Railway" }, "geometry": { "type": "LineString", "coordinates": [ [ 70.8328093, 22.8238656 ], [ 70.8243602, 22.8275912 ], [ 70.8241518, 22.8276805 ], [ 70.8234637, 22.8279286 ] ] } }
]
}
